[0;31m[15/03/2022 20:14:06][0;93m  [INFO][0m   Init game input: {"goal":{"mode":"REGATTA", "checkpoints":[{"position":{"x":8182.608695652171, "y":2654.7231270358307, "orientation":0.0}, "shape":{"type":"circle", "radius":200.0}}, {"position":{"x":5469.565217391305, "y":-1123.7785016286687, "orientation":0.0}, "shape":{"type":"circle", "radius":1500.0}}, {"position":{"x":4434.7826086956475, "y":374.5928338762211, "orientation":0.0}, "shape":{"type":"circle", "radius":200.0}}, {"position":{"x":1939.1304347826083, "y":5806.188925081433, "orientation":0.0}, "shape":{"type":"circle", "radius":200.0}}, {"position":{"x":9573.913043478302, "y":5765.472312703588, "orientation":0.0}, "shape":{"type":"circle", "radius":200.0}}]}, "ship":{"type":"ship", "position":{"x":2652.1739130434785, "y":2646.5798045602605, "orientation":0.0}, "name":"kihm", "deck":{"width":3, "length":8}, "entities":[{"x":1, "y":1, "type":"rudder"}, {"x":6, "y":0, "type":"oar"}, {"x":6, "y":2, "type":"oar"}, {"x":5, "y":2, "type":"oar"}, {"x":4, "y":2, "type":"oar"}, {"x":3, "y":2, "type":"oar"}, {"x":3, "y":0, "type":"oar"}, {"x":4, "y":0, "type":"oar"}, {"x":5, "y":0, "type":"oar"}, {"x":6, "y":1, "type":"sail", "openned":false}, {"x":7, "y":2, "type":"oar"}, {"x":7, "y":0, "type":"oar"}], "life":1200, "shape":{"type":"rectangle", "width":3.0, "height":8.0, "orientation":0.0}}, "sailors":[{"x":0, "y":0, "id":0, "name":"JackPouce"}, {"x":0, "y":1, "id":1, "name":"JackTeach"}, {"x":0, "y":2, "id":2, "name":"JackPouce"}, {"x":1, "y":0, "id":3, "name":"TomTeach"}, {"x":1, "y":1, "id":4, "name":"LuffyPouce"}, {"x":1, "y":2, "id":5, "name":"JackPouce"}, {"x":2, "y":0, "id":6, "name":"TomTeach"}, {"x":2, "y":1, "id":7, "name":"LuffyTeach"}, {"x":2, "y":2, "id":8, "name":"TomTeach"}, {"x":3, "y":0, "id":9, "name":"TomTeach"}, {"x":3, "y":1, "id":10, "name":"EdwardPouce"}, {"x":3, "y":2, "id":11, "name":"TomTeach"}], "shipCount":1}
[0;31m[15/03/2022 20:14:06][0;93m  [INFO][0m    === Tour 1 ===
[0;31m[15/03/2022 20:14:06][0;93m  [INFO][0m   Next round input: {"ship":{"type":"ship", "position":{"x":2652.1739130434785, "y":2646.5798045602605, "orientation":0.0}, "name":"kihm", "deck":{"width":3, "length":8}, "entities":[{"x":1, "y":1, "type":"rudder"}, {"x":6, "y":0, "type":"oar"}, {"x":6, "y":2, "type":"oar"}, {"x":5, "y":2, "type":"oar"}, {"x":4, "y":2, "type":"oar"}, {"x":3, "y":2, "type":"oar"}, {"x":3, "y":0, "type":"oar"}, {"x":4, "y":0, "type":"oar"}, {"x":5, "y":0, "type":"oar"}, {"x":6, "y":1, "type":"sail", "openned":false}, {"x":7, "y":2, "type":"oar"}, {"x":7, "y":0, "type":"oar"}], "life":1200, "shape":{"type":"rectangle", "width":3.0, "height":8.0, "orientation":0.0}}, "visibleEntities":[{"type":"stream", "position":{"x":3539.1304347826062, "y":2280.130293159613, "orientation":1.9896753472735356}, "shape":{"type":"rectangle", "width":350.0, "height":3000.0, "orientation":0.0}, "strength":35.0}], "wind":{"orientation":0.0, "strength":100.0}}
[0;31m[15/03/2022 20:14:08][0;93m  [INFO][0m   Actions: [{"sailorId":0,"type":"MOVING","xdistance":4,"ydistance":0},{"sailorId":1,"type":"MOVING","xdistance":4,"ydistance":1},{"sailorId":2,"type":"MOVING","xdistance":5,"ydistance":0},{"sailorId":5,"type":"MOVING","xdistance":5,"ydistance":0},{"sailorId":3,"type":"MOVING","xdistance":4,"ydistance":0},{"sailorId":7,"type":"MOVING","xdistance":4,"ydistance":0},{"sailorId":8,"type":"MOVING","xdistance":5,"ydistance":0},{"sailorId":6,"type":"MOVING","xdistance":4,"ydistance":0},{"sailorId":10,"type":"MOVING","xdistance":4,"ydistance":-1},{"sailorId":0,"type":"OAR"},{"sailorId":1,"type":"OAR"},{"sailorId":2,"type":"OAR"},{"sailorId":3,"type":"OAR"},{"sailorId":4,"type":"TURN","rotation":0.0014708345917919248},{"sailorId":5,"type":"OAR"},{"sailorId":6,"type":"OAR"},{"sailorId":7,"type":"LIFT_SAIL"},{"sailorId":8,"type":"OAR"},{"sailorId":9,"type":"OAR"},{"sailorId":10,"type":"OAR"},{"sailorId":11,"type":"OAR"}]
[0;31m[15/03/2022 20:14:08][0;93m  [INFO][0m    === Tour 2 ===
[0;31m[15/03/2022 20:14:08][0;93m  [INFO][0m   Next round input: {"ship":{"type":"ship", "position":{"x":2917.173783406939, "y":2646.7727412144236, "orientation":0.001470834591791925}, "name":"kihm", "deck":{"width":3, "length":8}, "entities":[{"x":1, "y":1, "type":"rudder"}, {"x":6, "y":0, "type":"oar"}, {"x":6, "y":2, "type":"oar"}, {"x":5, "y":2, "type":"oar"}, {"x":4, "y":2, "type":"oar"}, {"x":3, "y":2, "type":"oar"}, {"x":3, "y":0, "type":"oar"}, {"x":4, "y":0, "type":"oar"}, {"x":5, "y":0, "type":"oar"}, {"x":6, "y":1, "type":"sail", "openned":true}, {"x":7, "y":2, "type":"oar"}, {"x":7, "y":0, "type":"oar"}], "life":1200, "shape":{"type":"rectangle", "width":3.0, "height":8.0, "orientation":0.0}}, "visibleEntities":[{"type":"stream", "position":{"x":3539.1304347826062, "y":2280.130293159613, "orientation":1.9896753472735356}, "shape":{"type":"rectangle", "width":350.0, "height":3000.0, "orientation":0.0}, "strength":35.0}], "wind":{"orientation":0.0, "strength":100.0}}
[0;31m[15/03/2022 20:14:09][0;93m  [INFO][0m   Actions: [{"sailorId":0,"type":"OAR"},{"sailorId":1,"type":"OAR"},{"sailorId":2,"type":"OAR"},{"sailorId":3,"type":"OAR"},{"sailorId":4,"type":"TURN","rotation":3.885828534225754E-5},{"sailorId":5,"type":"OAR"},{"sailorId":6,"type":"OAR"},{"sailorId":8,"type":"OAR"},{"sailorId":9,"type":"OAR"},{"sailorId":10,"type":"OAR"},{"sailorId":11,"type":"OAR"}]
[0;31m[15/03/2022 20:14:10][0;93m  [INFO][0m    === Tour 3 ===
[0;31m[15/03/2022 20:14:10][0;93m  [INFO][0m   Next round input: {"ship":{"type":"ship", "position":{"x":3182.03102035308, "y":2647.4873502154096, "orientation":0.0015096928771341932}, "name":"kihm", "deck":{"width":3, "length":8}, "entities":[{"x":1, "y":1, "type":"rudder"}, {"x":6, "y":0, "type":"oar"}, {"x":6, "y":2, "type":"oar"}, {"x":5, "y":2, "type":"oar"}, {"x":4, "y":2, "type":"oar"}, {"x":3, "y":2, "type":"oar"}, {"x":3, "y":0, "type":"oar"}, {"x":4, "y":0, "type":"oar"}, {"x":5, "y":0, "type":"oar"}, {"x":6, "y":1, "type":"sail", "openned":true}, {"x":7, "y":2, "type":"oar"}, {"x":7, "y":0, "type":"oar"}], "life":1200, "shape":{"type":"rectangle", "width":3.0, "height":8.0, "orientation":0.0}}, "visibleEntities":[{"type":"stream", "position":{"x":3539.1304347826062, "y":2280.130293159613, "orientation":1.9896753472735356}, "shape":{"type":"rectangle", "width":350.0, "height":3000.0, "orientation":0.0}, "strength":35.0}], "wind":{"orientation":0.0, "strength":100.0}}
[0;31m[15/03/2022 20:14:11][0;93m  [INFO][0m   Actions: [{"sailorId":0,"type":"OAR"},{"sailorId":1,"type":"OAR"},{"sailorId":2,"type":"OAR"},{"sailorId":3,"type":"OAR"},{"sailorId":4,"type":"TURN","rotation":-6.556603438672847E-5},{"sailorId":5,"type":"OAR"},{"sailorId":6,"type":"OAR"},{"sailorId":8,"type":"OAR"},{"sailorId":9,"type":"OAR"},{"sailorId":10,"type":"OAR"},{"sailorId":11,"type":"OAR"}]
[0;31m[15/03/2022 20:14:11][0;93m  [INFO][0m    === Tour 4 ===
[0;31m[15/03/2022 20:14:11][0;93m  [INFO][0m   Next round input: {"ship":{"type":"ship", "position":{"x":3432.7948395230587, "y":2679.8529089170684, "orientation":0.0014441268427474658}, "name":"kihm", "deck":{"width":3, "length":8}, "entities":[{"x":1, "y":1, "type":"rudder"}, {"x":6, "y":0, "type":"oar"}, {"x":6, "y":2, "type":"oar"}, {"x":5, "y":2, "type":"oar"}, {"x":4, "y":2, "type":"oar"}, {"x":3, "y":2, "type":"oar"}, {"x":3, "y":0, "type":"oar"}, {"x":4, "y":0, "type":"oar"}, {"x":5, "y":0, "type":"oar"}, {"x":6, "y":1, "type":"sail", "openned":true}, {"x":7, "y":2, "type":"oar"}, {"x":7, "y":0, "type":"oar"}], "life":1200, "shape":{"type":"rectangle", "width":3.0, "height":8.0, "orientation":0.0}}, "visibleEntities":[{"type":"stream", "position":{"x":3539.1304347826062, "y":2280.130293159613, "orientation":1.9896753472735356}, "shape":{"type":"rectangle", "width":350.0, "height":3000.0, "orientation":0.0}, "strength":35.0}, {"type":"reef", "position":{"x":4921.739130434786, "y":4096.091205211728, "orientation":0.0}, "shape":{"type":"rectangle", "width":1000.0, "height":2500.0, "orientation":0.0}}], "wind":{"orientation":0.0, "strength":100.0}}
[0;31m[15/03/2022 20:14:12][0;93m  [INFO][0m   Actions: [{"sailorId":0,"type":"OAR"},{"sailorId":1,"type":"OAR"},{"sailorId":2,"type":"OAR"},{"sailorId":3,"type":"OAR"},{"sailorId":4,"type":"TURN","rotation":-0.006726250304098166},{"sailorId":5,"type":"OAR"},{"sailorId":6,"type":"OAR"},{"sailorId":8,"type":"OAR"},{"sailorId":9,"type":"OAR"},{"sailorId":10,"type":"OAR"},{"sailorId":11,"type":"OAR"}]
[0;31m[15/03/2022 20:14:12][0;93m  [INFO][0m    === Tour 5 ===
[0;31m[15/03/2022 20:14:12][0;93m  [INFO][0m   Next round input: {"ship":{"type":"ship", "position":{"x":3690.960327214676, "y":2694.7008529740965, "orientation":-0.0052821234613506934}, "name":"kihm", "deck":{"width":3, "length":8}, "entities":[{"x":1, "y":1, "type":"rudder"}, {"x":6, "y":0, "type":"oar"}, {"x":6, "y":2, "type":"oar"}, {"x":5, "y":2, "type":"oar"}, {"x":4, "y":2, "type":"oar"}, {"x":3, "y":2, "type":"oar"}, {"x":3, "y":0, "type":"oar"}, {"x":4, "y":0, "type":"oar"}, {"x":5, "y":0, "type":"oar"}, {"x":6, "y":1, "type":"sail", "openned":true}, {"x":7, "y":2, "type":"oar"}, {"x":7, "y":0, "type":"oar"}], "life":1200, "shape":{"type":"rectangle", "width":3.0, "height":8.0, "orientation":0.0}}, "visibleEntities":[{"type":"stream", "position":{"x":3539.1304347826062, "y":2280.130293159613, "orientation":1.9896753472735356}, "shape":{"type":"rectangle", "width":350.0, "height":3000.0, "orientation":0.0}, "strength":35.0}, {"type":"reef", "position":{"x":4921.739130434786, "y":4096.091205211728, "orientation":0.0}, "shape":{"type":"rectangle", "width":1000.0, "height":2500.0, "orientation":0.0}}, {"type":"stream", "position":{"x":5504.347826086957, "y":2703.5830618892533, "orientation":0.0}, "shape":{"type":"rectangle", "width":500.0, "height":1750.0, "orientation":0.0}, "strength":50.0}], "wind":{"orientation":0.0, "strength":100.0}}
[0;31m[15/03/2022 20:14:13][0;93m  [INFO][0m   Actions: [{"sailorId":0,"type":"OAR"},{"sailorId":1,"type":"OAR"},{"sailorId":2,"type":"OAR"},{"sailorId":3,"type":"OAR"},{"sailorId":4,"type":"TURN","rotation":-0.0036141657643691504},{"sailorId":5,"type":"OAR"},{"sailorId":6,"type":"OAR"},{"sailorId":8,"type":"OAR"},{"sailorId":9,"type":"OAR"},{"sailorId":10,"type":"OAR"},{"sailorId":11,"type":"OAR"}]
[0;31m[15/03/2022 20:14:13][0;93m  [INFO][0m    === Tour 6 ===
[0;31m[15/03/2022 20:14:13][0;93m  [INFO][0m   Next round input: {"ship":{"type":"ship", "position":{"x":3955.951003519339, "y":2692.8270375304764, "orientation":-0.008896289225719813}, "name":"kihm", "deck":{"width":3, "length":8}, "entities":[{"x":1, "y":1, "type":"rudder"}, {"x":6, "y":0, "type":"oar"}, {"x":6, "y":2, "type":"oar"}, {"x":5, "y":2, "type":"oar"}, {"x":4, "y":2, "type":"oar"}, {"x":3, "y":2, "type":"oar"}, {"x":3, "y":0, "type":"oar"}, {"x":4, "y":0, "type":"oar"}, {"x":5, "y":0, "type":"oar"}, {"x":6, "y":1, "type":"sail", "openned":true}, {"x":7, "y":2, "type":"oar"}, {"x":7, "y":0, "type":"oar"}], "life":1200, "shape":{"type":"rectangle", "width":3.0, "height":8.0, "orientation":0.0}}, "visibleEntities":[{"type":"stream", "position":{"x":3539.1304347826062, "y":2280.130293159613, "orientation":1.9896753472735356}, "shape":{"type":"rectangle", "width":350.0, "height":3000.0, "orientation":0.0}, "strength":35.0}, {"type":"reef", "position":{"x":4921.739130434786, "y":4096.091205211728, "orientation":0.0}, "shape":{"type":"rectangle", "width":1000.0, "height":2500.0, "orientation":0.0}}, {"type":"stream", "position":{"x":5504.347826086957, "y":2703.5830618892533, "orientation":0.0}, "shape":{"type":"rectangle", "width":500.0, "height":1750.0, "orientation":0.0}, "strength":50.0}], "wind":{"orientation":0.0, "strength":100.0}}
[0;31m[15/03/2022 20:14:14][0;93m  [INFO][0m   Actions: [{"sailorId":0,"type":"OAR"},{"sailorId":1,"type":"OAR"},{"sailorId":2,"type":"OAR"},{"sailorId":3,"type":"OAR"},{"sailorId":4,"type":"TURN","rotation":-1.2010961194197298E-4},{"sailorId":5,"type":"OAR"},{"sailorId":6,"type":"OAR"},{"sailorId":8,"type":"OAR"},{"sailorId":9,"type":"OAR"},{"sailorId":10,"type":"OAR"},{"sailorId":11,"type":"OAR"}]
[0;31m[15/03/2022 20:14:14][0;93m  [INFO][0m    === Tour 7 ===
[0;31m[15/03/2022 20:14:14][0;93m  [INFO][0m   Next round input: {"ship":{"type":"ship", "position":{"x":4220.936366083843, "y":2690.4538331492795, "orientation":-0.009016398837661713}, "name":"kihm", "deck":{"width":3, "length":8}, "entities":[{"x":1, "y":1, "type":"rudder"}, {"x":6, "y":0, "type":"oar"}, {"x":6, "y":2, "type":"oar"}, {"x":5, "y":2, "type":"oar"}, {"x":4, "y":2, "type":"oar"}, {"x":3, "y":2, "type":"oar"}, {"x":3, "y":0, "type":"oar"}, {"x":4, "y":0, "type":"oar"}, {"x":5, "y":0, "type":"oar"}, {"x":6, "y":1, "type":"sail", "openned":true}, {"x":7, "y":2, "type":"oar"}, {"x":7, "y":0, "type":"oar"}], "life":1200, "shape":{"type":"rectangle", "width":3.0, "height":8.0, "orientation":0.0}}, "visibleEntities":[{"type":"stream", "position":{"x":3539.1304347826062, "y":2280.130293159613, "orientation":1.9896753472735356}, "shape":{"type":"rectangle", "width":350.0, "height":3000.0, "orientation":0.0}, "strength":35.0}, {"type":"reef", "position":{"x":4921.739130434786, "y":4096.091205211728, "orientation":0.0}, "shape":{"type":"rectangle", "width":1000.0, "height":2500.0, "orientation":0.0}}, {"type":"stream", "position":{"x":5504.347826086957, "y":2703.5830618892533, "orientation":0.0}, "shape":{"type":"rectangle", "width":500.0, "height":1750.0, "orientation":0.0}, "strength":50.0}], "wind":{"orientation":0.0, "strength":100.0}}
[0;31m[15/03/2022 20:14:15][0;93m  [INFO][0m   Actions: [{"sailorId":0,"type":"OAR"},{"sailorId":1,"type":"OAR"},{"sailorId":2,"type":"OAR"},{"sailorId":3,"type":"OAR"},{"sailorId":4,"type":"TURN","rotation":-4.272760346139826E-6},{"sailorId":5,"type":"OAR"},{"sailorId":6,"type":"OAR"},{"sailorId":8,"type":"OAR"},{"sailorId":9,"type":"OAR"},{"sailorId":10,"type":"OAR"},{"sailorId":11,"type":"OAR"}]
[0;31m[15/03/2022 20:14:15][0;93m  [INFO][0m    === Tour 8 ===
[0;31m[15/03/2022 20:14:15][0;93m  [INFO][0m   Next round input: {"ship":{"type":"ship", "position":{"x":4485.921522968983, "y":2688.0639960491044, "orientation":-0.00902067159800777}, "name":"kihm", "deck":{"width":3, "length":8}, "entities":[{"x":1, "y":1, "type":"rudder"}, {"x":6, "y":0, "type":"oar"}, {"x":6, "y":2, "type":"oar"}, {"x":5, "y":2, "type":"oar"}, {"x":4, "y":2, "type":"oar"}, {"x":3, "y":2, "type":"oar"}, {"x":3, "y":0, "type":"oar"}, {"x":4, "y":0, "type":"oar"}, {"x":5, "y":0, "type":"oar"}, {"x":6, "y":1, "type":"sail", "openned":true}, {"x":7, "y":2, "type":"oar"}, {"x":7, "y":0, "type":"oar"}], "life":1200, "shape":{"type":"rectangle", "width":3.0, "height":8.0, "orientation":0.0}}, "visibleEntities":[{"type":"stream", "position":{"x":3539.1304347826062, "y":2280.130293159613, "orientation":1.9896753472735356}, "shape":{"type":"rectangle", "width":350.0, "height":3000.0, "orientation":0.0}, "strength":35.0}, {"type":"reef", "position":{"x":4921.739130434786, "y":4096.091205211728, "orientation":0.0}, "shape":{"type":"rectangle", "width":1000.0, "height":2500.0, "orientation":0.0}}, {"type":"stream", "position":{"x":5504.347826086957, "y":2703.5830618892533, "orientation":0.0}, "shape":{"type":"rectangle", "width":500.0, "height":1750.0, "orientation":0.0}, "strength":50.0}], "wind":{"orientation":0.0, "strength":100.0}}
[0;31m[15/03/2022 20:14:16][0;93m  [INFO][0m   Actions: [{"sailorId":0,"type":"OAR"},{"sailorId":1,"type":"OAR"},{"sailorId":2,"type":"OAR"},{"sailorId":3,"type":"OAR"},{"sailorId":4,"type":"TURN","rotation":-1.6351713510824595E-7},{"sailorId":5,"type":"OAR"},{"sailorId":6,"type":"OAR"},{"sailorId":8,"type":"OAR"},{"sailorId":9,"type":"OAR"},{"sailorId":10,"type":"OAR"},{"sailorId":11,"type":"OAR"}]
[0;31m[15/03/2022 20:14:16][0;93m  [INFO][0m    === Tour 9 ===
[0;31m[15/03/2022 20:14:16][0;93m  [INFO][0m   Next round input: {"ship":{"type":"ship", "position":{"x":4774.406672484541, "y":2685.6735657488593, "orientation":-0.009020835115142845}, "name":"kihm", "deck":{"width":3, "length":8}, "entities":[{"x":1, "y":1, "type":"rudder"}, {"x":6, "y":0, "type":"oar"}, {"x":6, "y":2, "type":"oar"}, {"x":5, "y":2, "type":"oar"}, {"x":4, "y":2, "type":"oar"}, {"x":3, "y":2, "type":"oar"}, {"x":3, "y":0, "type":"oar"}, {"x":4, "y":0, "type":"oar"}, {"x":5, "y":0, "type":"oar"}, {"x":6, "y":1, "type":"sail", "openned":true}, {"x":7, "y":2, "type":"oar"}, {"x":7, "y":0, "type":"oar"}], "life":1200, "shape":{"type":"rectangle", "width":3.0, "height":8.0, "orientation":0.0}}, "visibleEntities":[{"type":"reef", "position":{"x":5400.0, "y":1172.6384364820844, "orientation":0.0}, "shape":{"type":"circle", "radius":650.0}}, {"type":"reef", "position":{"x":4921.739130434786, "y":4096.091205211728, "orientation":0.0}, "shape":{"type":"rectangle", "width":1000.0, "height":2500.0, "orientation":0.0}}, {"type":"stream", "position":{"x":5504.347826086957, "y":2703.5830618892533, "orientation":0.0}, "shape":{"type":"rectangle", "width":500.0, "height":1750.0, "orientation":0.0}, "strength":50.0}], "wind":{"orientation":0.0, "strength":100.0}}
[0;31m[15/03/2022 20:14:17][0;93m  [INFO][0m   Actions: [{"sailorId":0,"type":"OAR"},{"sailorId":1,"type":"OAR"},{"sailorId":2,"type":"OAR"},{"sailorId":3,"type":"OAR"},{"sailorId":4,"type":"TURN","rotation":-6.608035626587579E-5},{"sailorId":5,"type":"OAR"},{"sailorId":6,"type":"OAR"},{"sailorId":8,"type":"OAR"},{"sailorId":9,"type":"OAR"},{"sailorId":10,"type":"OAR"},{"sailorId":11,"type":"OAR"}]
[0;31m[15/03/2022 20:14:17][0;93m  [INFO][0m    === Tour 10 ===
[0;31m[15/03/2022 20:14:17][0;93m  [INFO][0m   Next round input: {"ship":{"type":"ship", "position":{"x":5089.391713770077, "y":2683.2744462326946, "orientation":-0.009086915471408712}, "name":"kihm", "deck":{"width":3, "length":8}, "entities":[{"x":1, "y":1, "type":"rudder"}, {"x":6, "y":0, "type":"oar"}, {"x":6, "y":2, "type":"oar"}, {"x":5, "y":2, "type":"oar"}, {"x":4, "y":2, "type":"oar"}, {"x":3, "y":2, "type":"oar"}, {"x":3, "y":0, "type":"oar"}, {"x":4, "y":0, "type":"oar"}, {"x":5, "y":0, "type":"oar"}, {"x":6, "y":1, "type":"sail", "openned":true}, {"x":7, "y":2, "type":"oar"}, {"x":7, "y":0, "type":"oar"}], "life":1200, "shape":{"type":"rectangle", "width":3.0, "height":8.0, "orientation":0.0}}, "visibleEntities":[{"type":"reef", "position":{"x":5400.0, "y":1172.6384364820844, "orientation":0.0}, "shape":{"type":"circle", "radius":650.0}}, {"type":"reef", "position":{"x":4921.739130434786, "y":4096.091205211728, "orientation":0.0}, "shape":{"type":"rectangle", "width":1000.0, "height":2500.0, "orientation":0.0}}, {"type":"stream", "position":{"x":5504.347826086957, "y":2703.5830618892533, "orientation":0.0}, "shape":{"type":"rectangle", "width":500.0, "height":1750.0, "orientation":0.0}, "strength":50.0}], "wind":{"orientation":0.0, "strength":100.0}}
[0;31m[15/03/2022 20:14:18][0;93m  [INFO][0m   Actions: [{"sailorId":0,"type":"OAR"},{"sailorId":1,"type":"OAR"},{"sailorId":2,"type":"OAR"},{"sailorId":3,"type":"OAR"},{"sailorId":4,"type":"TURN","rotation":-1.6008511660488452E-4},{"sailorId":5,"type":"OAR"},{"sailorId":6,"type":"OAR"},{"sailorId":8,"type":"OAR"},{"sailorId":9,"type":"OAR"},{"sailorId":10,"type":"OAR"},{"sailorId":11,"type":"OAR"}]
[0;31m[15/03/2022 20:14:18][0;93m  [INFO][0m    === Tour 11 ===
[0;31m[15/03/2022 20:14:18][0;93m  [INFO][0m   Next round input: {"ship":{"type":"ship", "position":{"x":5404.376380297995, "y":2680.845486992406, "orientation":-0.009247000588013539}, "name":"kihm", "deck":{"width":3, "length":8}, "entities":[{"x":1, "y":1, "type":"rudder"}, {"x":6, "y":0, "type":"oar"}, {"x":6, "y":2, "type":"oar"}, {"x":5, "y":2, "type":"oar"}, {"x":4, "y":2, "type":"oar"}, {"x":3, "y":2, "type":"oar"}, {"x":3, "y":0, "type":"oar"}, {"x":4, "y":0, "type":"oar"}, {"x":5, "y":0, "type":"oar"}, {"x":6, "y":1, "type":"sail", "openned":true}, {"x":7, "y":2, "type":"oar"}, {"x":7, "y":0, "type":"oar"}], "life":1200, "shape":{"type":"rectangle", "width":3.0, "height":8.0, "orientation":0.0}}, "visibleEntities":[{"type":"reef", "position":{"x":5400.0, "y":1172.6384364820844, "orientation":0.0}, "shape":{"type":"circle", "radius":650.0}}, {"type":"reef", "position":{"x":4921.739130434786, "y":4096.091205211728, "orientation":0.0}, "shape":{"type":"rectangle", "width":1000.0, "height":2500.0, "orientation":0.0}}, {"type":"stream", "position":{"x":5504.347826086957, "y":2703.5830618892533, "orientation":0.0}, "shape":{"type":"rectangle", "width":500.0, "height":1750.0, "orientation":0.0}, "strength":50.0}], "wind":{"orientation":0.0, "strength":100.0}}
[0;31m[15/03/2022 20:14:19][0;93m  [INFO][0m   Actions: [{"sailorId":0,"type":"OAR"},{"sailorId":1,"type":"OAR"},{"sailorId":2,"type":"OAR"},{"sailorId":3,"type":"OAR"},{"sailorId":4,"type":"TURN","rotation":-1.4884312225093253E-4},{"sailorId":5,"type":"OAR"},{"sailorId":6,"type":"OAR"},{"sailorId":8,"type":"OAR"},{"sailorId":9,"type":"OAR"},{"sailorId":10,"type":"OAR"},{"sailorId":11,"type":"OAR"}]
[0;31m[15/03/2022 20:14:19][0;93m  [INFO][0m    === Tour 12 ===
[0;31m[15/03/2022 20:14:19][0;93m  [INFO][0m   Next round input: {"ship":{"type":"ship", "position":{"x":5719.3605255703205, "y":2678.375583593824, "orientation":-0.009395843710264536}, "name":"kihm", "deck":{"width":3, "length":8}, "entities":[{"x":1, "y":1, "type":"rudder"}, {"x":6, "y":0, "type":"oar"}, {"x":6, "y":2, "type":"oar"}, {"x":5, "y":2, "type":"oar"}, {"x":4, "y":2, "type":"oar"}, {"x":3, "y":2, "type":"oar"}, {"x":3, "y":0, "type":"oar"}, {"x":4, "y":0, "type":"oar"}, {"x":5, "y":0, "type":"oar"}, {"x":6, "y":1, "type":"sail", "openned":true}, {"x":7, "y":2, "type":"oar"}, {"x":7, "y":0, "type":"oar"}], "life":1200, "shape":{"type":"rectangle", "width":3.0, "height":8.0, "orientation":0.0}}, "visibleEntities":[{"type":"reef", "position":{"x":5400.0, "y":1172.6384364820844, "orientation":0.0}, "shape":{"type":"circle", "radius":650.0}}, {"type":"reef", "position":{"x":4921.739130434786, "y":4096.091205211728, "orientation":0.0}, "shape":{"type":"rectangle", "width":1000.0, "height":2500.0, "orientation":0.0}}, {"type":"stream", "position":{"x":5504.347826086957, "y":2703.5830618892533, "orientation":0.0}, "shape":{"type":"rectangle", "width":500.0, "height":1750.0, "orientation":0.0}, "strength":50.0}], "wind":{"orientation":0.0, "strength":100.0}}
[0;31m[15/03/2022 20:14:20][0;93m  [INFO][0m   Actions: [{"sailorId":0,"type":"OAR"},{"sailorId":1,"type":"OAR"},{"sailorId":2,"type":"OAR"},{"sailorId":3,"type":"OAR"},{"sailorId":4,"type":"TURN","rotation":-2.1636107824215926E-4},{"sailorId":5,"type":"OAR"},{"sailorId":6,"type":"OAR"},{"sailorId":8,"type":"OAR"},{"sailorId":9,"type":"OAR"},{"sailorId":10,"type":"OAR"},{"sailorId":11,"type":"OAR"}]
[0;31m[15/03/2022 20:14:20][0;93m  [INFO][0m    === Tour 13 ===
[0;31m[15/03/2022 20:14:20][0;93m  [INFO][0m   Next round input: {"ship":{"type":"ship", "position":{"x":6034.344044356939, "y":2675.8573846666823, "orientation":-0.009612204788506773}, "name":"kihm", "deck":{"width":3, "length":8}, "entities":[{"x":1, "y":1, "type":"rudder"}, {"x":6, "y":0, "type":"oar"}, {"x":6, "y":2, "type":"oar"}, {"x":5, "y":2, "type":"oar"}, {"x":4, "y":2, "type":"oar"}, {"x":3, "y":2, "type":"oar"}, {"x":3, "y":0, "type":"oar"}, {"x":4, "y":0, "type":"oar"}, {"x":5, "y":0, "type":"oar"}, {"x":6, "y":1, "type":"sail", "openned":true}, {"x":7, "y":2, "type":"oar"}, {"x":7, "y":0, "type":"oar"}], "life":1200, "shape":{"type":"rectangle", "width":3.0, "height":8.0, "orientation":0.0}}, "visibleEntities":[{"type":"reef", "position":{"x":5400.0, "y":1172.6384364820844, "orientation":0.0}, "shape":{"type":"circle", "radius":650.0}}, {"type":"reef", "position":{"x":4921.739130434786, "y":4096.091205211728, "orientation":0.0}, "shape":{"type":"rectangle", "width":1000.0, "height":2500.0, "orientation":0.0}}, {"type":"stream", "position":{"x":5504.347826086957, "y":2703.5830618892533, "orientation":0.0}, "shape":{"type":"rectangle", "width":500.0, "height":1750.0, "orientation":0.0}, "strength":50.0}], "wind":{"orientation":0.0, "strength":100.0}}
[0;31m[15/03/2022 20:14:21][0;93m  [INFO][0m   Actions: [{"sailorId":0,"type":"OAR"},{"sailorId":1,"type":"OAR"},{"sailorId":2,"type":"OAR"},{"sailorId":3,"type":"OAR"},{"sailorId":4,"type":"TURN","rotation":-2.1020725246653077E-4},{"sailorId":5,"type":"OAR"},{"sailorId":6,"type":"OAR"},{"sailorId":8,"type":"OAR"},{"sailorId":9,"type":"OAR"},{"sailorId":10,"type":"OAR"},{"sailorId":11,"type":"OAR"}]
[0;31m[15/03/2022 20:14:21][0;93m  [INFO][0m    === Tour 14 ===
[0;31m[15/03/2022 20:14:21][0;93m  [INFO][0m   Next round input: {"ship":{"type":"ship", "position":{"x":6349.326815010943, "y":2673.282662846444, "orientation":-0.009822412040973318}, "name":"kihm", "deck":{"width":3, "length":8}, "entities":[{"x":1, "y":1, "type":"rudder"}, {"x":6, "y":0, "type":"oar"}, {"x":6, "y":2, "type":"oar"}, {"x":5, "y":2, "type":"oar"}, {"x":4, "y":2, "type":"oar"}, {"x":3, "y":2, "type":"oar"}, {"x":3, "y":0, "type":"oar"}, {"x":4, "y":0, "type":"oar"}, {"x":5, "y":0, "type":"oar"}, {"x":6, "y":1, "type":"sail", "openned":true}, {"x":7, "y":2, "type":"oar"}, {"x":7, "y":0, "type":"oar"}], "life":1200, "shape":{"type":"rectangle", "width":3.0, "height":8.0, "orientation":0.0}}, "visibleEntities":[{"type":"reef", "position":{"x":4921.739130434786, "y":4096.091205211728, "orientation":0.0}, "shape":{"type":"rectangle", "width":1000.0, "height":2500.0, "orientation":0.0}}, {"type":"stream", "position":{"x":5504.347826086957, "y":2703.5830618892533, "orientation":0.0}, "shape":{"type":"rectangle", "width":500.0, "height":1750.0, "orientation":0.0}, "strength":50.0}], "wind":{"orientation":0.0, "strength":100.0}}
[0;31m[15/03/2022 20:14:23][0;93m  [INFO][0m   Actions: [{"sailorId":0,"type":"OAR"},{"sailorId":1,"type":"OAR"},{"sailorId":2,"type":"OAR"},{"sailorId":3,"type":"OAR"},{"sailorId":4,"type":"TURN","rotation":-3.1789547079574994E-4},{"sailorId":5,"type":"OAR"},{"sailorId":6,"type":"OAR"},{"sailorId":8,"type":"OAR"},{"sailorId":9,"type":"OAR"},{"sailorId":10,"type":"OAR"},{"sailorId":11,"type":"OAR"}]
[0;31m[15/03/2022 20:14:23][0;93m  [INFO][0m    === Tour 15 ===
[0;31m[15/03/2022 20:14:23][0;93m  [INFO][0m   Next round input: {"ship":{"type":"ship", "position":{"x":6619.808637636942, "y":2670.6381173358213, "orientation":-0.010140307511769121}, "name":"kihm", "deck":{"width":3, "length":8}, "entities":[{"x":1, "y":1, "type":"rudder"}, {"x":6, "y":0, "type":"oar"}, {"x":6, "y":2, "type":"oar"}, {"x":5, "y":2, "type":"oar"}, {"x":4, "y":2, "type":"oar"}, {"x":3, "y":2, "type":"oar"}, {"x":3, "y":0, "type":"oar"}, {"x":4, "y":0, "type":"oar"}, {"x":5, "y":0, "type":"oar"}, {"x":6, "y":1, "type":"sail", "openned":true}, {"x":7, "y":2, "type":"oar"}, {"x":7, "y":0, "type":"oar"}], "life":1200, "shape":{"type":"rectangle", "width":3.0, "height":8.0, "orientation":0.0}}, "visibleEntities":[{"type":"stream", "position":{"x":5504.347826086957, "y":2703.5830618892533, "orientation":0.0}, "shape":{"type":"rectangle", "width":500.0, "height":1750.0, "orientation":0.0}, "strength":50.0}], "wind":{"orientation":0.0, "strength":100.0}}
[0;31m[15/03/2022 20:14:24][0;93m  [INFO][0m   Actions: [{"sailorId":0,"type":"OAR"},{"sailorId":1,"type":"OAR"},{"sailorId":2,"type":"OAR"},{"sailorId":3,"type":"OAR"},{"sailorId":4,"type":"TURN","rotation":-7.213557326928542E-5},{"sailorId":5,"type":"OAR"},{"sailorId":6,"type":"OAR"},{"sailorId":8,"type":"OAR"},{"sailorId":9,"type":"OAR"},{"sailorId":10,"type":"OAR"},{"sailorId":11,"type":"OAR"}]
[0;31m[15/03/2022 20:14:24][0;93m  [INFO][0m    === Tour 16 ===
[0;31m[15/03/2022 20:14:24][0;93m  [INFO][0m   Next round input: {"ship":{"type":"ship", "position":{"x":6884.789739881544, "y":2667.9415726881357, "orientation":-0.010212443085038492}, "name":"kihm", "deck":{"width":3, "length":8}, "entities":[{"x":1, "y":1, "type":"rudder"}, {"x":6, "y":0, "type":"oar"}, {"x":6, "y":2, "type":"oar"}, {"x":5, "y":2, "type":"oar"}, {"x":4, "y":2, "type":"oar"}, {"x":3, "y":2, "type":"oar"}, {"x":3, "y":0, "type":"oar"}, {"x":4, "y":0, "type":"oar"}, {"x":5, "y":0, "type":"oar"}, {"x":6, "y":1, "type":"sail", "openned":true}, {"x":7, "y":2, "type":"oar"}, {"x":7, "y":0, "type":"oar"}], "life":1200, "shape":{"type":"rectangle", "width":3.0, "height":8.0, "orientation":0.0}}, "visibleEntities":[{"type":"stream", "position":{"x":5504.347826086957, "y":2703.5830618892533, "orientation":0.0}, "shape":{"type":"rectangle", "width":500.0, "height":1750.0, "orientation":0.0}, "strength":50.0}], "wind":{"orientation":0.0, "strength":100.0}}
[0;31m[15/03/2022 20:14:25][0;93m  [INFO][0m   Actions: [{"sailorId":0,"type":"OAR"},{"sailorId":1,"type":"OAR"},{"sailorId":2,"type":"OAR"},{"sailorId":3,"type":"OAR"},{"sailorId":4,"type":"TURN","rotation":-8.792662230848805E-6},{"sailorId":5,"type":"OAR"},{"sailorId":6,"type":"OAR"},{"sailorId":8,"type":"OAR"},{"sailorId":9,"type":"OAR"},{"sailorId":10,"type":"OAR"},{"sailorId":11,"type":"OAR"}]
[0;31m[15/03/2022 20:14:25][0;93m  [INFO][0m    === Tour 17 ===
[0;31m[15/03/2022 20:14:25][0;93m  [INFO][0m   Next round input: {"ship":{"type":"ship", "position":{"x":7149.770690437517, "y":2665.234222316387, "orientation":-0.010221235747269262}, "name":"kihm", "deck":{"width":3, "length":8}, "entities":[{"x":1, "y":1, "type":"rudder"}, {"x":6, "y":0, "type":"oar"}, {"x":6, "y":2, "type":"oar"}, {"x":5, "y":2, "type":"oar"}, {"x":4, "y":2, "type":"oar"}, {"x":3, "y":2, "type":"oar"}, {"x":3, "y":0, "type":"oar"}, {"x":4, "y":0, "type":"oar"}, {"x":5, "y":0, "type":"oar"}, {"x":6, "y":1, "type":"sail", "openned":true}, {"x":7, "y":2, "type":"oar"}, {"x":7, "y":0, "type":"oar"}], "life":1200, "shape":{"type":"rectangle", "width":3.0, "height":8.0, "orientation":0.0}}, "visibleEntities":[{"type":"stream", "position":{"x":5504.347826086957, "y":2703.5830618892533, "orientation":0.0}, "shape":{"type":"rectangle", "width":500.0, "height":1750.0, "orientation":0.0}, "strength":50.0}], "wind":{"orientation":0.0, "strength":100.0}}
[0;31m[15/03/2022 20:14:26][0;93m  [INFO][0m   Actions: [{"sailorId":0,"type":"OAR"},{"sailorId":1,"type":"OAR"},{"sailorId":2,"type":"OAR"},{"sailorId":3,"type":"OAR"},{"sailorId":4,"type":"TURN","rotation":-1.4127326041658145E-6},{"sailorId":5,"type":"OAR"},{"sailorId":6,"type":"OAR"},{"sailorId":8,"type":"OAR"},{"sailorId":9,"type":"OAR"},{"sailorId":10,"type":"OAR"},{"sailorId":11,"type":"OAR"}]
[0;31m[15/03/2022 20:14:26][0;93m  [INFO][0m    === Tour 18 ===
[0;31m[15/03/2022 20:14:26][0;93m  [INFO][0m   Next round input: {"ship":{"type":"ship", "position":{"x":7414.751621824464, "y":2662.5255101030275, "orientation":-0.010222648479873427}, "name":"kihm", "deck":{"width":3, "length":8}, "entities":[{"x":1, "y":1, "type":"rudder"}, {"x":6, "y":0, "type":"oar"}, {"x":6, "y":2, "type":"oar"}, {"x":5, "y":2, "type":"oar"}, {"x":4, "y":2, "type":"oar"}, {"x":3, "y":2, "type":"oar"}, {"x":3, "y":0, "type":"oar"}, {"x":4, "y":0, "type":"oar"}, {"x":5, "y":0, "type":"oar"}, {"x":6, "y":1, "type":"sail", "openned":true}, {"x":7, "y":2, "type":"oar"}, {"x":7, "y":0, "type":"oar"}], "life":1200, "shape":{"type":"rectangle", "width":3.0, "height":8.0, "orientation":0.0}}, "visibleEntities":[], "wind":{"orientation":0.0, "strength":100.0}}
[0;31m[15/03/2022 20:14:27][0;93m  [INFO][0m   Actions: [{"sailorId":0,"type":"OAR"},{"sailorId":1,"type":"OAR"},{"sailorId":2,"type":"OAR"},{"sailorId":3,"type":"OAR"},{"sailorId":4,"type":"TURN","rotation":-3.3290343725428384E-7},{"sailorId":5,"type":"OAR"},{"sailorId":6,"type":"OAR"},{"sailorId":8,"type":"OAR"},{"sailorId":9,"type":"OAR"},{"sailorId":10,"type":"OAR"},{"sailorId":11,"type":"OAR"}]
[0;31m[15/03/2022 20:14:27][0;93m  [INFO][0m    === Tour 19 ===
[0;31m[15/03/2022 20:14:27][0;93m  [INFO][0m   Next round input: {"ship":{"type":"ship", "position":{"x":7679.732549934819, "y":2659.8165651880413, "orientation":-0.010222981383310709}, "name":"kihm", "deck":{"width":3, "length":8}, "entities":[{"x":1, "y":1, "type":"rudder"}, {"x":6, "y":0, "type":"oar"}, {"x":6, "y":2, "type":"oar"}, {"x":5, "y":2, "type":"oar"}, {"x":4, "y":2, "type":"oar"}, {"x":3, "y":2, "type":"oar"}, {"x":3, "y":0, "type":"oar"}, {"x":4, "y":0, "type":"oar"}, {"x":5, "y":0, "type":"oar"}, {"x":6, "y":1, "type":"sail", "openned":true}, {"x":7, "y":2, "type":"oar"}, {"x":7, "y":0, "type":"oar"}], "life":1200, "shape":{"type":"rectangle", "width":3.0, "height":8.0, "orientation":0.0}}, "visibleEntities":[], "wind":{"orientation":0.0, "strength":100.0}}
[0;31m[15/03/2022 20:14:28][0;93m  [INFO][0m   Actions: [{"sailorId":0,"type":"OAR"},{"sailorId":1,"type":"OAR"},{"sailorId":2,"type":"OAR"},{"sailorId":3,"type":"OAR"},{"sailorId":4,"type":"TURN","rotation":-1.4707639574458586E-7},{"sailorId":5,"type":"OAR"},{"sailorId":6,"type":"OAR"},{"sailorId":8,"type":"OAR"},{"sailorId":9,"type":"OAR"},{"sailorId":10,"type":"OAR"},{"sailorId":11,"type":"OAR"}]
[0;31m[15/03/2022 20:14:28][0;93m  [INFO][0m    === Tour 20 ===
[0;31m[15/03/2022 20:14:28][0;93m  [INFO][0m   Next round input: {"ship":{"type":"ship", "position":{"x":7944.713477146254, "y":2657.1075564366206, "orientation":-0.010223128459706389}, "name":"kihm", "deck":{"width":3, "length":8}, "entities":[{"x":1, "y":1, "type":"rudder"}, {"x":6, "y":0, "type":"oar"}, {"x":6, "y":2, "type":"oar"}, {"x":5, "y":2, "type":"oar"}, {"x":4, "y":2, "type":"oar"}, {"x":3, "y":2, "type":"oar"}, {"x":3, "y":0, "type":"oar"}, {"x":4, "y":0, "type":"oar"}, {"x":5, "y":0, "type":"oar"}, {"x":6, "y":1, "type":"sail", "openned":true}, {"x":7, "y":2, "type":"oar"}, {"x":7, "y":0, "type":"oar"}], "life":1200, "shape":{"type":"rectangle", "width":3.0, "height":8.0, "orientation":0.0}}, "visibleEntities":[], "wind":{"orientation":0.0, "strength":100.0}}
[0;31m[15/03/2022 20:14:29][0;93m  [INFO][0m   Actions: [{"sailorId":0,"type":"OAR"},{"sailorId":3,"type":"OAR"},{"sailorId":4,"type":"TURN","rotation":0.3726968389084866},{"sailorId":6,"type":"OAR"},{"sailorId":9,"type":"OAR"},{"sailorId":10,"type":"OAR"}]
[0;31m[15/03/2022 20:14:29][0;93m  [INFO][0m    === Tour 21 ===
[0;31m[15/03/2022 20:14:29][0;93m  [INFO][0m   Next round input: {"ship":{"type":"ship", "position":{"x":8072.505998257812, "y":2576.7319127039573, "orientation":-1.2083226163461143}, "name":"kihm", "deck":{"width":3, "length":8}, "entities":[{"x":1, "y":1, "type":"rudder"}, {"x":6, "y":0, "type":"oar"}, {"x":6, "y":2, "type":"oar"}, {"x":5, "y":2, "type":"oar"}, {"x":4, "y":2, "type":"oar"}, {"x":3, "y":2, "type":"oar"}, {"x":3, "y":0, "type":"oar"}, {"x":4, "y":0, "type":"oar"}, {"x":5, "y":0, "type":"oar"}, {"x":6, "y":1, "type":"sail", "openned":true}, {"x":7, "y":2, "type":"oar"}, {"x":7, "y":0, "type":"oar"}], "life":1200, "shape":{"type":"rectangle", "width":3.0, "height":8.0, "orientation":0.0}}, "visibleEntities":[], "wind":{"orientation":0.0, "strength":100.0}}
[0;31m[15/03/2022 20:14:31][0;93m  [INFO][0m   Actions: [{"sailorId":0,"type":"OAR"},{"sailorId":1,"type":"OAR"},{"sailorId":3,"type":"OAR"},{"sailorId":4,"type":"TURN","rotation":0.28091878909644996},{"sailorId":6,"type":"OAR"},{"sailorId":7,"type":"LOWER_SAIL"},{"sailorId":9,"type":"OAR"},{"sailorId":10,"type":"OAR"}]
[0;31m[15/03/2022 20:14:31][0;93m  [INFO][0m    === Tour 22 ===
[0;31m[15/03/2022 20:14:31][0;93m  [INFO][0m   Next round input: {"ship":{"type":"ship", "position":{"x":8061.071142508848, "y":2482.301997466183, "orientation":-2.1840408886855798}, "name":"kihm", "deck":{"width":3, "length":8}, "entities":[{"x":1, "y":1, "type":"rudder"}, {"x":6, "y":0, "type":"oar"}, {"x":6, "y":2, "type":"oar"}, {"x":5, "y":2, "type":"oar"}, {"x":4, "y":2, "type":"oar"}, {"x":3, "y":2, "type":"oar"}, {"x":3, "y":0, "type":"oar"}, {"x":4, "y":0, "type":"oar"}, {"x":5, "y":0, "type":"oar"}, {"x":6, "y":1, "type":"sail", "openned":false}, {"x":7, "y":2, "type":"oar"}, {"x":7, "y":0, "type":"oar"}], "life":1200, "shape":{"type":"rectangle", "width":3.0, "height":8.0, "orientation":0.0}}, "visibleEntities":[], "wind":{"orientation":0.0, "strength":100.0}}
[0;31m[15/03/2022 20:14:34][0;93m  [INFO][0m   Actions: [{"sailorId":0,"type":"OAR"},{"sailorId":1,"type":"OAR"},{"sailorId":2,"type":"OAR"},{"sailorId":3,"type":"OAR"},{"sailorId":4,"type":"TURN","rotation":-0.0101918141614048},{"sailorId":5,"type":"OAR"},{"sailorId":6,"type":"OAR"},{"sailorId":8,"type":"OAR"},{"sailorId":9,"type":"OAR"},{"sailorId":10,"type":"OAR"},{"sailorId":11,"type":"OAR"}]
[0;31m[15/03/2022 20:14:34][0;93m  [INFO][0m    === Tour 23 ===
[0;31m[15/03/2022 20:14:34][0;93m  [INFO][0m   Next round input: {"ship":{"type":"ship", "position":{"x":7965.430596674816, "y":2347.848844454033, "orientation":-2.1942327028469997}, "name":"kihm", "deck":{"width":3, "length":8}, "entities":[{"x":1, "y":1, "type":"rudder"}, {"x":6, "y":0, "type":"oar"}, {"x":6, "y":2, "type":"oar"}, {"x":5, "y":2, "type":"oar"}, {"x":4, "y":2, "type":"oar"}, {"x":3, "y":2, "type":"oar"}, {"x":3, "y":0, "type":"oar"}, {"x":4, "y":0, "type":"oar"}, {"x":5, "y":0, "type":"oar"}, {"x":6, "y":1, "type":"sail", "openned":false}, {"x":7, "y":2, "type":"oar"}, {"x":7, "y":0, "type":"oar"}], "life":1200, "shape":{"type":"rectangle", "width":3.0, "height":8.0, "orientation":0.0}}, "visibleEntities":[], "wind":{"orientation":0.0, "strength":100.0}}
[0;31m[15/03/2022 20:14:36][0;93m  [INFO][0m   Actions: [{"sailorId":0,"type":"OAR"},{"sailorId":1,"type":"OAR"},{"sailorId":2,"type":"OAR"},{"sailorId":3,"type":"OAR"},{"sailorId":4,"type":"TURN","rotation":-3.059503355968829E-4},{"sailorId":5,"type":"OAR"},{"sailorId":6,"type":"OAR"},{"sailorId":8,"type":"OAR"},{"sailorId":9,"type":"OAR"},{"sailorId":10,"type":"OAR"},{"sailorId":11,"type":"OAR"}]
[0;31m[15/03/2022 20:14:36][0;93m  [INFO][0m    === Tour 24 ===
[0;31m[15/03/2022 20:14:36][0;93m  [INFO][0m   Next round input: {"ship":{"type":"ship", "position":{"x":7869.078605292705, "y":2213.9037305291286, "orientation":-2.194538653182599}, "name":"kihm", "deck":{"width":3, "length":8}, "entities":[{"x":1, "y":1, "type":"rudder"}, {"x":6, "y":0, "type":"oar"}, {"x":6, "y":2, "type":"oar"}, {"x":5, "y":2, "type":"oar"}, {"x":4, "y":2, "type":"oar"}, {"x":3, "y":2, "type":"oar"}, {"x":3, "y":0, "type":"oar"}, {"x":4, "y":0, "type":"oar"}, {"x":5, "y":0, "type":"oar"}, {"x":6, "y":1, "type":"sail", "openned":false}, {"x":7, "y":2, "type":"oar"}, {"x":7, "y":0, "type":"oar"}], "life":1200, "shape":{"type":"rectangle", "width":3.0, "height":8.0, "orientation":0.0}}, "visibleEntities":[], "wind":{"orientation":0.0, "strength":100.0}}
[0;31m[15/03/2022 20:14:38][0;93m  [INFO][0m   Actions: [{"sailorId":0,"type":"OAR"},{"sailorId":1,"type":"OAR"},{"sailorId":2,"type":"OAR"},{"sailorId":3,"type":"OAR"},{"sailorId":4,"type":"TURN","rotation":-9.76494364568481E-6},{"sailorId":5,"type":"OAR"},{"sailorId":6,"type":"OAR"},{"sailorId":8,"type":"OAR"},{"sailorId":9,"type":"OAR"},{"sailorId":10,"type":"OAR"},{"sailorId":11,"type":"OAR"}]
[0;31m[15/03/2022 20:14:38][0;93m  [INFO][0m    === Tour 25 ===
[0;31m[15/03/2022 20:14:38][0;93m  [INFO][0m   Next round input: {"ship":{"type":"ship", "position":{"x":7772.705272135905, "y":2079.973970370931, "orientation":-2.194548418126253}, "name":"kihm", "deck":{"width":3, "length":8}, "entities":[{"x":1, "y":1, "type":"rudder"}, {"x":6, "y":0, "type":"oar"}, {"x":6, "y":2, "type":"oar"}, {"x":5, "y":2, "type":"oar"}, {"x":4, "y":2, "type":"oar"}, {"x":3, "y":2, "type":"oar"}, {"x":3, "y":0, "type":"oar"}, {"x":4, "y":0, "type":"oar"}, {"x":5, "y":0, "type":"oar"}, {"x":6, "y":1, "type":"sail", "openned":false}, {"x":7, "y":2, "type":"oar"}, {"x":7, "y":0, "type":"oar"}], "life":1200, "shape":{"type":"rectangle", "width":3.0, "height":8.0, "orientation":0.0}}, "visibleEntities":[], "wind":{"orientation":0.0, "strength":100.0}}
[0;31m[15/03/2022 20:14:40][0;93m  [INFO][0m   Actions: [{"sailorId":0,"type":"OAR"},{"sailorId":1,"type":"OAR"},{"sailorId":2,"type":"OAR"},{"sailorId":3,"type":"OAR"},{"sailorId":4,"type":"TURN","rotation":-3.326920001711642E-7},{"sailorId":5,"type":"OAR"},{"sailorId":6,"type":"OAR"},{"sailorId":8,"type":"OAR"},{"sailorId":9,"type":"OAR"},{"sailorId":10,"type":"OAR"},{"sailorId":11,"type":"OAR"}]
[0;31m[15/03/2022 20:14:40][0;93m  [INFO][0m    === Tour 26 ===
[0;31m[15/03/2022 20:14:40][0;93m  [INFO][0m   Next round input: {"ship":{"type":"ship", "position":{"x":7676.331256476718, "y":1946.0447013304317, "orientation":-2.19454875081826}, "name":"kihm", "deck":{"width":3, "length":8}, "entities":[{"x":1, "y":1, "type":"rudder"}, {"x":6, "y":0, "type":"oar"}, {"x":6, "y":2, "type":"oar"}, {"x":5, "y":2, "type":"oar"}, {"x":4, "y":2, "type":"oar"}, {"x":3, "y":2, "type":"oar"}, {"x":3, "y":0, "type":"oar"}, {"x":4, "y":0, "type":"oar"}, {"x":5, "y":0, "type":"oar"}, {"x":6, "y":1, "type":"sail", "openned":false}, {"x":7, "y":2, "type":"oar"}, {"x":7, "y":0, "type":"oar"}], "life":1200, "shape":{"type":"rectangle", "width":3.0, "height":8.0, "orientation":0.0}}, "visibleEntities":[], "wind":{"orientation":0.0, "strength":100.0}}
[0;31m[15/03/2022 20:14:42][0;93m  [INFO][0m   Actions: [{"sailorId":0,"type":"OAR"},{"sailorId":1,"type":"OAR"},{"sailorId":2,"type":"OAR"},{"sailorId":3,"type":"OAR"},{"sailorId":4,"type":"TURN","rotation":-1.2154854900359169E-8},{"sailorId":5,"type":"OAR"},{"sailorId":6,"type":"OAR"},{"sailorId":8,"type":"OAR"},{"sailorId":9,"type":"OAR"},{"sailorId":10,"type":"OAR"},{"sailorId":11,"type":"OAR"}]
[0;31m[15/03/2022 20:14:42][0;93m  [INFO][0m    === Tour 27 ===
[0;31m[15/03/2022 20:14:42][0;93m  [INFO][0m   Next round input: {"ship":{"type":"ship", "position":{"x":7579.957217510338, "y":1812.11544906153, "orientation":-2.194548762973115}, "name":"kihm", "deck":{"width":3, "length":8}, "entities":[{"x":1, "y":1, "type":"rudder"}, {"x":6, "y":0, "type":"oar"}, {"x":6, "y":2, "type":"oar"}, {"x":5, "y":2, "type":"oar"}, {"x":4, "y":2, "type":"oar"}, {"x":3, "y":2, "type":"oar"}, {"x":3, "y":0, "type":"oar"}, {"x":4, "y":0, "type":"oar"}, {"x":5, "y":0, "type":"oar"}, {"x":6, "y":1, "type":"sail", "openned":false}, {"x":7, "y":2, "type":"oar"}, {"x":7, "y":0, "type":"oar"}], "life":1200, "shape":{"type":"rectangle", "width":3.0, "height":8.0, "orientation":0.0}}, "visibleEntities":[], "wind":{"orientation":0.0, "strength":100.0}}
[0;31m[15/03/2022 20:14:44][0;93m  [INFO][0m   Actions: [{"sailorId":0,"type":"OAR"},{"sailorId":1,"type":"OAR"},{"sailorId":2,"type":"OAR"},{"sailorId":3,"type":"OAR"},{"sailorId":4,"type":"TURN","rotation":-4.787077401147144E-10},{"sailorId":5,"type":"OAR"},{"sailorId":6,"type":"OAR"},{"sailorId":8,"type":"OAR"},{"sailorId":9,"type":"OAR"},{"sailorId":10,"type":"OAR"},{"sailorId":11,"type":"OAR"}]
[0;31m[15/03/2022 20:14:44][0;93m  [INFO][0m    === Tour 28 ===
[0;31m[15/03/2022 20:14:44][0;93m  [INFO][0m   Next round input: {"ship":{"type":"ship", "position":{"x":7483.583177690139, "y":1678.1861974070289, "orientation":-2.1945487634518432}, "name":"kihm", "deck":{"width":3, "length":8}, "entities":[{"x":1, "y":1, "type":"rudder"}, {"x":6, "y":0, "type":"oar"}, {"x":6, "y":2, "type":"oar"}, {"x":5, "y":2, "type":"oar"}, {"x":4, "y":2, "type":"oar"}, {"x":3, "y":2, "type":"oar"}, {"x":3, "y":0, "type":"oar"}, {"x":4, "y":0, "type":"oar"}, {"x":5, "y":0, "type":"oar"}, {"x":6, "y":1, "type":"sail", "openned":false}, {"x":7, "y":2, "type":"oar"}, {"x":7, "y":0, "type":"oar"}], "life":1200, "shape":{"type":"rectangle", "width":3.0, "height":8.0, "orientation":0.0}}, "visibleEntities":[], "wind":{"orientation":0.0, "strength":100.0}}
[0;31m[15/03/2022 20:14:47][0;93m  [INFO][0m   Actions: [{"sailorId":0,"type":"OAR"},{"sailorId":1,"type":"OAR"},{"sailorId":2,"type":"OAR"},{"sailorId":3,"type":"OAR"},{"sailorId":4,"type":"TURN","rotation":-2.042721547468318E-11},{"sailorId":5,"type":"OAR"},{"sailorId":6,"type":"OAR"},{"sailorId":8,"type":"OAR"},{"sailorId":9,"type":"OAR"},{"sailorId":10,"type":"OAR"},{"sailorId":11,"type":"OAR"}]
[0;31m[15/03/2022 20:14:47][0;93m  [INFO][0m    === Tour 29 ===
[0;31m[15/03/2022 20:14:47][0;93m  [INFO][0m   Next round input: {"ship":{"type":"ship", "position":{"x":7387.2091378362065, "y":1544.2569457768016, "orientation":-2.1945487634722713}, "name":"kihm", "deck":{"width":3, "length":8}, "entities":[{"x":1, "y":1, "type":"rudder"}, {"x":6, "y":0, "type":"oar"}, {"x":6, "y":2, "type":"oar"}, {"x":5, "y":2, "type":"oar"}, {"x":4, "y":2, "type":"oar"}, {"x":3, "y":2, "type":"oar"}, {"x":3, "y":0, "type":"oar"}, {"x":4, "y":0, "type":"oar"}, {"x":5, "y":0, "type":"oar"}, {"x":6, "y":1, "type":"sail", "openned":false}, {"x":7, "y":2, "type":"oar"}, {"x":7, "y":0, "type":"oar"}], "life":1200, "shape":{"type":"rectangle", "width":3.0, "height":8.0, "orientation":0.0}}, "visibleEntities":[], "wind":{"orientation":0.0, "strength":100.0}}
[0;31m[15/03/2022 20:14:49][0;93m  [INFO][0m   Actions: [{"sailorId":0,"type":"OAR"},{"sailorId":1,"type":"OAR"},{"sailorId":2,"type":"OAR"},{"sailorId":3,"type":"OAR"},{"sailorId":4,"type":"TURN","rotation":-9.525713551283843E-13},{"sailorId":5,"type":"OAR"},{"sailorId":6,"type":"OAR"},{"sailorId":8,"type":"OAR"},{"sailorId":9,"type":"OAR"},{"sailorId":10,"type":"OAR"},{"sailorId":11,"type":"OAR"}]
[0;31m[15/03/2022 20:14:49][0;93m  [INFO][0m    === Tour 30 ===
[0;31m[15/03/2022 20:14:49][0;93m  [INFO][0m   Next round input: {"ship":{"type":"ship", "position":{"x":7290.8350979808265, "y":1410.3276941476129, "orientation":-2.194548763473204}, "name":"kihm", "deck":{"width":3, "length":8}, "entities":[{"x":1, "y":1, "type":"rudder"}, {"x":6, "y":0, "type":"oar"}, {"x":6, "y":2, "type":"oar"}, {"x":5, "y":2, "type":"oar"}, {"x":4, "y":2, "type":"oar"}, {"x":3, "y":2, "type":"oar"}, {"x":3, "y":0, "type":"oar"}, {"x":4, "y":0, "type":"oar"}, {"x":5, "y":0, "type":"oar"}, {"x":6, "y":1, "type":"sail", "openned":false}, {"x":7, "y":2, "type":"oar"}, {"x":7, "y":0, "type":"oar"}], "life":1200, "shape":{"type":"rectangle", "width":3.0, "height":8.0, "orientation":0.0}}, "visibleEntities":[], "wind":{"orientation":0.0, "strength":100.0}}
[0;31m[15/03/2022 20:14:51][0;93m  [INFO][0m   Actions: [{"sailorId":0,"type":"OAR"},{"sailorId":1,"type":"OAR"},{"sailorId":2,"type":"OAR"},{"sailorId":3,"type":"OAR"},{"sailorId":4,"type":"TURN","rotation":-6.750155989720952E-14},{"sailorId":5,"type":"OAR"},{"sailorId":6,"type":"OAR"},{"sailorId":8,"type":"OAR"},{"sailorId":9,"type":"OAR"},{"sailorId":10,"type":"OAR"},{"sailorId":11,"type":"OAR"}]
[0;31m[15/03/2022 20:14:51][0;93m  [INFO][0m    === Tour 31 ===
[0;31m[15/03/2022 20:14:51][0;93m  [INFO][0m   Next round input: {"ship":{"type":"ship", "position":{"x":7194.46105812539, "y":1276.398442518475, "orientation":-2.1945487634732928}, "name":"kihm", "deck":{"width":3, "length":8}, "entities":[{"x":1, "y":1, "type":"rudder"}, {"x":6, "y":0, "type":"oar"}, {"x":6, "y":2, "type":"oar"}, {"x":5, "y":2, "type":"oar"}, {"x":4, "y":2, "type":"oar"}, {"x":3, "y":2, "type":"oar"}, {"x":3, "y":0, "type":"oar"}, {"x":4, "y":0, "type":"oar"}, {"x":5, "y":0, "type":"oar"}, {"x":6, "y":1, "type":"sail", "openned":false}, {"x":7, "y":2, "type":"oar"}, {"x":7, "y":0, "type":"oar"}], "life":1200, "shape":{"type":"rectangle", "width":3.0, "height":8.0, "orientation":0.0}}, "visibleEntities":[], "wind":{"orientation":0.0, "strength":100.0}}
[0;31m[15/03/2022 20:14:51][0;93m  [INFO][0m   Actions: [{"sailorId":0,"type":"OAR"},{"sailorId":1,"type":"OAR"},{"sailorId":2,"type":"OAR"},{"sailorId":3,"type":"OAR"},{"sailorId":4,"type":"TURN","rotation":6.1666205042199E-4},{"sailorId":5,"type":"OAR"},{"sailorId":6,"type":"OAR"},{"sailorId":8,"type":"OAR"},{"sailorId":9,"type":"OAR"},{"sailorId":10,"type":"OAR"},{"sailorId":11,"type":"OAR"}]
[0;31m[15/03/2022 20:14:51][0;93m  [INFO][0m    === Tour 32 ===
[0;31m[15/03/2022 20:14:51][0;93m  [INFO][0m   Next round input: {"ship":{"type":"ship", "position":{"x":7098.127905883423, "y":1142.4397812961772, "orientation":-2.1939321014228916}, "name":"kihm", "deck":{"width":3, "length":8}, "entities":[{"x":1, "y":1, "type":"rudder"}, {"x":6, "y":0, "type":"oar"}, {"x":6, "y":2, "type":"oar"}, {"x":5, "y":2, "type":"oar"}, {"x":4, "y":2, "type":"oar"}, {"x":3, "y":2, "type":"oar"}, {"x":3, "y":0, "type":"oar"}, {"x":4, "y":0, "type":"oar"}, {"x":5, "y":0, "type":"oar"}, {"x":6, "y":1, "type":"sail", "openned":false}, {"x":7, "y":2, "type":"oar"}, {"x":7, "y":0, "type":"oar"}], "life":1200, "shape":{"type":"rectangle", "width":3.0, "height":8.0, "orientation":0.0}}, "visibleEntities":[], "wind":{"orientation":0.0, "strength":100.0}}
[0;31m[15/03/2022 20:14:51][0;93m  [INFO][0m   Actions: [{"sailorId":0,"type":"OAR"},{"sailorId":1,"type":"OAR"},{"sailorId":2,"type":"OAR"},{"sailorId":3,"type":"OAR"},{"sailorId":4,"type":"TURN","rotation":1.8412409578338895E-5},{"sailorId":5,"type":"OAR"},{"sailorId":6,"type":"OAR"},{"sailorId":8,"type":"OAR"},{"sailorId":9,"type":"OAR"},{"sailorId":10,"type":"OAR"},{"sailorId":11,"type":"OAR"}]
[0;31m[15/03/2022 20:14:51][0;93m  [INFO][0m    === Tour 33 ===
[0;31m[15/03/2022 20:14:51][0;93m  [INFO][0m   Next round input: {"ship":{"type":"ship", "position":{"x":7001.837694630939, "y":1008.4502473161598, "orientation":-2.1939136890132946}, "name":"kihm", "deck":{"width":3, "length":8}, "entities":[{"x":1, "y":1, "type":"rudder"}, {"x":6, "y":0, "type":"oar"}, {"x":6, "y":2, "type":"oar"}, {"x":5, "y":2, "type":"oar"}, {"x":4, "y":2, "type":"oar"}, {"x":3, "y":2, "type":"oar"}, {"x":3, "y":0, "type":"oar"}, {"x":4, "y":0, "type":"oar"}, {"x":5, "y":0, "type":"oar"}, {"x":6, "y":1, "type":"sail", "openned":false}, {"x":7, "y":2, "type":"oar"}, {"x":7, "y":0, "type":"oar"}], "life":1200, "shape":{"type":"rectangle", "width":3.0, "height":8.0, "orientation":0.0}}, "visibleEntities":[{"type":"reef", "position":{"x":5400.0, "y":1172.6384364820844, "orientation":0.0}, "shape":{"type":"circle", "radius":650.0}}], "wind":{"orientation":0.0, "strength":100.0}}
[0;31m[15/03/2022 20:14:51][0;93m  [INFO][0m   Actions: [{"sailorId":0,"type":"OAR"},{"sailorId":1,"type":"OAR"},{"sailorId":2,"type":"OAR"},{"sailorId":3,"type":"OAR"},{"sailorId":4,"type":"TURN","rotation":5.84308435414016E-7},{"sailorId":5,"type":"OAR"},{"sailorId":6,"type":"OAR"},{"sailorId":8,"type":"OAR"},{"sailorId":9,"type":"OAR"},{"sailorId":10,"type":"OAR"},{"sailorId":11,"type":"OAR"}]
[0;31m[15/03/2022 20:14:51][0;93m  [INFO][0m    === Tour 34 ===
[0;31m[15/03/2022 20:14:51][0;93m  [INFO][0m   Next round input: {"ship":{"type":"ship", "position":{"x":6905.548768006111, "y":874.4597901580564, "orientation":-2.1939131047048708}, "name":"kihm", "deck":{"width":3, "length":8}, "entities":[{"x":1, "y":1, "type":"rudder"}, {"x":6, "y":0, "type":"oar"}, {"x":6, "y":2, "type":"oar"}, {"x":5, "y":2, "type":"oar"}, {"x":4, "y":2, "type":"oar"}, {"x":3, "y":2, "type":"oar"}, {"x":3, "y":0, "type":"oar"}, {"x":4, "y":0, "type":"oar"}, {"x":5, "y":0, "type":"oar"}, {"x":6, "y":1, "type":"sail", "openned":false}, {"x":7, "y":2, "type":"oar"}, {"x":7, "y":0, "type":"oar"}], "life":1200, "shape":{"type":"rectangle", "width":3.0, "height":8.0, "orientation":0.0}}, "visibleEntities":[{"type":"reef", "position":{"x":5400.0, "y":1172.6384364820844, "orientation":0.0}, "shape":{"type":"circle", "radius":650.0}}], "wind":{"orientation":0.0, "strength":100.0}}
[0;31m[15/03/2022 20:14:51][0;93m  [INFO][0m   Actions: [{"sailorId":0,"type":"OAR"},{"sailorId":1,"type":"OAR"},{"sailorId":2,"type":"OAR"},{"sailorId":3,"type":"OAR"},{"sailorId":4,"type":"TURN","rotation":1.9786112748221285E-8},{"sailorId":5,"type":"OAR"},{"sailorId":6,"type":"OAR"},{"sailorId":8,"type":"OAR"},{"sailorId":9,"type":"OAR"},{"sailorId":10,"type":"OAR"},{"sailorId":11,"type":"OAR"}]
[0;31m[15/03/2022 20:14:51][0;93m  [INFO][0m    === Tour 35 ===
[0;31m[15/03/2022 20:14:51][0;93m  [INFO][0m   Next round input: {"ship":{"type":"ship", "position":{"x":6809.259882230936, "y":740.4693036443631, "orientation":-2.1939130849187425}, "name":"kihm", "deck":{"width":3, "length":8}, "entities":[{"x":1, "y":1, "type":"rudder"}, {"x":6, "y":0, "type":"oar"}, {"x":6, "y":2, "type":"oar"}, {"x":5, "y":2, "type":"oar"}, {"x":4, "y":2, "type":"oar"}, {"x":3, "y":2, "type":"oar"}, {"x":3, "y":0, "type":"oar"}, {"x":4, "y":0, "type":"oar"}, {"x":5, "y":0, "type":"oar"}, {"x":6, "y":1, "type":"sail", "openned":false}, {"x":7, "y":2, "type":"oar"}, {"x":7, "y":0, "type":"oar"}], "life":1200, "shape":{"type":"rectangle", "width":3.0, "height":8.0, "orientation":0.0}}, "visibleEntities":[{"type":"reef", "position":{"x":5400.0, "y":1172.6384364820844, "orientation":0.0}, "shape":{"type":"circle", "radius":650.0}}], "wind":{"orientation":0.0, "strength":100.0}}
[0;31m[15/03/2022 20:14:51][0;93m  [INFO][0m   Actions: [{"sailorId":0,"type":"OAR"},{"sailorId":1,"type":"OAR"},{"sailorId":2,"type":"OAR"},{"sailorId":3,"type":"OAR"},{"sailorId":4,"type":"TURN","rotation":7.181473193895727E-10},{"sailorId":5,"type":"OAR"},{"sailorId":6,"type":"OAR"},{"sailorId":8,"type":"OAR"},{"sailorId":9,"type":"OAR"},{"sailorId":10,"type":"OAR"},{"sailorId":11,"type":"OAR"}]
[0;31m[15/03/2022 20:14:51][0;93m  [INFO][0m    === Tour 36 ===
[0;31m[15/03/2022 20:14:51][0;93m  [INFO][0m   Next round input: {"ship":{"type":"ship", "position":{"x":6712.970997842228, "y":606.4788161343234, "orientation":-2.193913084200606}, "name":"kihm", "deck":{"width":3, "length":8}, "entities":[{"x":1, "y":1, "type":"rudder"}, {"x":6, "y":0, "type":"oar"}, {"x":6, "y":2, "type":"oar"}, {"x":5, "y":2, "type":"oar"}, {"x":4, "y":2, "type":"oar"}, {"x":3, "y":2, "type":"oar"}, {"x":3, "y":0, "type":"oar"}, {"x":4, "y":0, "type":"oar"}, {"x":5, "y":0, "type":"oar"}, {"x":6, "y":1, "type":"sail", "openned":false}, {"x":7, "y":2, "type":"oar"}, {"x":7, "y":0, "type":"oar"}], "life":1200, "shape":{"type":"rectangle", "width":3.0, "height":8.0, "orientation":0.0}}, "visibleEntities":[{"type":"reef", "position":{"x":5400.0, "y":1172.6384364820844, "orientation":0.0}, "shape":{"type":"circle", "radius":650.0}}], "wind":{"orientation":0.0, "strength":100.0}}
[0;31m[15/03/2022 20:14:51][0;93m  [INFO][0m   Actions: [{"sailorId":0,"type":"OAR"},{"sailorId":1,"type":"OAR"},{"sailorId":2,"type":"OAR"},{"sailorId":3,"type":"OAR"},{"sailorId":4,"type":"TURN","rotation":2.809574795037406E-11},{"sailorId":5,"type":"OAR"},{"sailorId":6,"type":"OAR"},{"sailorId":8,"type":"OAR"},{"sailorId":9,"type":"OAR"},{"sailorId":10,"type":"OAR"},{"sailorId":11,"type":"OAR"}]
[0;31m[15/03/2022 20:14:51][0;93m  [INFO][0m    === Tour 37 ===
[0;31m[15/03/2022 20:14:51][0;93m  [INFO][0m   Next round input: {"ship":{"type":"ship", "position":{"x":6616.682113503978, "y":472.4883285880239, "orientation":-2.193913084172495}, "name":"kihm", "deck":{"width":3, "length":8}, "entities":[{"x":1, "y":1, "type":"rudder"}, {"x":6, "y":0, "type":"oar"}, {"x":6, "y":2, "type":"oar"}, {"x":5, "y":2, "type":"oar"}, {"x":4, "y":2, "type":"oar"}, {"x":3, "y":2, "type":"oar"}, {"x":3, "y":0, "type":"oar"}, {"x":4, "y":0, "type":"oar"}, {"x":5, "y":0, "type":"oar"}, {"x":6, "y":1, "type":"sail", "openned":false}, {"x":7, "y":2, "type":"oar"}, {"x":7, "y":0, "type":"oar"}], "life":1200, "shape":{"type":"rectangle", "width":3.0, "height":8.0, "orientation":0.0}}, "visibleEntities":[{"type":"reef", "position":{"x":5400.0, "y":1172.6384364820844, "orientation":0.0}, "shape":{"type":"circle", "radius":650.0}}], "wind":{"orientation":0.0, "strength":100.0}}
[0;31m[15/03/2022 20:14:51][0;93m  [INFO][0m   Actions: [{"sailorId":0,"type":"OAR"},{"sailorId":1,"type":"OAR"},{"sailorId":2,"type":"OAR"},{"sailorId":3,"type":"OAR"},{"sailorId":4,"type":"TURN","rotation":1.1750600492632657E-12},{"sailorId":5,"type":"OAR"},{"sailorId":6,"type":"OAR"},{"sailorId":8,"type":"OAR"},{"sailorId":9,"type":"OAR"},{"sailorId":10,"type":"OAR"},{"sailorId":11,"type":"OAR"}]
[0;31m[15/03/2022 20:14:51][0;93m  [INFO][0m    === Tour 38 ===
[0;31m[15/03/2022 20:14:51][0;93m  [INFO][0m   Next round input: {"ship":{"type":"ship", "position":{"x":6520.393229167705, "y":338.4978410403022, "orientation":-2.1939130841713403}, "name":"kihm", "deck":{"width":3, "length":8}, "entities":[{"x":1, "y":1, "type":"rudder"}, {"x":6, "y":0, "type":"oar"}, {"x":6, "y":2, "type":"oar"}, {"x":5, "y":2, "type":"oar"}, {"x":4, "y":2, "type":"oar"}, {"x":3, "y":2, "type":"oar"}, {"x":3, "y":0, "type":"oar"}, {"x":4, "y":0, "type":"oar"}, {"x":5, "y":0, "type":"oar"}, {"x":6, "y":1, "type":"sail", "openned":false}, {"x":7, "y":2, "type":"oar"}, {"x":7, "y":0, "type":"oar"}], "life":1200, "shape":{"type":"rectangle", "width":3.0, "height":8.0, "orientation":0.0}}, "visibleEntities":[{"type":"reef", "position":{"x":5400.0, "y":1172.6384364820844, "orientation":0.0}, "shape":{"type":"circle", "radius":650.0}}], "wind":{"orientation":0.0, "strength":100.0}}
[0;31m[15/03/2022 20:14:51][0;93m  [INFO][0m   Actions: [{"sailorId":0,"type":"OAR"},{"sailorId":1,"type":"OAR"},{"sailorId":2,"type":"OAR"},{"sailorId":3,"type":"OAR"},{"sailorId":4,"type":"TURN","rotation":7.638334409421077E-14},{"sailorId":5,"type":"OAR"},{"sailorId":6,"type":"OAR"},{"sailorId":8,"type":"OAR"},{"sailorId":9,"type":"OAR"},{"sailorId":10,"type":"OAR"},{"sailorId":11,"type":"OAR"}]
[0;31m[15/03/2022 20:14:51][0;93m  [INFO][0m    === Tour 39 ===
[0;31m[15/03/2022 20:14:51][0;93m  [INFO][0m   Next round input: {"ship":{"type":"ship", "position":{"x":6424.104344831532, "y":204.5073534925203, "orientation":-2.1939130841712515}, "name":"kihm", "deck":{"width":3, "length":8}, "entities":[{"x":1, "y":1, "type":"rudder"}, {"x":6, "y":0, "type":"oar"}, {"x":6, "y":2, "type":"oar"}, {"x":5, "y":2, "type":"oar"}, {"x":4, "y":2, "type":"oar"}, {"x":3, "y":2, "type":"oar"}, {"x":3, "y":0, "type":"oar"}, {"x":4, "y":0, "type":"oar"}, {"x":5, "y":0, "type":"oar"}, {"x":6, "y":1, "type":"sail", "openned":false}, {"x":7, "y":2, "type":"oar"}, {"x":7, "y":0, "type":"oar"}], "life":1200, "shape":{"type":"rectangle", "width":3.0, "height":8.0, "orientation":0.0}}, "visibleEntities":[{"type":"reef", "position":{"x":5400.0, "y":1172.6384364820844, "orientation":0.0}, "shape":{"type":"circle", "radius":650.0}}], "wind":{"orientation":0.0, "strength":100.0}}
[0;31m[15/03/2022 20:14:51][0;93m  [INFO][0m   Actions: [{"sailorId":0,"type":"OAR"},{"sailorId":1,"type":"OAR"},{"sailorId":2,"type":"OAR"},{"sailorId":3,"type":"OAR"},{"sailorId":4,"type":"TURN","rotation":-1.6431300764452317E-14},{"sailorId":5,"type":"OAR"},{"sailorId":6,"type":"OAR"},{"sailorId":8,"type":"OAR"},{"sailorId":9,"type":"OAR"},{"sailorId":10,"type":"OAR"},{"sailorId":11,"type":"OAR"}]
[0;31m[15/03/2022 20:14:51][0;93m  [INFO][0m    === Tour 40 ===
[0;31m[15/03/2022 20:14:51][0;93m  [INFO][0m   Next round input: {"ship":{"type":"ship", "position":{"x":6327.81546049536, "y":70.51686594473469, "orientation":-2.1939130841712515}, "name":"kihm", "deck":{"width":3, "length":8}, "entities":[{"x":1, "y":1, "type":"rudder"}, {"x":6, "y":0, "type":"oar"}, {"x":6, "y":2, "type":"oar"}, {"x":5, "y":2, "type":"oar"}, {"x":4, "y":2, "type":"oar"}, {"x":3, "y":2, "type":"oar"}, {"x":3, "y":0, "type":"oar"}, {"x":4, "y":0, "type":"oar"}, {"x":5, "y":0, "type":"oar"}, {"x":6, "y":1, "type":"sail", "openned":false}, {"x":7, "y":2, "type":"oar"}, {"x":7, "y":0, "type":"oar"}], "life":1200, "shape":{"type":"rectangle", "width":3.0, "height":8.0, "orientation":0.0}}, "visibleEntities":[{"type":"reef", "position":{"x":5400.0, "y":1172.6384364820844, "orientation":0.0}, "shape":{"type":"circle", "radius":650.0}}], "wind":{"orientation":0.0, "strength":100.0}}
[0;31m[15/03/2022 20:14:51][0;93m  [INFO][0m   Actions: [{"sailorId":0,"type":"OAR"},{"sailorId":3,"type":"OAR"},{"sailorId":4,"type":"TURN","rotation":0.46354411349960056},{"sailorId":6,"type":"OAR"},{"sailorId":9,"type":"OAR"},{"sailorId":10,"type":"OAR"}]
[0;31m[15/03/2022 20:14:51][0;93m  [INFO][0m    === Tour 41 ===
[0;31m[15/03/2022 20:14:51][0;93m  [INFO][0m   Next round input: {"ship":{"type":"ship", "position":{"x":6255.637712608356, "y":40.035503763122115, "orientation":-3.301165297466536}, "name":"kihm", "deck":{"width":3, "length":8}, "entities":[{"x":1, "y":1, "type":"rudder"}, {"x":6, "y":0, "type":"oar"}, {"x":6, "y":2, "type":"oar"}, {"x":5, "y":2, "type":"oar"}, {"x":4, "y":2, "type":"oar"}, {"x":3, "y":2, "type":"oar"}, {"x":3, "y":0, "type":"oar"}, {"x":4, "y":0, "type":"oar"}, {"x":5, "y":0, "type":"oar"}, {"x":6, "y":1, "type":"sail", "openned":false}, {"x":7, "y":2, "type":"oar"}, {"x":7, "y":0, "type":"oar"}], "life":1200, "shape":{"type":"rectangle", "width":3.0, "height":8.0, "orientation":0.0}}, "visibleEntities":[{"type":"reef", "position":{"x":5400.0, "y":1172.6384364820844, "orientation":0.0}, "shape":{"type":"circle", "radius":650.0}}], "wind":{"orientation":0.0, "strength":100.0}}
[0;31m[15/03/2022 20:14:51][0;93m  [INFO][0m   Actions: [{"sailorId":0,"type":"OAR"},{"sailorId":1,"type":"OAR"},{"sailorId":2,"type":"OAR"},{"sailorId":3,"type":"OAR"},{"sailorId":4,"type":"TURN","rotation":-0.022284051380951908},{"sailorId":5,"type":"OAR"},{"sailorId":6,"type":"OAR"},{"sailorId":8,"type":"OAR"},{"sailorId":9,"type":"OAR"},{"sailorId":10,"type":"OAR"},{"sailorId":11,"type":"OAR"}]
[0;31m[15/03/2022 20:14:51][0;93m  [INFO][0m    === Tour 42 ===
[0;31m[15/03/2022 20:14:51][0;93m  [INFO][0m   Next round input: {"ship":{"type":"ship", "position":{"x":6093.036459474943, "y":68.04810802020991, "orientation":-3.3234493488474968}, "name":"kihm", "deck":{"width":3, "length":8}, "entities":[{"x":1, "y":1, "type":"rudder"}, {"x":6, "y":0, "type":"oar"}, {"x":6, "y":2, "type":"oar"}, {"x":5, "y":2, "type":"oar"}, {"x":4, "y":2, "type":"oar"}, {"x":3, "y":2, "type":"oar"}, {"x":3, "y":0, "type":"oar"}, {"x":4, "y":0, "type":"oar"}, {"x":5, "y":0, "type":"oar"}, {"x":6, "y":1, "type":"sail", "openned":false}, {"x":7, "y":2, "type":"oar"}, {"x":7, "y":0, "type":"oar"}], "life":1200, "shape":{"type":"rectangle", "width":3.0, "height":8.0, "orientation":0.0}}, "visibleEntities":[{"type":"reef", "position":{"x":5400.0, "y":1172.6384364820844, "orientation":0.0}, "shape":{"type":"circle", "radius":650.0}}], "wind":{"orientation":0.0, "strength":100.0}}
[0;31m[15/03/2022 20:14:51][0;93m  [INFO][0m   Actions: [{"sailorId":0,"type":"OAR"},{"sailorId":1,"type":"OAR"},{"sailorId":2,"type":"OAR"},{"sailorId":3,"type":"OAR"},{"sailorId":4,"type":"TURN","rotation":-0.0012491919686912212},{"sailorId":5,"type":"OAR"},{"sailorId":6,"type":"OAR"},{"sailorId":8,"type":"OAR"},{"sailorId":9,"type":"OAR"},{"sailorId":10,"type":"OAR"},{"sailorId":11,"type":"OAR"}]
[0;31m[15/03/2022 20:14:51][0;93m  [INFO][0m    === Tour 43 ===
[0;31m[15/03/2022 20:14:51][0;93m  [INFO][0m   Next round input: {"ship":{"type":"ship", "position":{"x":5930.775870396252, "y":97.98967931916997, "orientation":-3.3246985408162075}, "name":"kihm", "deck":{"width":3, "length":8}, "entities":[{"x":1, "y":1, "type":"rudder"}, {"x":6, "y":0, "type":"oar"}, {"x":6, "y":2, "type":"oar"}, {"x":5, "y":2, "type":"oar"}, {"x":4, "y":2, "type":"oar"}, {"x":3, "y":2, "type":"oar"}, {"x":3, "y":0, "type":"oar"}, {"x":4, "y":0, "type":"oar"}, {"x":5, "y":0, "type":"oar"}, {"x":6, "y":1, "type":"sail", "openned":false}, {"x":7, "y":2, "type":"oar"}, {"x":7, "y":0, "type":"oar"}], "life":1200, "shape":{"type":"rectangle", "width":3.0, "height":8.0, "orientation":0.0}}, "visibleEntities":[{"type":"reef", "position":{"x":5400.0, "y":1172.6384364820844, "orientation":0.0}, "shape":{"type":"circle", "radius":650.0}}], "wind":{"orientation":0.0, "strength":100.0}}
[0;31m[15/03/2022 20:14:51][0;93m  [INFO][0m   Actions: [{"sailorId":0,"type":"OAR"},{"sailorId":1,"type":"OAR"},{"sailorId":2,"type":"OAR"},{"sailorId":3,"type":"OAR"},{"sailorId":4,"type":"TURN","rotation":-7.877442739268048E-5},{"sailorId":5,"type":"OAR"},{"sailorId":6,"type":"OAR"},{"sailorId":8,"type":"OAR"},{"sailorId":9,"type":"OAR"},{"sailorId":10,"type":"OAR"},{"sailorId":11,"type":"OAR"}]
[0;31m[15/03/2022 20:14:51][0;93m  [INFO][0m    === Tour 44 ===
[0;31m[15/03/2022 20:14:51][0;93m  [INFO][0m   Next round input: {"ship":{"type":"ship", "position":{"x":5768.535363132632, "y":128.03993370687664, "orientation":-3.3247773152435887}, "name":"kihm", "deck":{"width":3, "length":8}, "entities":[{"x":1, "y":1, "type":"rudder"}, {"x":6, "y":0, "type":"oar"}, {"x":6, "y":2, "type":"oar"}, {"x":5, "y":2, "type":"oar"}, {"x":4, "y":2, "type":"oar"}, {"x":3, "y":2, "type":"oar"}, {"x":3, "y":0, "type":"oar"}, {"x":4, "y":0, "type":"oar"}, {"x":5, "y":0, "type":"oar"}, {"x":6, "y":1, "type":"sail", "openned":false}, {"x":7, "y":2, "type":"oar"}, {"x":7, "y":0, "type":"oar"}], "life":1200, "shape":{"type":"rectangle", "width":3.0, "height":8.0, "orientation":0.0}}, "visibleEntities":[{"type":"reef", "position":{"x":5400.0, "y":1172.6384364820844, "orientation":0.0}, "shape":{"type":"circle", "radius":650.0}}], "wind":{"orientation":0.0, "strength":100.0}}
[0;31m[15/03/2022 20:14:51][0;93m  [INFO][0m   Actions: [{"sailorId":0,"type":"OAR"},{"sailorId":1,"type":"OAR"},{"sailorId":2,"type":"OAR"},{"sailorId":3,"type":"OAR"},{"sailorId":4,"type":"TURN","rotation":-5.676357753614525E-6},{"sailorId":5,"type":"OAR"},{"sailorId":6,"type":"OAR"},{"sailorId":8,"type":"OAR"},{"sailorId":9,"type":"OAR"},{"sailorId":10,"type":"OAR"},{"sailorId":11,"type":"OAR"}]
[0;31m[15/03/2022 20:14:51][0;93m  [INFO][0m    === Tour 45 ===
[0;31m[15/03/2022 20:14:51][0;93m  [INFO][0m   Next round input: {"ship":{"type":"ship", "position":{"x":5606.296135841301, "y":158.09709804150435, "orientation":-3.324782991601328}, "name":"kihm", "deck":{"width":3, "length":8}, "entities":[{"x":1, "y":1, "type":"rudder"}, {"x":6, "y":0, "type":"oar"}, {"x":6, "y":2, "type":"oar"}, {"x":5, "y":2, "type":"oar"}, {"x":4, "y":2, "type":"oar"}, {"x":3, "y":2, "type":"oar"}, {"x":3, "y":0, "type":"oar"}, {"x":4, "y":0, "type":"oar"}, {"x":5, "y":0, "type":"oar"}, {"x":6, "y":1, "type":"sail", "openned":false}, {"x":7, "y":2, "type":"oar"}, {"x":7, "y":0, "type":"oar"}], "life":1200, "shape":{"type":"rectangle", "width":3.0, "height":8.0, "orientation":0.0}}, "visibleEntities":[{"type":"reef", "position":{"x":5400.0, "y":1172.6384364820844, "orientation":0.0}, "shape":{"type":"circle", "radius":650.0}}], "wind":{"orientation":0.0, "strength":100.0}}
[0;31m[15/03/2022 20:14:52][0;93m  [INFO][0m   Actions: [{"sailorId":0,"type":"OAR"},{"sailorId":1,"type":"OAR"},{"sailorId":2,"type":"OAR"},{"sailorId":3,"type":"OAR"},{"sailorId":4,"type":"TURN","rotation":-4.771075827747495E-7},{"sailorId":5,"type":"OAR"},{"sailorId":6,"type":"OAR"},{"sailorId":8,"type":"OAR"},{"sailorId":9,"type":"OAR"},{"sailorId":10,"type":"OAR"},{"sailorId":11,"type":"OAR"}]
[0;31m[15/03/2022 20:14:52][0;93m  [INFO][0m    === Tour 46 ===
[0;31m[15/03/2022 20:14:52][0;93m  [INFO][0m   Next round input: {"ship":{"type":"ship", "position":{"x":5444.057001809768, "y":188.15476576036966, "orientation":-3.324783468708926}, "name":"kihm", "deck":{"width":3, "length":8}, "entities":[{"x":1, "y":1, "type":"rudder"}, {"x":6, "y":0, "type":"oar"}, {"x":6, "y":2, "type":"oar"}, {"x":5, "y":2, "type":"oar"}, {"x":4, "y":2, "type":"oar"}, {"x":3, "y":2, "type":"oar"}, {"x":3, "y":0, "type":"oar"}, {"x":4, "y":0, "type":"oar"}, {"x":5, "y":0, "type":"oar"}, {"x":6, "y":1, "type":"sail", "openned":false}, {"x":7, "y":2, "type":"oar"}, {"x":7, "y":0, "type":"oar"}], "life":1200, "shape":{"type":"rectangle", "width":3.0, "height":8.0, "orientation":0.0}}, "visibleEntities":[{"type":"reef", "position":{"x":5400.0, "y":1172.6384364820844, "orientation":0.0}, "shape":{"type":"circle", "radius":650.0}}], "wind":{"orientation":0.0, "strength":100.0}}
[0;31m[15/03/2022 20:14:52][0;93m  [INFO][0m   Actions: [{"sailorId":0,"type":"OAR"},{"sailorId":1,"type":"OAR"},{"sailorId":2,"type":"OAR"},{"sailorId":3,"type":"OAR"},{"sailorId":4,"type":"TURN","rotation":-4.8108891093079365E-8},{"sailorId":5,"type":"OAR"},{"sailorId":6,"type":"OAR"},{"sailorId":8,"type":"OAR"},{"sailorId":9,"type":"OAR"},{"sailorId":10,"type":"OAR"},{"sailorId":11,"type":"OAR"}]
[0;31m[15/03/2022 20:14:52][0;93m  [INFO][0m    === Tour 47 ===
[0;31m[15/03/2022 20:14:52][0;93m  [INFO][0m   Next round input: {"ship":{"type":"ship", "position":{"x":5281.817875736097, "y":218.21247643257055, "orientation":-3.3247835168178206}, "name":"kihm", "deck":{"width":3, "length":8}, "entities":[{"x":1, "y":1, "type":"rudder"}, {"x":6, "y":0, "type":"oar"}, {"x":6, "y":2, "type":"oar"}, {"x":5, "y":2, "type":"oar"}, {"x":4, "y":2, "type":"oar"}, {"x":3, "y":2, "type":"oar"}, {"x":3, "y":0, "type":"oar"}, {"x":4, "y":0, "type":"oar"}, {"x":5, "y":0, "type":"oar"}, {"x":6, "y":1, "type":"sail", "openned":false}, {"x":7, "y":2, "type":"oar"}, {"x":7, "y":0, "type":"oar"}], "life":1200, "shape":{"type":"rectangle", "width":3.0, "height":8.0, "orientation":0.0}}, "visibleEntities":[{"type":"reef", "position":{"x":5400.0, "y":1172.6384364820844, "orientation":0.0}, "shape":{"type":"circle", "radius":650.0}}], "wind":{"orientation":0.0, "strength":100.0}}
[0;31m[15/03/2022 20:14:52][0;93m  [INFO][0m   Actions: [{"sailorId":0,"type":"OAR"},{"sailorId":1,"type":"OAR"},{"sailorId":2,"type":"OAR"},{"sailorId":3,"type":"OAR"},{"sailorId":4,"type":"TURN","rotation":-6.061309676397286E-9},{"sailorId":5,"type":"OAR"},{"sailorId":6,"type":"OAR"},{"sailorId":8,"type":"OAR"},{"sailorId":9,"type":"OAR"},{"sailorId":10,"type":"OAR"},{"sailorId":11,"type":"OAR"}]
[0;31m[15/03/2022 20:14:52][0;93m  [INFO][0m    === Tour 48 ===
[0;31m[15/03/2022 20:14:52][0;93m  [INFO][0m   Next round input: {"ship":{"type":"ship", "position":{"x":5119.578750482869, "y":248.27019153314507, "orientation":-3.32478352287915}, "name":"kihm", "deck":{"width":3, "length":8}, "entities":[{"x":1, "y":1, "type":"rudder"}, {"x":6, "y":0, "type":"oar"}, {"x":6, "y":2, "type":"oar"}, {"x":5, "y":2, "type":"oar"}, {"x":4, "y":2, "type":"oar"}, {"x":3, "y":2, "type":"oar"}, {"x":3, "y":0, "type":"oar"}, {"x":4, "y":0, "type":"oar"}, {"x":5, "y":0, "type":"oar"}, {"x":6, "y":1, "type":"sail", "openned":false}, {"x":7, "y":2, "type":"oar"}, {"x":7, "y":0, "type":"oar"}], "life":1200, "shape":{"type":"rectangle", "width":3.0, "height":8.0, "orientation":0.0}}, "visibleEntities":[{"type":"reef", "position":{"x":5400.0, "y":1172.6384364820844, "orientation":0.0}, "shape":{"type":"circle", "radius":650.0}}], "wind":{"orientation":0.0, "strength":100.0}}
[0;31m[15/03/2022 20:14:52][0;93m  [INFO][0m   Actions: [{"sailorId":0,"type":"OAR"},{"sailorId":1,"type":"OAR"},{"sailorId":2,"type":"OAR"},{"sailorId":3,"type":"OAR"},{"sailorId":4,"type":"TURN","rotation":-1.0175140729984378E-9},{"sailorId":5,"type":"OAR"},{"sailorId":6,"type":"OAR"},{"sailorId":8,"type":"OAR"},{"sailorId":9,"type":"OAR"},{"sailorId":10,"type":"OAR"},{"sailorId":11,"type":"OAR"}]
[0;31m[15/03/2022 20:14:52][0;93m  [INFO][0m    === Tour 49 ===
[0;31m[15/03/2022 20:14:52][0;93m  [INFO][0m   Next round input: {"ship":{"type":"ship", "position":{"x":4957.339625336785, "y":278.3279072120425, "orientation":-3.324783523896647}, "name":"kihm", "deck":{"width":3, "length":8}, "entities":[{"x":1, "y":1, "type":"rudder"}, {"x":6, "y":0, "type":"oar"}, {"x":6, "y":2, "type":"oar"}, {"x":5, "y":2, "type":"oar"}, {"x":4, "y":2, "type":"oar"}, {"x":3, "y":2, "type":"oar"}, {"x":3, "y":0, "type":"oar"}, {"x":4, "y":0, "type":"oar"}, {"x":5, "y":0, "type":"oar"}, {"x":6, "y":1, "type":"sail", "openned":false}, {"x":7, "y":2, "type":"oar"}, {"x":7, "y":0, "type":"oar"}], "life":1200, "shape":{"type":"rectangle", "width":3.0, "height":8.0, "orientation":0.0}}, "visibleEntities":[{"type":"reef", "position":{"x":5400.0, "y":1172.6384364820844, "orientation":0.0}, "shape":{"type":"circle", "radius":650.0}}, {"type":"stream", "position":{"x":3539.1304347826062, "y":2280.130293159613, "orientation":1.9896753472735356}, "shape":{"type":"rectangle", "width":350.0, "height":3000.0, "orientation":0.0}, "strength":35.0}], "wind":{"orientation":0.0, "strength":100.0}}
[0;31m[15/03/2022 20:14:52][0;93m  [INFO][0m   Actions: [{"sailorId":0,"type":"OAR"},{"sailorId":1,"type":"OAR"},{"sailorId":2,"type":"OAR"},{"sailorId":3,"type":"OAR"},{"sailorId":4,"type":"TURN","rotation":-2.558939726782228E-10},{"sailorId":5,"type":"OAR"},{"sailorId":6,"type":"OAR"},{"sailorId":8,"type":"OAR"},{"sailorId":9,"type":"OAR"},{"sailorId":10,"type":"OAR"},{"sailorId":11,"type":"OAR"}]
[0;31m[15/03/2022 20:14:52][0;93m  [INFO][0m    === Tour 50 ===
[0;31m[15/03/2022 20:14:52][0;93m  [INFO][0m   Next round input: {"ship":{"type":"ship", "position":{"x":4795.100500209952, "y":308.38562299485386, "orientation":-3.324783524152531}, "name":"kihm", "deck":{"width":3, "length":8}, "entities":[{"x":1, "y":1, "type":"rudder"}, {"x":6, "y":0, "type":"oar"}, {"x":6, "y":2, "type":"oar"}, {"x":5, "y":2, "type":"oar"}, {"x":4, "y":2, "type":"oar"}, {"x":3, "y":2, "type":"oar"}, {"x":3, "y":0, "type":"oar"}, {"x":4, "y":0, "type":"oar"}, {"x":5, "y":0, "type":"oar"}, {"x":6, "y":1, "type":"sail", "openned":false}, {"x":7, "y":2, "type":"oar"}, {"x":7, "y":0, "type":"oar"}], "life":1200, "shape":{"type":"rectangle", "width":3.0, "height":8.0, "orientation":0.0}}, "visibleEntities":[{"type":"reef", "position":{"x":5400.0, "y":1172.6384364820844, "orientation":0.0}, "shape":{"type":"circle", "radius":650.0}}, {"type":"stream", "position":{"x":3539.1304347826062, "y":2280.130293159613, "orientation":1.9896753472735356}, "shape":{"type":"rectangle", "width":350.0, "height":3000.0, "orientation":0.0}, "strength":35.0}], "wind":{"orientation":0.0, "strength":100.0}}
[0;31m[15/03/2022 20:14:52][0;93m  [INFO][0m   Actions: [{"sailorId":0,"type":"OAR"},{"sailorId":1,"type":"OAR"},{"sailorId":2,"type":"OAR"},{"sailorId":3,"type":"OAR"},{"sailorId":4,"type":"TURN","rotation":0.0014712346732146386},{"sailorId":5,"type":"OAR"},{"sailorId":6,"type":"OAR"},{"sailorId":8,"type":"OAR"},{"sailorId":9,"type":"OAR"},{"sailorId":10,"type":"OAR"},{"sailorId":11,"type":"OAR"}]
[0;31m[15/03/2022 20:14:52][0;93m  [INFO][0m    === Tour 51 ===
[0;31m[15/03/2022 20:14:52][0;93m  [INFO][0m   Next round input: {"ship":{"type":"ship", "position":{"x":4632.839542877444, "y":338.3251756843773, "orientation":-3.3233122894793308}, "name":"kihm", "deck":{"width":3, "length":8}, "entities":[{"x":1, "y":1, "type":"rudder"}, {"x":6, "y":0, "type":"oar"}, {"x":6, "y":2, "type":"oar"}, {"x":5, "y":2, "type":"oar"}, {"x":4, "y":2, "type":"oar"}, {"x":3, "y":2, "type":"oar"}, {"x":3, "y":0, "type":"oar"}, {"x":4, "y":0, "type":"oar"}, {"x":5, "y":0, "type":"oar"}, {"x":6, "y":1, "type":"sail", "openned":false}, {"x":7, "y":2, "type":"oar"}, {"x":7, "y":0, "type":"oar"}], "life":1200, "shape":{"type":"rectangle", "width":3.0, "height":8.0, "orientation":0.0}}, "visibleEntities":[{"type":"reef", "position":{"x":5400.0, "y":1172.6384364820844, "orientation":0.0}, "shape":{"type":"circle", "radius":650.0}}, {"type":"stream", "position":{"x":3539.1304347826062, "y":2280.130293159613, "orientation":1.9896753472735356}, "shape":{"type":"rectangle", "width":350.0, "height":3000.0, "orientation":0.0}, "strength":35.0}], "wind":{"orientation":0.0, "strength":100.0}}
[0;31m[15/03/2022 20:14:52][0;93m  [INFO][0m   Actions: [{"sailorId":0,"type":"OAR"},{"sailorId":1,"type":"OAR"},{"sailorId":3,"type":"OAR"},{"sailorId":4,"type":"TURN","rotation":0.32534062650649087},{"sailorId":6,"type":"OAR"},{"sailorId":9,"type":"OAR"},{"sailorId":10,"type":"OAR"}]
[0;31m[15/03/2022 20:14:52][0;93m  [INFO][0m    === Tour 52 ===
[0;31m[15/03/2022 20:14:52][0;93m  [INFO][0m   Next round input: {"ship":{"type":"ship", "position":{"x":4556.425320311638, "y":395.5416059280473, "orientation":-4.254608724408749}, "name":"kihm", "deck":{"width":3, "length":8}, "entities":[{"x":1, "y":1, "type":"rudder"}, {"x":6, "y":0, "type":"oar"}, {"x":6, "y":2, "type":"oar"}, {"x":5, "y":2, "type":"oar"}, {"x":4, "y":2, "type":"oar"}, {"x":3, "y":2, "type":"oar"}, {"x":3, "y":0, "type":"oar"}, {"x":4, "y":0, "type":"oar"}, {"x":5, "y":0, "type":"oar"}, {"x":6, "y":1, "type":"sail", "openned":false}, {"x":7, "y":2, "type":"oar"}, {"x":7, "y":0, "type":"oar"}], "life":1200, "shape":{"type":"rectangle", "width":3.0, "height":8.0, "orientation":0.0}}, "visibleEntities":[{"type":"reef", "position":{"x":5400.0, "y":1172.6384364820844, "orientation":0.0}, "shape":{"type":"circle", "radius":650.0}}, {"type":"stream", "position":{"x":3539.1304347826062, "y":2280.130293159613, "orientation":1.9896753472735356}, "shape":{"type":"rectangle", "width":350.0, "height":3000.0, "orientation":0.0}, "strength":35.0}], "wind":{"orientation":0.0, "strength":100.0}}
[0;31m[15/03/2022 20:14:52][0;93m  [INFO][0m   Actions: [{"sailorId":0,"type":"OAR"},{"sailorId":1,"type":"OAR"},{"sailorId":2,"type":"OAR"},{"sailorId":3,"type":"OAR"},{"sailorId":4,"type":"TURN","rotation":-0.0071279801808703525},{"sailorId":5,"type":"OAR"},{"sailorId":6,"type":"OAR"},{"sailorId":8,"type":"OAR"},{"sailorId":9,"type":"OAR"},{"sailorId":10,"type":"OAR"},{"sailorId":11,"type":"OAR"}]
[0;31m[15/03/2022 20:14:52][0;93m  [INFO][0m    === Tour 53 ===
[0;31m[15/03/2022 20:14:52][0;93m  [INFO][0m   Next round input: {"ship":{"type":"ship", "position":{"x":4484.0250894098945, "y":543.8085655185644, "orientation":-4.2617367045896035}, "name":"kihm", "deck":{"width":3, "length":8}, "entities":[{"x":1, "y":1, "type":"rudder"}, {"x":6, "y":0, "type":"oar"}, {"x":6, "y":2, "type":"oar"}, {"x":5, "y":2, "type":"oar"}, {"x":4, "y":2, "type":"oar"}, {"x":3, "y":2, "type":"oar"}, {"x":3, "y":0, "type":"oar"}, {"x":4, "y":0, "type":"oar"}, {"x":5, "y":0, "type":"oar"}, {"x":6, "y":1, "type":"sail", "openned":false}, {"x":7, "y":2, "type":"oar"}, {"x":7, "y":0, "type":"oar"}], "life":1200, "shape":{"type":"rectangle", "width":3.0, "height":8.0, "orientation":0.0}}, "visibleEntities":[{"type":"reef", "position":{"x":5400.0, "y":1172.6384364820844, "orientation":0.0}, "shape":{"type":"circle", "radius":650.0}}, {"type":"stream", "position":{"x":3539.1304347826062, "y":2280.130293159613, "orientation":1.9896753472735356}, "shape":{"type":"rectangle", "width":350.0, "height":3000.0, "orientation":0.0}, "strength":35.0}], "wind":{"orientation":0.0, "strength":100.0}}
[0;31m[15/03/2022 20:14:52][0;93m  [INFO][0m   Actions: [{"sailorId":0,"type":"OAR"},{"sailorId":1,"type":"OAR"},{"sailorId":2,"type":"OAR"},{"sailorId":3,"type":"OAR"},{"sailorId":4,"type":"TURN","rotation":-1.0520628509347318E-4},{"sailorId":5,"type":"OAR"},{"sailorId":6,"type":"OAR"},{"sailorId":8,"type":"OAR"},{"sailorId":9,"type":"OAR"},{"sailorId":10,"type":"OAR"},{"sailorId":11,"type":"OAR"}]
[0;31m[15/03/2022 20:14:52][0;93m  [INFO][0m    === Tour 54 ===
[0;31m[15/03/2022 20:14:52][0;93m  [INFO][0m   Next round input: {"ship":{"type":"ship", "position":{"x":4412.166615464712, "y":692.3392347325689, "orientation":-4.261841910874709}, "name":"kihm", "deck":{"width":3, "length":8}, "entities":[{"x":1, "y":1, "type":"rudder"}, {"x":6, "y":0, "type":"oar"}, {"x":6, "y":2, "type":"oar"}, {"x":5, "y":2, "type":"oar"}, {"x":4, "y":2, "type":"oar"}, {"x":3, "y":2, "type":"oar"}, {"x":3, "y":0, "type":"oar"}, {"x":4, "y":0, "type":"oar"}, {"x":5, "y":0, "type":"oar"}, {"x":6, "y":1, "type":"sail", "openned":false}, {"x":7, "y":2, "type":"oar"}, {"x":7, "y":0, "type":"oar"}], "life":1200, "shape":{"type":"rectangle", "width":3.0, "height":8.0, "orientation":0.0}}, "visibleEntities":[{"type":"reef", "position":{"x":5400.0, "y":1172.6384364820844, "orientation":0.0}, "shape":{"type":"circle", "radius":650.0}}, {"type":"stream", "position":{"x":3539.1304347826062, "y":2280.130293159613, "orientation":1.9896753472735356}, "shape":{"type":"rectangle", "width":350.0, "height":3000.0, "orientation":0.0}, "strength":35.0}], "wind":{"orientation":0.0, "strength":100.0}}
[0;31m[15/03/2022 20:14:52][0;93m  [INFO][0m   Actions: [{"sailorId":0,"type":"OAR"},{"sailorId":1,"type":"OAR"},{"sailorId":2,"type":"OAR"},{"sailorId":3,"type":"OAR"},{"sailorId":4,"type":"TURN","rotation":-1.5995620596953586E-6},{"sailorId":5,"type":"OAR"},{"sailorId":6,"type":"OAR"},{"sailorId":8,"type":"OAR"},{"sailorId":9,"type":"OAR"},{"sailorId":10,"type":"OAR"},{"sailorId":11,"type":"OAR"}]
[0;31m[15/03/2022 20:14:52][0;93m  [INFO][0m    === Tour 55 ===
[0;31m[15/03/2022 20:14:52][0;93m  [INFO][0m   Next round input: {"ship":{"type":"ship", "position":{"x":4340.316150506716, "y":840.8737784768254, "orientation":-4.261843510436792}, "name":"kihm", "deck":{"width":3, "length":8}, "entities":[{"x":1, "y":1, "type":"rudder"}, {"x":6, "y":0, "type":"oar"}, {"x":6, "y":2, "type":"oar"}, {"x":5, "y":2, "type":"oar"}, {"x":4, "y":2, "type":"oar"}, {"x":3, "y":2, "type":"oar"}, {"x":3, "y":0, "type":"oar"}, {"x":4, "y":0, "type":"oar"}, {"x":5, "y":0, "type":"oar"}, {"x":6, "y":1, "type":"sail", "openned":false}, {"x":7, "y":2, "type":"oar"}, {"x":7, "y":0, "type":"oar"}], "life":1200, "shape":{"type":"rectangle", "width":3.0, "height":8.0, "orientation":0.0}}, "visibleEntities":[{"type":"reef", "position":{"x":5400.0, "y":1172.6384364820844, "orientation":0.0}, "shape":{"type":"circle", "radius":650.0}}, {"type":"stream", "position":{"x":3539.1304347826062, "y":2280.130293159613, "orientation":1.9896753472735356}, "shape":{"type":"rectangle", "width":350.0, "height":3000.0, "orientation":0.0}, "strength":35.0}], "wind":{"orientation":0.0, "strength":100.0}}
[0;31m[15/03/2022 20:14:52][0;93m  [INFO][0m   Actions: [{"sailorId":0,"type":"OAR"},{"sailorId":1,"type":"OAR"},{"sailorId":2,"type":"OAR"},{"sailorId":3,"type":"OAR"},{"sailorId":4,"type":"TURN","rotation":-2.5074732512564424E-8},{"sailorId":5,"type":"OAR"},{"sailorId":6,"type":"OAR"},{"sailorId":8,"type":"OAR"},{"sailorId":9,"type":"OAR"},{"sailorId":10,"type":"OAR"},{"sailorId":11,"type":"OAR"}]
[0;31m[15/03/2022 20:14:52][0;93m  [INFO][0m    === Tour 56 ===
[0;31m[15/03/2022 20:14:52][0;93m  [INFO][0m   Next round input: {"ship":{"type":"ship", "position":{"x":4266.045724349098, "y":994.8439766251126, "orientation":-4.26184353551149}, "name":"kihm", "deck":{"width":3, "length":8}, "entities":[{"x":1, "y":1, "type":"rudder"}, {"x":6, "y":0, "type":"oar"}, {"x":6, "y":2, "type":"oar"}, {"x":5, "y":2, "type":"oar"}, {"x":4, "y":2, "type":"oar"}, {"x":3, "y":2, "type":"oar"}, {"x":3, "y":0, "type":"oar"}, {"x":4, "y":0, "type":"oar"}, {"x":5, "y":0, "type":"oar"}, {"x":6, "y":1, "type":"sail", "openned":false}, {"x":7, "y":2, "type":"oar"}, {"x":7, "y":0, "type":"oar"}], "life":1200, "shape":{"type":"rectangle", "width":3.0, "height":8.0, "orientation":0.0}}, "visibleEntities":[{"type":"reef", "position":{"x":5400.0, "y":1172.6384364820844, "orientation":0.0}, "shape":{"type":"circle", "radius":650.0}}, {"type":"stream", "position":{"x":3539.1304347826062, "y":2280.130293159613, "orientation":1.9896753472735356}, "shape":{"type":"rectangle", "width":350.0, "height":3000.0, "orientation":0.0}, "strength":35.0}], "wind":{"orientation":0.0, "strength":100.0}}
[0;31m[15/03/2022 20:14:52][0;93m  [INFO][0m   Actions: [{"sailorId":0,"type":"OAR"},{"sailorId":1,"type":"OAR"},{"sailorId":2,"type":"OAR"},{"sailorId":3,"type":"OAR"},{"sailorId":4,"type":"TURN","rotation":3.6618074076066875E-5},{"sailorId":5,"type":"OAR"},{"sailorId":6,"type":"OAR"},{"sailorId":8,"type":"OAR"},{"sailorId":9,"type":"OAR"},{"sailorId":10,"type":"OAR"},{"sailorId":11,"type":"OAR"}]
[0;31m[15/03/2022 20:14:52][0;93m  [INFO][0m    === Tour 57 ===
[0;31m[15/03/2022 20:14:52][0;93m  [INFO][0m   Next round input: {"ship":{"type":"ship", "position":{"x":4179.956908276465, "y":1175.3513688395856, "orientation":-4.261806917437406}, "name":"kihm", "deck":{"width":3, "length":8}, "entities":[{"x":1, "y":1, "type":"rudder"}, {"x":6, "y":0, "type":"oar"}, {"x":6, "y":2, "type":"oar"}, {"x":5, "y":2, "type":"oar"}, {"x":4, "y":2, "type":"oar"}, {"x":3, "y":2, "type":"oar"}, {"x":3, "y":0, "type":"oar"}, {"x":4, "y":0, "type":"oar"}, {"x":5, "y":0, "type":"oar"}, {"x":6, "y":1, "type":"sail", "openned":false}, {"x":7, "y":2, "type":"oar"}, {"x":7, "y":0, "type":"oar"}], "life":1200, "shape":{"type":"rectangle", "width":3.0, "height":8.0, "orientation":0.0}}, "visibleEntities":[{"type":"reef", "position":{"x":5400.0, "y":1172.6384364820844, "orientation":0.0}, "shape":{"type":"circle", "radius":650.0}}, {"type":"stream", "position":{"x":3539.1304347826062, "y":2280.130293159613, "orientation":1.9896753472735356}, "shape":{"type":"rectangle", "width":350.0, "height":3000.0, "orientation":0.0}, "strength":35.0}], "wind":{"orientation":0.0, "strength":100.0}}
[0;31m[15/03/2022 20:14:52][0;93m  [INFO][0m   Actions: [{"sailorId":0,"type":"OAR"},{"sailorId":1,"type":"OAR"},{"sailorId":2,"type":"OAR"},{"sailorId":3,"type":"OAR"},{"sailorId":4,"type":"TURN","rotation":2.249910114757725E-4},{"sailorId":5,"type":"OAR"},{"sailorId":6,"type":"OAR"},{"sailorId":8,"type":"OAR"},{"sailorId":9,"type":"OAR"},{"sailorId":10,"type":"OAR"},{"sailorId":11,"type":"OAR"}]
[0;31m[15/03/2022 20:14:52][0;93m  [INFO][0m    === Tour 58 ===
[0;31m[15/03/2022 20:14:52][0;93m  [INFO][0m   Next round input: {"ship":{"type":"ship", "position":{"x":4093.8488040250413, "y":1355.8494284693224, "orientation":-4.261581926425896}, "name":"kihm", "deck":{"width":3, "length":8}, "entities":[{"x":1, "y":1, "type":"rudder"}, {"x":6, "y":0, "type":"oar"}, {"x":6, "y":2, "type":"oar"}, {"x":5, "y":2, "type":"oar"}, {"x":4, "y":2, "type":"oar"}, {"x":3, "y":2, "type":"oar"}, {"x":3, "y":0, "type":"oar"}, {"x":4, "y":0, "type":"oar"}, {"x":5, "y":0, "type":"oar"}, {"x":6, "y":1, "type":"sail", "openned":false}, {"x":7, "y":2, "type":"oar"}, {"x":7, "y":0, "type":"oar"}], "life":1200, "shape":{"type":"rectangle", "width":3.0, "height":8.0, "orientation":0.0}}, "visibleEntities":[{"type":"reef", "position":{"x":5400.0, "y":1172.6384364820844, "orientation":0.0}, "shape":{"type":"circle", "radius":650.0}}, {"type":"stream", "position":{"x":3539.1304347826062, "y":2280.130293159613, "orientation":1.9896753472735356}, "shape":{"type":"rectangle", "width":350.0, "height":3000.0, "orientation":0.0}, "strength":35.0}], "wind":{"orientation":0.0, "strength":100.0}}
[0;31m[15/03/2022 20:14:52][0;93m  [INFO][0m   Actions: [{"sailorId":0,"type":"OAR"},{"sailorId":1,"type":"OAR"},{"sailorId":2,"type":"OAR"},{"sailorId":3,"type":"OAR"},{"sailorId":4,"type":"TURN","rotation":-1.4894494059447538E-4},{"sailorId":5,"type":"OAR"},{"sailorId":6,"type":"OAR"},{"sailorId":8,"type":"OAR"},{"sailorId":9,"type":"OAR"},{"sailorId":10,"type":"OAR"},{"sailorId":11,"type":"OAR"}]
[0;31m[15/03/2022 20:14:52][0;93m  [INFO][0m    === Tour 59 ===
[0;31m[15/03/2022 20:14:52][0;93m  [INFO][0m   Next round input: {"ship":{"type":"ship", "position":{"x":4007.734774721312, "y":1536.3446209747704, "orientation":-4.261730871366455}, "name":"kihm", "deck":{"width":3, "length":8}, "entities":[{"x":1, "y":1, "type":"rudder"}, {"x":6, "y":0, "type":"oar"}, {"x":6, "y":2, "type":"oar"}, {"x":5, "y":2, "type":"oar"}, {"x":4, "y":2, "type":"oar"}, {"x":3, "y":2, "type":"oar"}, {"x":3, "y":0, "type":"oar"}, {"x":4, "y":0, "type":"oar"}, {"x":5, "y":0, "type":"oar"}, {"x":6, "y":1, "type":"sail", "openned":false}, {"x":7, "y":2, "type":"oar"}, {"x":7, "y":0, "type":"oar"}], "life":1200, "shape":{"type":"rectangle", "width":3.0, "height":8.0, "orientation":0.0}}, "visibleEntities":[{"type":"reef", "position":{"x":5400.0, "y":1172.6384364820844, "orientation":0.0}, "shape":{"type":"circle", "radius":650.0}}, {"type":"stream", "position":{"x":3539.1304347826062, "y":2280.130293159613, "orientation":1.9896753472735356}, "shape":{"type":"rectangle", "width":350.0, "height":3000.0, "orientation":0.0}, "strength":35.0}], "wind":{"orientation":0.0, "strength":100.0}}
[0;31m[15/03/2022 20:14:52][0;93m  [INFO][0m   Actions: [{"sailorId":0,"type":"OAR"},{"sailorId":1,"type":"OAR"},{"sailorId":2,"type":"OAR"},{"sailorId":3,"type":"OAR"},{"sailorId":4,"type":"TURN","rotation":2.4197560475158753E-4},{"sailorId":5,"type":"OAR"},{"sailorId":6,"type":"OAR"},{"sailorId":8,"type":"OAR"},{"sailorId":9,"type":"OAR"},{"sailorId":10,"type":"OAR"},{"sailorId":11,"type":"OAR"}]
[0;31m[15/03/2022 20:14:52][0;93m  [INFO][0m    === Tour 60 ===
[0;31m[15/03/2022 20:14:52][0;93m  [INFO][0m   Next round input: {"ship":{"type":"ship", "position":{"x":3921.6141273892586, "y":1716.8366101606316, "orientation":-4.261488895761746}, "name":"kihm", "deck":{"width":3, "length":8}, "entities":[{"x":1, "y":1, "type":"rudder"}, {"x":6, "y":0, "type":"oar"}, {"x":6, "y":2, "type":"oar"}, {"x":5, "y":2, "type":"oar"}, {"x":4, "y":2, "type":"oar"}, {"x":3, "y":2, "type":"oar"}, {"x":3, "y":0, "type":"oar"}, {"x":4, "y":0, "type":"oar"}, {"x":5, "y":0, "type":"oar"}, {"x":6, "y":1, "type":"sail", "openned":false}, {"x":7, "y":2, "type":"oar"}, {"x":7, "y":0, "type":"oar"}], "life":1200, "shape":{"type":"rectangle", "width":3.0, "height":8.0, "orientation":0.0}}, "visibleEntities":[{"type":"reef", "position":{"x":5400.0, "y":1172.6384364820844, "orientation":0.0}, "shape":{"type":"circle", "radius":650.0}}, {"type":"stream", "position":{"x":3539.1304347826062, "y":2280.130293159613, "orientation":1.9896753472735356}, "shape":{"type":"rectangle", "width":350.0, "height":3000.0, "orientation":0.0}, "strength":35.0}], "wind":{"orientation":0.0, "strength":100.0}}
[0;31m[15/03/2022 20:14:52][0;93m  [INFO][0m   Actions: [{"sailorId":0,"type":"OAR"},{"sailorId":1,"type":"OAR"},{"sailorId":2,"type":"OAR"},{"sailorId":3,"type":"OAR"},{"sailorId":4,"type":"TURN","rotation":2.625597110519351E-4},{"sailorId":5,"type":"OAR"},{"sailorId":6,"type":"OAR"},{"sailorId":8,"type":"OAR"},{"sailorId":9,"type":"OAR"},{"sailorId":10,"type":"OAR"},{"sailorId":11,"type":"OAR"}]
[0;31m[15/03/2022 20:14:52][0;93m  [INFO][0m    === Tour 61 ===
[0;31m[15/03/2022 20:14:52][0;93m  [INFO][0m   Next round input: {"ship":{"type":"ship", "position":{"x":3835.4560313974134, "y":1897.3104677324673, "orientation":-4.261226336050706}, "name":"kihm", "deck":{"width":3, "length":8}, "entities":[{"x":1, "y":1, "type":"rudder"}, {"x":6, "y":0, "type":"oar"}, {"x":6, "y":2, "type":"oar"}, {"x":5, "y":2, "type":"oar"}, {"x":4, "y":2, "type":"oar"}, {"x":3, "y":2, "type":"oar"}, {"x":3, "y":0, "type":"oar"}, {"x":4, "y":0, "type":"oar"}, {"x":5, "y":0, "type":"oar"}, {"x":6, "y":1, "type":"sail", "openned":false}, {"x":7, "y":2, "type":"oar"}, {"x":7, "y":0, "type":"oar"}], "life":1200, "shape":{"type":"rectangle", "width":3.0, "height":8.0, "orientation":0.0}}, "visibleEntities":[{"type":"stream", "position":{"x":3539.1304347826062, "y":2280.130293159613, "orientation":1.9896753472735356}, "shape":{"type":"rectangle", "width":350.0, "height":3000.0, "orientation":0.0}, "strength":35.0}, {"type":"stream", "position":{"x":5504.347826086957, "y":2703.5830618892533, "orientation":0.0}, "shape":{"type":"rectangle", "width":500.0, "height":1750.0, "orientation":0.0}, "strength":50.0}], "wind":{"orientation":0.0, "strength":100.0}}
[0;31m[15/03/2022 20:14:53][0;93m  [INFO][0m   Actions: [{"sailorId":0,"type":"OAR"},{"sailorId":1,"type":"OAR"},{"sailorId":2,"type":"OAR"},{"sailorId":3,"type":"OAR"},{"sailorId":4,"type":"TURN","rotation":2.778584952611851E-4},{"sailorId":5,"type":"OAR"},{"sailorId":6,"type":"OAR"},{"sailorId":8,"type":"OAR"},{"sailorId":9,"type":"OAR"},{"sailorId":10,"type":"OAR"},{"sailorId":11,"type":"OAR"}]
[0;31m[15/03/2022 20:14:53][0;93m  [INFO][0m    === Tour 62 ===
[0;31m[15/03/2022 20:14:53][0;93m  [INFO][0m   Next round input: {"ship":{"type":"ship", "position":{"x":3749.257823425583, "y":2077.764891273056, "orientation":-4.260948477555472}, "name":"kihm", "deck":{"width":3, "length":8}, "entities":[{"x":1, "y":1, "type":"rudder"}, {"x":6, "y":0, "type":"oar"}, {"x":6, "y":2, "type":"oar"}, {"x":5, "y":2, "type":"oar"}, {"x":4, "y":2, "type":"oar"}, {"x":3, "y":2, "type":"oar"}, {"x":3, "y":0, "type":"oar"}, {"x":4, "y":0, "type":"oar"}, {"x":5, "y":0, "type":"oar"}, {"x":6, "y":1, "type":"sail", "openned":false}, {"x":7, "y":2, "type":"oar"}, {"x":7, "y":0, "type":"oar"}], "life":1200, "shape":{"type":"rectangle", "width":3.0, "height":8.0, "orientation":0.0}}, "visibleEntities":[{"type":"stream", "position":{"x":3539.1304347826062, "y":2280.130293159613, "orientation":1.9896753472735356}, "shape":{"type":"rectangle", "width":350.0, "height":3000.0, "orientation":0.0}, "strength":35.0}, {"type":"stream", "position":{"x":5504.347826086957, "y":2703.5830618892533, "orientation":0.0}, "shape":{"type":"rectangle", "width":500.0, "height":1750.0, "orientation":0.0}, "strength":50.0}], "wind":{"orientation":0.0, "strength":100.0}}
[0;31m[15/03/2022 20:14:53][0;93m  [INFO][0m   Actions: [{"sailorId":0,"type":"OAR"},{"sailorId":1,"type":"OAR"},{"sailorId":2,"type":"OAR"},{"sailorId":3,"type":"OAR"},{"sailorId":4,"type":"TURN","rotation":2.9473248219424875E-4},{"sailorId":5,"type":"OAR"},{"sailorId":6,"type":"OAR"},{"sailorId":8,"type":"OAR"},{"sailorId":9,"type":"OAR"},{"sailorId":10,"type":"OAR"},{"sailorId":11,"type":"OAR"}]
[0;31m[15/03/2022 20:14:53][0;93m  [INFO][0m    === Tour 63 ===
[0;31m[15/03/2022 20:14:53][0;93m  [INFO][0m   Next round input: {"ship":{"type":"ship", "position":{"x":3663.0171217086986, "y":2258.1987122263467, "orientation":-4.260653745073318}, "name":"kihm", "deck":{"width":3, "length":8}, "entities":[{"x":1, "y":1, "type":"rudder"}, {"x":6, "y":0, "type":"oar"}, {"x":6, "y":2, "type":"oar"}, {"x":5, "y":2, "type":"oar"}, {"x":4, "y":2, "type":"oar"}, {"x":3, "y":2, "type":"oar"}, {"x":3, "y":0, "type":"oar"}, {"x":4, "y":0, "type":"oar"}, {"x":5, "y":0, "type":"oar"}, {"x":6, "y":1, "type":"sail", "openned":false}, {"x":7, "y":2, "type":"oar"}, {"x":7, "y":0, "type":"oar"}], "life":1200, "shape":{"type":"rectangle", "width":3.0, "height":8.0, "orientation":0.0}}, "visibleEntities":[{"type":"stream", "position":{"x":3539.1304347826062, "y":2280.130293159613, "orientation":1.9896753472735356}, "shape":{"type":"rectangle", "width":350.0, "height":3000.0, "orientation":0.0}, "strength":35.0}, {"type":"stream", "position":{"x":5504.347826086957, "y":2703.5830618892533, "orientation":0.0}, "shape":{"type":"rectangle", "width":500.0, "height":1750.0, "orientation":0.0}, "strength":50.0}], "wind":{"orientation":0.0, "strength":100.0}}
[0;31m[15/03/2022 20:14:53][0;93m  [INFO][0m   Actions: [{"sailorId":0,"type":"OAR"},{"sailorId":1,"type":"OAR"},{"sailorId":2,"type":"OAR"},{"sailorId":3,"type":"OAR"},{"sailorId":4,"type":"TURN","rotation":3.136014068170212E-4},{"sailorId":5,"type":"OAR"},{"sailorId":6,"type":"OAR"},{"sailorId":8,"type":"OAR"},{"sailorId":9,"type":"OAR"},{"sailorId":10,"type":"OAR"},{"sailorId":11,"type":"OAR"}]
[0;31m[15/03/2022 20:14:53][0;93m  [INFO][0m    === Tour 64 ===
[0;31m[15/03/2022 20:14:53][0;93m  [INFO][0m   Next round input: {"ship":{"type":"ship", "position":{"x":3576.731280819701, "y":2438.6106315226994, "orientation":-4.26034014366652}, "name":"kihm", "deck":{"width":3, "length":8}, "entities":[{"x":1, "y":1, "type":"rudder"}, {"x":6, "y":0, "type":"oar"}, {"x":6, "y":2, "type":"oar"}, {"x":5, "y":2, "type":"oar"}, {"x":4, "y":2, "type":"oar"}, {"x":3, "y":2, "type":"oar"}, {"x":3, "y":0, "type":"oar"}, {"x":4, "y":0, "type":"oar"}, {"x":5, "y":0, "type":"oar"}, {"x":6, "y":1, "type":"sail", "openned":false}, {"x":7, "y":2, "type":"oar"}, {"x":7, "y":0, "type":"oar"}], "life":1200, "shape":{"type":"rectangle", "width":3.0, "height":8.0, "orientation":0.0}}, "visibleEntities":[{"type":"stream", "position":{"x":3539.1304347826062, "y":2280.130293159613, "orientation":1.9896753472735356}, "shape":{"type":"rectangle", "width":350.0, "height":3000.0, "orientation":0.0}, "strength":35.0}], "wind":{"orientation":0.0, "strength":100.0}}
[0;31m[15/03/2022 20:14:53][0;93m  [INFO][0m   Actions: [{"sailorId":0,"type":"OAR"},{"sailorId":1,"type":"OAR"},{"sailorId":2,"type":"OAR"},{"sailorId":3,"type":"OAR"},{"sailorId":4,"type":"TURN","rotation":3.3483245997256716E-4},{"sailorId":5,"type":"OAR"},{"sailorId":6,"type":"OAR"},{"sailorId":8,"type":"OAR"},{"sailorId":9,"type":"OAR"},{"sailorId":10,"type":"OAR"},{"sailorId":11,"type":"OAR"}]
[0;31m[15/03/2022 20:14:53][0;93m  [INFO][0m    === Tour 65 ===
[0;31m[15/03/2022 20:14:53][0;93m  [INFO][0m   Next round input: {"ship":{"type":"ship", "position":{"x":3490.3973334572224, "y":2618.9991907373155, "orientation":-4.260005311206539}, "name":"kihm", "deck":{"width":3, "length":8}, "entities":[{"x":1, "y":1, "type":"rudder"}, {"x":6, "y":0, "type":"oar"}, {"x":6, "y":2, "type":"oar"}, {"x":5, "y":2, "type":"oar"}, {"x":4, "y":2, "type":"oar"}, {"x":3, "y":2, "type":"oar"}, {"x":3, "y":0, "type":"oar"}, {"x":4, "y":0, "type":"oar"}, {"x":5, "y":0, "type":"oar"}, {"x":6, "y":1, "type":"sail", "openned":false}, {"x":7, "y":2, "type":"oar"}, {"x":7, "y":0, "type":"oar"}], "life":1200, "shape":{"type":"rectangle", "width":3.0, "height":8.0, "orientation":0.0}}, "visibleEntities":[{"type":"stream", "position":{"x":3539.1304347826062, "y":2280.130293159613, "orientation":1.9896753472735356}, "shape":{"type":"rectangle", "width":350.0, "height":3000.0, "orientation":0.0}, "strength":35.0}, {"type":"reef", "position":{"x":4921.739130434786, "y":4096.091205211728, "orientation":0.0}, "shape":{"type":"rectangle", "width":1000.0, "height":2500.0, "orientation":0.0}}], "wind":{"orientation":0.0, "strength":100.0}}
[0;31m[15/03/2022 20:14:53][0;93m  [INFO][0m   Actions: [{"sailorId":0,"type":"OAR"},{"sailorId":1,"type":"OAR"},{"sailorId":2,"type":"OAR"},{"sailorId":3,"type":"OAR"},{"sailorId":4,"type":"TURN","rotation":3.588831787340041E-4},{"sailorId":5,"type":"OAR"},{"sailorId":6,"type":"OAR"},{"sailorId":8,"type":"OAR"},{"sailorId":9,"type":"OAR"},{"sailorId":10,"type":"OAR"},{"sailorId":11,"type":"OAR"}]
[0;31m[15/03/2022 20:14:53][0;93m  [INFO][0m    === Tour 66 ===
[0;31m[15/03/2022 20:14:53][0;93m  [INFO][0m   Next round input: {"ship":{"type":"ship", "position":{"x":3404.0119296085704, "y":2799.3627417854, "orientation":-4.259646428027809}, "name":"kihm", "deck":{"width":3, "length":8}, "entities":[{"x":1, "y":1, "type":"rudder"}, {"x":6, "y":0, "type":"oar"}, {"x":6, "y":2, "type":"oar"}, {"x":5, "y":2, "type":"oar"}, {"x":4, "y":2, "type":"oar"}, {"x":3, "y":2, "type":"oar"}, {"x":3, "y":0, "type":"oar"}, {"x":4, "y":0, "type":"oar"}, {"x":5, "y":0, "type":"oar"}, {"x":6, "y":1, "type":"sail", "openned":false}, {"x":7, "y":2, "type":"oar"}, {"x":7, "y":0, "type":"oar"}], "life":1200, "shape":{"type":"rectangle", "width":3.0, "height":8.0, "orientation":0.0}}, "visibleEntities":[{"type":"stream", "position":{"x":3539.1304347826062, "y":2280.130293159613, "orientation":1.9896753472735356}, "shape":{"type":"rectangle", "width":350.0, "height":3000.0, "orientation":0.0}, "strength":35.0}, {"type":"reef", "position":{"x":4921.739130434786, "y":4096.091205211728, "orientation":0.0}, "shape":{"type":"rectangle", "width":1000.0, "height":2500.0, "orientation":0.0}}], "wind":{"orientation":0.0, "strength":100.0}}
[0;31m[15/03/2022 20:14:53][0;93m  [INFO][0m   Actions: [{"sailorId":0,"type":"OAR"},{"sailorId":1,"type":"OAR"},{"sailorId":2,"type":"OAR"},{"sailorId":3,"type":"OAR"},{"sailorId":4,"type":"TURN","rotation":3.8633496300999326E-4},{"sailorId":5,"type":"OAR"},{"sailorId":6,"type":"OAR"},{"sailorId":8,"type":"OAR"},{"sailorId":9,"type":"OAR"},{"sailorId":10,"type":"OAR"},{"sailorId":11,"type":"OAR"}]
[0;31m[15/03/2022 20:14:53][0;93m  [INFO][0m    === Tour 67 ===
[0;31m[15/03/2022 20:14:53][0;93m  [INFO][0m   Next round input: {"ship":{"type":"ship", "position":{"x":3317.5712599365315, "y":2979.699408714036, "orientation":-4.259260093064766}, "name":"kihm", "deck":{"width":3, "length":8}, "entities":[{"x":1, "y":1, "type":"rudder"}, {"x":6, "y":0, "type":"oar"}, {"x":6, "y":2, "type":"oar"}, {"x":5, "y":2, "type":"oar"}, {"x":4, "y":2, "type":"oar"}, {"x":3, "y":2, "type":"oar"}, {"x":3, "y":0, "type":"oar"}, {"x":4, "y":0, "type":"oar"}, {"x":5, "y":0, "type":"oar"}, {"x":6, "y":1, "type":"sail", "openned":false}, {"x":7, "y":2, "type":"oar"}, {"x":7, "y":0, "type":"oar"}], "life":1200, "shape":{"type":"rectangle", "width":3.0, "height":8.0, "orientation":0.0}}, "visibleEntities":[{"type":"stream", "position":{"x":3539.1304347826062, "y":2280.130293159613, "orientation":1.9896753472735356}, "shape":{"type":"rectangle", "width":350.0, "height":3000.0, "orientation":0.0}, "strength":35.0}, {"type":"reef", "position":{"x":4921.739130434786, "y":4096.091205211728, "orientation":0.0}, "shape":{"type":"rectangle", "width":1000.0, "height":2500.0, "orientation":0.0}}], "wind":{"orientation":0.0, "strength":100.0}}
[0;31m[15/03/2022 20:14:53][0;93m  [INFO][0m   Actions: [{"sailorId":0,"type":"OAR"},{"sailorId":1,"type":"OAR"},{"sailorId":2,"type":"OAR"},{"sailorId":3,"type":"OAR"},{"sailorId":4,"type":"TURN","rotation":4.179375517097128E-4},{"sailorId":5,"type":"OAR"},{"sailorId":6,"type":"OAR"},{"sailorId":8,"type":"OAR"},{"sailorId":9,"type":"OAR"},{"sailorId":10,"type":"OAR"},{"sailorId":11,"type":"OAR"}]
[0;31m[15/03/2022 20:14:53][0;93m  [INFO][0m    === Tour 68 ===
[0;31m[15/03/2022 20:14:53][0;93m  [INFO][0m   Next round input: {"ship":{"type":"ship", "position":{"x":3231.070957648489, "y":3160.007038705901, "orientation":-4.258842155513088}, "name":"kihm", "deck":{"width":3, "length":8}, "entities":[{"x":1, "y":1, "type":"rudder"}, {"x":6, "y":0, "type":"oar"}, {"x":6, "y":2, "type":"oar"}, {"x":5, "y":2, "type":"oar"}, {"x":4, "y":2, "type":"oar"}, {"x":3, "y":2, "type":"oar"}, {"x":3, "y":0, "type":"oar"}, {"x":4, "y":0, "type":"oar"}, {"x":5, "y":0, "type":"oar"}, {"x":6, "y":1, "type":"sail", "openned":false}, {"x":7, "y":2, "type":"oar"}, {"x":7, "y":0, "type":"oar"}], "life":1200, "shape":{"type":"rectangle", "width":3.0, "height":8.0, "orientation":0.0}}, "visibleEntities":[{"type":"stream", "position":{"x":3539.1304347826062, "y":2280.130293159613, "orientation":1.9896753472735356}, "shape":{"type":"rectangle", "width":350.0, "height":3000.0, "orientation":0.0}, "strength":35.0}, {"type":"reef", "position":{"x":4921.739130434786, "y":4096.091205211728, "orientation":0.0}, "shape":{"type":"rectangle", "width":1000.0, "height":2500.0, "orientation":0.0}}], "wind":{"orientation":0.0, "strength":100.0}}
[0;31m[15/03/2022 20:14:53][0;93m  [INFO][0m   Actions: [{"sailorId":0,"type":"OAR"},{"sailorId":1,"type":"OAR"},{"sailorId":2,"type":"OAR"},{"sailorId":3,"type":"OAR"},{"sailorId":4,"type":"TURN","rotation":4.546738410322604E-4},{"sailorId":5,"type":"OAR"},{"sailorId":6,"type":"OAR"},{"sailorId":8,"type":"OAR"},{"sailorId":9,"type":"OAR"},{"sailorId":10,"type":"OAR"},{"sailorId":11,"type":"OAR"}]
[0;31m[15/03/2022 20:14:53][0;93m  [INFO][0m    === Tour 69 ===
[0;31m[15/03/2022 20:14:53][0;93m  [INFO][0m   Next round input: {"ship":{"type":"ship", "position":{"x":3144.5059708096423, "y":3340.283138246031, "orientation":-4.258387481672022}, "name":"kihm", "deck":{"width":3, "length":8}, "entities":[{"x":1, "y":1, "type":"rudder"}, {"x":6, "y":0, "type":"oar"}, {"x":6, "y":2, "type":"oar"}, {"x":5, "y":2, "type":"oar"}, {"x":4, "y":2, "type":"oar"}, {"x":3, "y":2, "type":"oar"}, {"x":3, "y":0, "type":"oar"}, {"x":4, "y":0, "type":"oar"}, {"x":5, "y":0, "type":"oar"}, {"x":6, "y":1, "type":"sail", "openned":false}, {"x":7, "y":2, "type":"oar"}, {"x":7, "y":0, "type":"oar"}], "life":1200, "shape":{"type":"rectangle", "width":3.0, "height":8.0, "orientation":0.0}}, "visibleEntities":[{"type":"stream", "position":{"x":3539.1304347826062, "y":2280.130293159613, "orientation":1.9896753472735356}, "shape":{"type":"rectangle", "width":350.0, "height":3000.0, "orientation":0.0}, "strength":35.0}, {"type":"reef", "position":{"x":4921.739130434786, "y":4096.091205211728, "orientation":0.0}, "shape":{"type":"rectangle", "width":1000.0, "height":2500.0, "orientation":0.0}}], "wind":{"orientation":0.0, "strength":100.0}}
[0;31m[15/03/2022 20:14:53][0;93m  [INFO][0m   Actions: [{"sailorId":0,"type":"OAR"},{"sailorId":1,"type":"OAR"},{"sailorId":2,"type":"OAR"},{"sailorId":3,"type":"OAR"},{"sailorId":4,"type":"TURN","rotation":4.978568193472199E-4},{"sailorId":5,"type":"OAR"},{"sailorId":6,"type":"OAR"},{"sailorId":8,"type":"OAR"},{"sailorId":9,"type":"OAR"},{"sailorId":10,"type":"OAR"},{"sailorId":11,"type":"OAR"}]
[0;31m[15/03/2022 20:14:53][0;93m  [INFO][0m    === Tour 70 ===
[0;31m[15/03/2022 20:14:53][0;93m  [INFO][0m   Next round input: {"ship":{"type":"ship", "position":{"x":3057.870393208819, "y":3520.524788453615, "orientation":-4.257889624852696}, "name":"kihm", "deck":{"width":3, "length":8}, "entities":[{"x":1, "y":1, "type":"rudder"}, {"x":6, "y":0, "type":"oar"}, {"x":6, "y":2, "type":"oar"}, {"x":5, "y":2, "type":"oar"}, {"x":4, "y":2, "type":"oar"}, {"x":3, "y":2, "type":"oar"}, {"x":3, "y":0, "type":"oar"}, {"x":4, "y":0, "type":"oar"}, {"x":5, "y":0, "type":"oar"}, {"x":6, "y":1, "type":"sail", "openned":false}, {"x":7, "y":2, "type":"oar"}, {"x":7, "y":0, "type":"oar"}], "life":1200, "shape":{"type":"rectangle", "width":3.0, "height":8.0, "orientation":0.0}}, "visibleEntities":[{"type":"stream", "position":{"x":3539.1304347826062, "y":2280.130293159613, "orientation":1.9896753472735356}, "shape":{"type":"rectangle", "width":350.0, "height":3000.0, "orientation":0.0}, "strength":35.0}, {"type":"reef", "position":{"x":4921.739130434786, "y":4096.091205211728, "orientation":0.0}, "shape":{"type":"rectangle", "width":1000.0, "height":2500.0, "orientation":0.0}}], "wind":{"orientation":0.0, "strength":100.0}}
[0;31m[15/03/2022 20:14:53][0;93m  [INFO][0m   Actions: [{"sailorId":0,"type":"OAR"},{"sailorId":1,"type":"OAR"},{"sailorId":2,"type":"OAR"},{"sailorId":3,"type":"OAR"},{"sailorId":4,"type":"TURN","rotation":5.492786921088566E-4},{"sailorId":5,"type":"OAR"},{"sailorId":6,"type":"OAR"},{"sailorId":8,"type":"OAR"},{"sailorId":9,"type":"OAR"},{"sailorId":10,"type":"OAR"},{"sailorId":11,"type":"OAR"}]
[0;31m[15/03/2022 20:14:53][0;93m  [INFO][0m    === Tour 71 ===
[0;31m[15/03/2022 20:14:53][0;93m  [INFO][0m   Next round input: {"ship":{"type":"ship", "position":{"x":2972.8655295963026, "y":3696.8916395228957, "orientation":-4.257340346160566}, "name":"kihm", "deck":{"width":3, "length":8}, "entities":[{"x":1, "y":1, "type":"rudder"}, {"x":6, "y":0, "type":"oar"}, {"x":6, "y":2, "type":"oar"}, {"x":5, "y":2, "type":"oar"}, {"x":4, "y":2, "type":"oar"}, {"x":3, "y":2, "type":"oar"}, {"x":3, "y":0, "type":"oar"}, {"x":4, "y":0, "type":"oar"}, {"x":5, "y":0, "type":"oar"}, {"x":6, "y":1, "type":"sail", "openned":false}, {"x":7, "y":2, "type":"oar"}, {"x":7, "y":0, "type":"oar"}], "life":1200, "shape":{"type":"rectangle", "width":3.0, "height":8.0, "orientation":0.0}}, "visibleEntities":[{"type":"stream", "position":{"x":3539.1304347826062, "y":2280.130293159613, "orientation":1.9896753472735356}, "shape":{"type":"rectangle", "width":350.0, "height":3000.0, "orientation":0.0}, "strength":35.0}, {"type":"reef", "position":{"x":4921.739130434786, "y":4096.091205211728, "orientation":0.0}, "shape":{"type":"rectangle", "width":1000.0, "height":2500.0, "orientation":0.0}}], "wind":{"orientation":0.0, "strength":100.0}}
[0;31m[15/03/2022 20:14:53][0;93m  [INFO][0m   Actions: [{"sailorId":0,"type":"OAR"},{"sailorId":1,"type":"OAR"},{"sailorId":2,"type":"OAR"},{"sailorId":3,"type":"OAR"},{"sailorId":4,"type":"TURN","rotation":5.395789545357133E-4},{"sailorId":5,"type":"OAR"},{"sailorId":6,"type":"OAR"},{"sailorId":8,"type":"OAR"},{"sailorId":9,"type":"OAR"},{"sailorId":10,"type":"OAR"},{"sailorId":11,"type":"OAR"}]
[0;31m[15/03/2022 20:14:53][0;93m  [INFO][0m    === Tour 72 ===
[0;31m[15/03/2022 20:14:53][0;93m  [INFO][0m   Next round input: {"ship":{"type":"ship", "position":{"x":2900.3074576223316, "y":3845.0818063051424, "orientation":-4.256800767206071}, "name":"kihm", "deck":{"width":3, "length":8}, "entities":[{"x":1, "y":1, "type":"rudder"}, {"x":6, "y":0, "type":"oar"}, {"x":6, "y":2, "type":"oar"}, {"x":5, "y":2, "type":"oar"}, {"x":4, "y":2, "type":"oar"}, {"x":3, "y":2, "type":"oar"}, {"x":3, "y":0, "type":"oar"}, {"x":4, "y":0, "type":"oar"}, {"x":5, "y":0, "type":"oar"}, {"x":6, "y":1, "type":"sail", "openned":false}, {"x":7, "y":2, "type":"oar"}, {"x":7, "y":0, "type":"oar"}], "life":1200, "shape":{"type":"rectangle", "width":3.0, "height":8.0, "orientation":0.0}}, "visibleEntities":[{"type":"stream", "position":{"x":3539.1304347826062, "y":2280.130293159613, "orientation":1.9896753472735356}, "shape":{"type":"rectangle", "width":350.0, "height":3000.0, "orientation":0.0}, "strength":35.0}, {"type":"reef", "position":{"x":4921.739130434786, "y":4096.091205211728, "orientation":0.0}, "shape":{"type":"rectangle", "width":1000.0, "height":2500.0, "orientation":0.0}}], "wind":{"orientation":0.0, "strength":100.0}}
[0;31m[15/03/2022 20:14:53][0;93m  [INFO][0m   Actions: [{"sailorId":0,"type":"OAR"},{"sailorId":1,"type":"OAR"},{"sailorId":2,"type":"OAR"},{"sailorId":3,"type":"OAR"},{"sailorId":4,"type":"TURN","rotation":2.2661610803886845E-5},{"sailorId":5,"type":"OAR"},{"sailorId":6,"type":"OAR"},{"sailorId":8,"type":"OAR"},{"sailorId":9,"type":"OAR"},{"sailorId":10,"type":"OAR"},{"sailorId":11,"type":"OAR"}]
[0;31m[15/03/2022 20:14:53][0;93m  [INFO][0m    === Tour 73 ===
[0;31m[15/03/2022 20:14:53][0;93m  [INFO][0m   Next round input: {"ship":{"type":"ship", "position":{"x":2827.7073454179836, "y":3993.2513838396367, "orientation":-4.256778105595261}, "name":"kihm", "deck":{"width":3, "length":8}, "entities":[{"x":1, "y":1, "type":"rudder"}, {"x":6, "y":0, "type":"oar"}, {"x":6, "y":2, "type":"oar"}, {"x":5, "y":2, "type":"oar"}, {"x":4, "y":2, "type":"oar"}, {"x":3, "y":2, "type":"oar"}, {"x":3, "y":0, "type":"oar"}, {"x":4, "y":0, "type":"oar"}, {"x":5, "y":0, "type":"oar"}, {"x":6, "y":1, "type":"sail", "openned":false}, {"x":7, "y":2, "type":"oar"}, {"x":7, "y":0, "type":"oar"}], "life":1200, "shape":{"type":"rectangle", "width":3.0, "height":8.0, "orientation":0.0}}, "visibleEntities":[{"type":"stream", "position":{"x":3539.1304347826062, "y":2280.130293159613, "orientation":1.9896753472735356}, "shape":{"type":"rectangle", "width":350.0, "height":3000.0, "orientation":0.0}, "strength":35.0}, {"type":"reef", "position":{"x":4921.739130434786, "y":4096.091205211728, "orientation":0.0}, "shape":{"type":"rectangle", "width":1000.0, "height":2500.0, "orientation":0.0}}], "wind":{"orientation":0.0, "strength":100.0}}
[0;31m[15/03/2022 20:14:53][0;93m  [INFO][0m   Actions: [{"sailorId":0,"type":"OAR"},{"sailorId":1,"type":"OAR"},{"sailorId":2,"type":"OAR"},{"sailorId":3,"type":"OAR"},{"sailorId":4,"type":"TURN","rotation":1.0380917014884972E-6},{"sailorId":5,"type":"OAR"},{"sailorId":6,"type":"OAR"},{"sailorId":8,"type":"OAR"},{"sailorId":9,"type":"OAR"},{"sailorId":10,"type":"OAR"},{"sailorId":11,"type":"OAR"}]
[0;31m[15/03/2022 20:14:53][0;93m  [INFO][0m    === Tour 74 ===
[0;31m[15/03/2022 20:14:53][0;93m  [INFO][0m   Next round input: {"ship":{"type":"ship", "position":{"x":2755.105461410081, "y":4141.4200932168205, "orientation":-4.256777067503515}, "name":"kihm", "deck":{"width":3, "length":8}, "entities":[{"x":1, "y":1, "type":"rudder"}, {"x":6, "y":0, "type":"oar"}, {"x":6, "y":2, "type":"oar"}, {"x":5, "y":2, "type":"oar"}, {"x":4, "y":2, "type":"oar"}, {"x":3, "y":2, "type":"oar"}, {"x":3, "y":0, "type":"oar"}, {"x":4, "y":0, "type":"oar"}, {"x":5, "y":0, "type":"oar"}, {"x":6, "y":1, "type":"sail", "openned":false}, {"x":7, "y":2, "type":"oar"}, {"x":7, "y":0, "type":"oar"}], "life":1200, "shape":{"type":"rectangle", "width":3.0, "height":8.0, "orientation":0.0}}, "visibleEntities":[{"type":"stream", "position":{"x":3539.1304347826062, "y":2280.130293159613, "orientation":1.9896753472735356}, "shape":{"type":"rectangle", "width":350.0, "height":3000.0, "orientation":0.0}, "strength":35.0}, {"type":"reef", "position":{"x":4921.739130434786, "y":4096.091205211728, "orientation":0.0}, "shape":{"type":"rectangle", "width":1000.0, "height":2500.0, "orientation":0.0}}], "wind":{"orientation":0.0, "strength":100.0}}
[0;31m[15/03/2022 20:14:53][0;93m  [INFO][0m   Actions: [{"sailorId":0,"type":"OAR"},{"sailorId":1,"type":"OAR"},{"sailorId":2,"type":"OAR"},{"sailorId":3,"type":"OAR"},{"sailorId":4,"type":"TURN","rotation":5.229711153020844E-8},{"sailorId":5,"type":"OAR"},{"sailorId":6,"type":"OAR"},{"sailorId":8,"type":"OAR"},{"sailorId":9,"type":"OAR"},{"sailorId":10,"type":"OAR"},{"sailorId":11,"type":"OAR"}]
[0;31m[15/03/2022 20:14:53][0;93m  [INFO][0m    === Tour 75 ===
[0;31m[15/03/2022 20:14:53][0;93m  [INFO][0m   Next round input: {"ship":{"type":"ship", "position":{"x":2682.5034958911124, "y":4289.588762653997, "orientation":-4.256777015206415}, "name":"kihm", "deck":{"width":3, "length":8}, "entities":[{"x":1, "y":1, "type":"rudder"}, {"x":6, "y":0, "type":"oar"}, {"x":6, "y":2, "type":"oar"}, {"x":5, "y":2, "type":"oar"}, {"x":4, "y":2, "type":"oar"}, {"x":3, "y":2, "type":"oar"}, {"x":3, "y":0, "type":"oar"}, {"x":4, "y":0, "type":"oar"}, {"x":5, "y":0, "type":"oar"}, {"x":6, "y":1, "type":"sail", "openned":false}, {"x":7, "y":2, "type":"oar"}, {"x":7, "y":0, "type":"oar"}], "life":1200, "shape":{"type":"rectangle", "width":3.0, "height":8.0, "orientation":0.0}}, "visibleEntities":[{"type":"stream", "position":{"x":3539.1304347826062, "y":2280.130293159613, "orientation":1.9896753472735356}, "shape":{"type":"rectangle", "width":350.0, "height":3000.0, "orientation":0.0}, "strength":35.0}, {"type":"reef", "position":{"x":4921.739130434786, "y":4096.091205211728, "orientation":0.0}, "shape":{"type":"rectangle", "width":1000.0, "height":2500.0, "orientation":0.0}}], "wind":{"orientation":0.0, "strength":100.0}}
[0;31m[15/03/2022 20:14:53][0;93m  [INFO][0m   Actions: [{"sailorId":0,"type":"OAR"},{"sailorId":1,"type":"OAR"},{"sailorId":2,"type":"OAR"},{"sailorId":3,"type":"OAR"},{"sailorId":4,"type":"TURN","rotation":2.926597630903416E-9},{"sailorId":5,"type":"OAR"},{"sailorId":6,"type":"OAR"},{"sailorId":8,"type":"OAR"},{"sailorId":9,"type":"OAR"},{"sailorId":10,"type":"OAR"},{"sailorId":11,"type":"OAR"}]
[0;31m[15/03/2022 20:14:54][0;93m  [INFO][0m    === Tour 76 ===
[0;31m[15/03/2022 20:14:54][0;93m  [INFO][0m   Next round input: {"ship":{"type":"ship", "position":{"x":2609.901526244355, "y":4437.757430068573, "orientation":-4.256777012279779}, "name":"kihm", "deck":{"width":3, "length":8}, "entities":[{"x":1, "y":1, "type":"rudder"}, {"x":6, "y":0, "type":"oar"}, {"x":6, "y":2, "type":"oar"}, {"x":5, "y":2, "type":"oar"}, {"x":4, "y":2, "type":"oar"}, {"x":3, "y":2, "type":"oar"}, {"x":3, "y":0, "type":"oar"}, {"x":4, "y":0, "type":"oar"}, {"x":5, "y":0, "type":"oar"}, {"x":6, "y":1, "type":"sail", "openned":false}, {"x":7, "y":2, "type":"oar"}, {"x":7, "y":0, "type":"oar"}], "life":1200, "shape":{"type":"rectangle", "width":3.0, "height":8.0, "orientation":0.0}}, "visibleEntities":[{"type":"stream", "position":{"x":3539.1304347826062, "y":2280.130293159613, "orientation":1.9896753472735356}, "shape":{"type":"rectangle", "width":350.0, "height":3000.0, "orientation":0.0}, "strength":35.0}], "wind":{"orientation":0.0, "strength":100.0}}
[0;31m[15/03/2022 20:14:54][0;93m  [INFO][0m   Actions: [{"sailorId":0,"type":"OAR"},{"sailorId":1,"type":"OAR"},{"sailorId":2,"type":"OAR"},{"sailorId":3,"type":"OAR"},{"sailorId":4,"type":"TURN","rotation":1.8414425539958756E-10},{"sailorId":5,"type":"OAR"},{"sailorId":6,"type":"OAR"},{"sailorId":8,"type":"OAR"},{"sailorId":9,"type":"OAR"},{"sailorId":10,"type":"OAR"},{"sailorId":11,"type":"OAR"}]
[0;31m[15/03/2022 20:14:54][0;93m  [INFO][0m    === Tour 77 ===
[0;31m[15/03/2022 20:14:54][0;93m  [INFO][0m   Next round input: {"ship":{"type":"ship", "position":{"x":2537.2995563650984, "y":4585.92609736923, "orientation":-4.256777012095659}, "name":"kihm", "deck":{"width":3, "length":8}, "entities":[{"x":1, "y":1, "type":"rudder"}, {"x":6, "y":0, "type":"oar"}, {"x":6, "y":2, "type":"oar"}, {"x":5, "y":2, "type":"oar"}, {"x":4, "y":2, "type":"oar"}, {"x":3, "y":2, "type":"oar"}, {"x":3, "y":0, "type":"oar"}, {"x":4, "y":0, "type":"oar"}, {"x":5, "y":0, "type":"oar"}, {"x":6, "y":1, "type":"sail", "openned":false}, {"x":7, "y":2, "type":"oar"}, {"x":7, "y":0, "type":"oar"}], "life":1200, "shape":{"type":"rectangle", "width":3.0, "height":8.0, "orientation":0.0}}, "visibleEntities":[], "wind":{"orientation":0.0, "strength":100.0}}
[0;31m[15/03/2022 20:14:54][0;93m  [INFO][0m   Actions: [{"sailorId":0,"type":"OAR"},{"sailorId":1,"type":"OAR"},{"sailorId":2,"type":"OAR"},{"sailorId":3,"type":"OAR"},{"sailorId":4,"type":"TURN","rotation":1.325872744928347E-11},{"sailorId":5,"type":"OAR"},{"sailorId":6,"type":"OAR"},{"sailorId":8,"type":"OAR"},{"sailorId":9,"type":"OAR"},{"sailorId":10,"type":"OAR"},{"sailorId":11,"type":"OAR"}]
[0;31m[15/03/2022 20:14:54][0;93m  [INFO][0m    === Tour 78 ===
[0;31m[15/03/2022 20:14:54][0;93m  [INFO][0m   Next round input: {"ship":{"type":"ship", "position":{"x":2464.697586471103, "y":4734.09476466266, "orientation":-4.256777012082425}, "name":"kihm", "deck":{"width":3, "length":8}, "entities":[{"x":1, "y":1, "type":"rudder"}, {"x":6, "y":0, "type":"oar"}, {"x":6, "y":2, "type":"oar"}, {"x":5, "y":2, "type":"oar"}, {"x":4, "y":2, "type":"oar"}, {"x":3, "y":2, "type":"oar"}, {"x":3, "y":0, "type":"oar"}, {"x":4, "y":0, "type":"oar"}, {"x":5, "y":0, "type":"oar"}, {"x":6, "y":1, "type":"sail", "openned":false}, {"x":7, "y":2, "type":"oar"}, {"x":7, "y":0, "type":"oar"}], "life":1200, "shape":{"type":"rectangle", "width":3.0, "height":8.0, "orientation":0.0}}, "visibleEntities":[], "wind":{"orientation":0.0, "strength":100.0}}
[0;31m[15/03/2022 20:14:54][0;93m  [INFO][0m   Actions: [{"sailorId":0,"type":"OAR"},{"sailorId":1,"type":"OAR"},{"sailorId":2,"type":"OAR"},{"sailorId":3,"type":"OAR"},{"sailorId":4,"type":"TURN","rotation":1.1377565556358604E-12},{"sailorId":5,"type":"OAR"},{"sailorId":6,"type":"OAR"},{"sailorId":8,"type":"OAR"},{"sailorId":9,"type":"OAR"},{"sailorId":10,"type":"OAR"},{"sailorId":11,"type":"OAR"}]
[0;31m[15/03/2022 20:14:54][0;93m  [INFO][0m    === Tour 79 ===
[0;31m[15/03/2022 20:14:54][0;93m  [INFO][0m   Next round input: {"ship":{"type":"ship", "position":{"x":2392.0956165760326, "y":4882.263431955562, "orientation":-4.256777012081271}, "name":"kihm", "deck":{"width":3, "length":8}, "entities":[{"x":1, "y":1, "type":"rudder"}, {"x":6, "y":0, "type":"oar"}, {"x":6, "y":2, "type":"oar"}, {"x":5, "y":2, "type":"oar"}, {"x":4, "y":2, "type":"oar"}, {"x":3, "y":2, "type":"oar"}, {"x":3, "y":0, "type":"oar"}, {"x":4, "y":0, "type":"oar"}, {"x":5, "y":0, "type":"oar"}, {"x":6, "y":1, "type":"sail", "openned":false}, {"x":7, "y":2, "type":"oar"}, {"x":7, "y":0, "type":"oar"}], "life":1200, "shape":{"type":"rectangle", "width":3.0, "height":8.0, "orientation":0.0}}, "visibleEntities":[], "wind":{"orientation":0.0, "strength":100.0}}
[0;31m[15/03/2022 20:14:54][0;93m  [INFO][0m   Actions: [{"sailorId":0,"type":"OAR"},{"sailorId":1,"type":"OAR"},{"sailorId":2,"type":"OAR"},{"sailorId":3,"type":"OAR"},{"sailorId":4,"type":"TURN","rotation":9.414691248821327E-14},{"sailorId":5,"type":"OAR"},{"sailorId":6,"type":"OAR"},{"sailorId":8,"type":"OAR"},{"sailorId":9,"type":"OAR"},{"sailorId":10,"type":"OAR"},{"sailorId":11,"type":"OAR"}]
[0;31m[15/03/2022 20:14:54][0;93m  [INFO][0m    === Tour 80 ===
[0;31m[15/03/2022 20:14:54][0;93m  [INFO][0m   Next round input: {"ship":{"type":"ship", "position":{"x":2319.49364668087, "y":5030.432099248446, "orientation":-4.256777012081182}, "name":"kihm", "deck":{"width":3, "length":8}, "entities":[{"x":1, "y":1, "type":"rudder"}, {"x":6, "y":0, "type":"oar"}, {"x":6, "y":2, "type":"oar"}, {"x":5, "y":2, "type":"oar"}, {"x":4, "y":2, "type":"oar"}, {"x":3, "y":2, "type":"oar"}, {"x":3, "y":0, "type":"oar"}, {"x":4, "y":0, "type":"oar"}, {"x":5, "y":0, "type":"oar"}, {"x":6, "y":1, "type":"sail", "openned":false}, {"x":7, "y":2, "type":"oar"}, {"x":7, "y":0, "type":"oar"}], "life":1200, "shape":{"type":"rectangle", "width":3.0, "height":8.0, "orientation":0.0}}, "visibleEntities":[], "wind":{"orientation":0.0, "strength":100.0}}
[0;31m[15/03/2022 20:14:54][0;93m  [INFO][0m   Actions: [{"sailorId":0,"type":"OAR"},{"sailorId":1,"type":"OAR"},{"sailorId":2,"type":"OAR"},{"sailorId":3,"type":"OAR"},{"sailorId":4,"type":"TURN","rotation":3.552713678800501E-14},{"sailorId":5,"type":"OAR"},{"sailorId":6,"type":"OAR"},{"sailorId":8,"type":"OAR"},{"sailorId":9,"type":"OAR"},{"sailorId":10,"type":"OAR"},{"sailorId":11,"type":"OAR"}]
[0;31m[15/03/2022 20:14:54][0;93m  [INFO][0m    === Tour 81 ===
[0;31m[15/03/2022 20:14:54][0;93m  [INFO][0m   Next round input: {"ship":{"type":"ship", "position":{"x":2246.891676785684, "y":5178.600766541331, "orientation":-4.256777012081182}, "name":"kihm", "deck":{"width":3, "length":8}, "entities":[{"x":1, "y":1, "type":"rudder"}, {"x":6, "y":0, "type":"oar"}, {"x":6, "y":2, "type":"oar"}, {"x":5, "y":2, "type":"oar"}, {"x":4, "y":2, "type":"oar"}, {"x":3, "y":2, "type":"oar"}, {"x":3, "y":0, "type":"oar"}, {"x":4, "y":0, "type":"oar"}, {"x":5, "y":0, "type":"oar"}, {"x":6, "y":1, "type":"sail", "openned":false}, {"x":7, "y":2, "type":"oar"}, {"x":7, "y":0, "type":"oar"}], "life":1200, "shape":{"type":"rectangle", "width":3.0, "height":8.0, "orientation":0.0}}, "visibleEntities":[], "wind":{"orientation":0.0, "strength":100.0}}
[0;31m[15/03/2022 20:14:54][0;93m  [INFO][0m   Actions: [{"sailorId":0,"type":"OAR"},{"sailorId":1,"type":"OAR"},{"sailorId":2,"type":"OAR"},{"sailorId":3,"type":"OAR"},{"sailorId":4,"type":"TURN","rotation":4.263256414560601E-14},{"sailorId":5,"type":"OAR"},{"sailorId":6,"type":"OAR"},{"sailorId":8,"type":"OAR"},{"sailorId":9,"type":"OAR"},{"sailorId":10,"type":"OAR"},{"sailorId":11,"type":"OAR"}]
[0;31m[15/03/2022 20:14:54][0;93m  [INFO][0m    === Tour 82 ===
[0;31m[15/03/2022 20:14:54][0;93m  [INFO][0m   Next round input: {"ship":{"type":"ship", "position":{"x":2174.289706890498, "y":5326.769433834215, "orientation":-4.256777012081182}, "name":"kihm", "deck":{"width":3, "length":8}, "entities":[{"x":1, "y":1, "type":"rudder"}, {"x":6, "y":0, "type":"oar"}, {"x":6, "y":2, "type":"oar"}, {"x":5, "y":2, "type":"oar"}, {"x":4, "y":2, "type":"oar"}, {"x":3, "y":2, "type":"oar"}, {"x":3, "y":0, "type":"oar"}, {"x":4, "y":0, "type":"oar"}, {"x":5, "y":0, "type":"oar"}, {"x":6, "y":1, "type":"sail", "openned":false}, {"x":7, "y":2, "type":"oar"}, {"x":7, "y":0, "type":"oar"}], "life":1200, "shape":{"type":"rectangle", "width":3.0, "height":8.0, "orientation":0.0}}, "visibleEntities":[], "wind":{"orientation":0.0, "strength":100.0}}
[0;31m[15/03/2022 20:14:54][0;93m  [INFO][0m   Actions: [{"sailorId":0,"type":"OAR"},{"sailorId":1,"type":"OAR"},{"sailorId":2,"type":"OAR"},{"sailorId":3,"type":"OAR"},{"sailorId":4,"type":"TURN","rotation":5.861977570020827E-14},{"sailorId":5,"type":"OAR"},{"sailorId":6,"type":"OAR"},{"sailorId":8,"type":"OAR"},{"sailorId":9,"type":"OAR"},{"sailorId":10,"type":"OAR"},{"sailorId":11,"type":"OAR"}]
[0;31m[15/03/2022 20:14:54][0;93m  [INFO][0m    === Tour 83 ===
[0;31m[15/03/2022 20:14:54][0;93m  [INFO][0m   Next round input: {"ship":{"type":"ship", "position":{"x":2101.687736995312, "y":5474.9381011271, "orientation":-4.256777012081093}, "name":"kihm", "deck":{"width":3, "length":8}, "entities":[{"x":1, "y":1, "type":"rudder"}, {"x":6, "y":0, "type":"oar"}, {"x":6, "y":2, "type":"oar"}, {"x":5, "y":2, "type":"oar"}, {"x":4, "y":2, "type":"oar"}, {"x":3, "y":2, "type":"oar"}, {"x":3, "y":0, "type":"oar"}, {"x":4, "y":0, "type":"oar"}, {"x":5, "y":0, "type":"oar"}, {"x":6, "y":1, "type":"sail", "openned":false}, {"x":7, "y":2, "type":"oar"}, {"x":7, "y":0, "type":"oar"}], "life":1200, "shape":{"type":"rectangle", "width":3.0, "height":8.0, "orientation":0.0}}, "visibleEntities":[], "wind":{"orientation":0.0, "strength":100.0}}
[0;31m[15/03/2022 20:14:54][0;93m  [INFO][0m   Actions: [{"sailorId":0,"type":"OAR"},{"sailorId":1,"type":"OAR"},{"sailorId":2,"type":"OAR"},{"sailorId":3,"type":"OAR"},{"sailorId":4,"type":"TURN","rotation":5.9846739824998E-4},{"sailorId":5,"type":"OAR"},{"sailorId":6,"type":"OAR"},{"sailorId":8,"type":"OAR"},{"sailorId":9,"type":"OAR"},{"sailorId":10,"type":"OAR"},{"sailorId":11,"type":"OAR"}]
[0;31m[15/03/2022 20:14:54][0;93m  [INFO][0m    === Tour 84 ===
[0;31m[15/03/2022 20:14:54][0;93m  [INFO][0m   Next round input: {"ship":{"type":"ship", "position":{"x":2029.0418776827046, "y":5623.085252001598, "orientation":-4.256178544682877}, "name":"kihm", "deck":{"width":3, "length":8}, "entities":[{"x":1, "y":1, "type":"rudder"}, {"x":6, "y":0, "type":"oar"}, {"x":6, "y":2, "type":"oar"}, {"x":5, "y":2, "type":"oar"}, {"x":4, "y":2, "type":"oar"}, {"x":3, "y":2, "type":"oar"}, {"x":3, "y":0, "type":"oar"}, {"x":4, "y":0, "type":"oar"}, {"x":5, "y":0, "type":"oar"}, {"x":6, "y":1, "type":"sail", "openned":false}, {"x":7, "y":2, "type":"oar"}, {"x":7, "y":0, "type":"oar"}], "life":1200, "shape":{"type":"rectangle", "width":3.0, "height":8.0, "orientation":0.0}}, "visibleEntities":[], "wind":{"orientation":0.0, "strength":100.0}}
[0;31m[15/03/2022 20:14:54][0;93m  [INFO][0m   Actions: [{"sailorId":0,"type":"OAR"},{"sailorId":3,"type":"OAR"},{"sailorId":4,"type":"TURN","rotation":0.19097399551543326},{"sailorId":6,"type":"OAR"},{"sailorId":9,"type":"OAR"},{"sailorId":10,"type":"OAR"}]
[0;31m[15/03/2022 20:14:54][0;93m  [INFO][0m    === Tour 85 ===
[0;31m[15/03/2022 20:14:54][0;93m  [INFO][0m   Next round input: {"ship":{"type":"ship", "position":{"x":2046.1561215128206, "y":5697.246037605297, "orientation":-5.636000875962322}, "name":"kihm", "deck":{"width":3, "length":8}, "entities":[{"x":1, "y":1, "type":"rudder"}, {"x":6, "y":0, "type":"oar"}, {"x":6, "y":2, "type":"oar"}, {"x":5, "y":2, "type":"oar"}, {"x":4, "y":2, "type":"oar"}, {"x":3, "y":2, "type":"oar"}, {"x":3, "y":0, "type":"oar"}, {"x":4, "y":0, "type":"oar"}, {"x":5, "y":0, "type":"oar"}, {"x":6, "y":1, "type":"sail", "openned":false}, {"x":7, "y":2, "type":"oar"}, {"x":7, "y":0, "type":"oar"}], "life":1200, "shape":{"type":"rectangle", "width":3.0, "height":8.0, "orientation":0.0}}, "visibleEntities":[], "wind":{"orientation":0.0, "strength":100.0}}
[0;31m[15/03/2022 20:14:54][0;93m  [INFO][0m   Actions: [{"sailorId":0,"type":"OAR"},{"sailorId":1,"type":"OAR"},{"sailorId":2,"type":"OAR"},{"sailorId":3,"type":"OAR"},{"sailorId":4,"type":"TURN","rotation":-0.6381199820535874},{"sailorId":5,"type":"OAR"},{"sailorId":6,"type":"OAR"},{"sailorId":7,"type":"LIFT_SAIL"},{"sailorId":8,"type":"OAR"},{"sailorId":9,"type":"OAR"},{"sailorId":10,"type":"OAR"},{"sailorId":11,"type":"OAR"}]
[0;31m[15/03/2022 20:14:54][0;93m  [INFO][0m    === Tour 86 ===
[0;31m[15/03/2022 20:14:54][0;93m  [INFO][0m   Next round input: {"ship":{"type":"ship", "position":{"x":2286.346964668095, "y":5778.72681656777, "orientation":-6.274120858015953}, "name":"kihm", "deck":{"width":3, "length":8}, "entities":[{"x":1, "y":1, "type":"rudder"}, {"x":6, "y":0, "type":"oar"}, {"x":6, "y":2, "type":"oar"}, {"x":5, "y":2, "type":"oar"}, {"x":4, "y":2, "type":"oar"}, {"x":3, "y":2, "type":"oar"}, {"x":3, "y":0, "type":"oar"}, {"x":4, "y":0, "type":"oar"}, {"x":5, "y":0, "type":"oar"}, {"x":6, "y":1, "type":"sail", "openned":true}, {"x":7, "y":2, "type":"oar"}, {"x":7, "y":0, "type":"oar"}], "life":1200, "shape":{"type":"rectangle", "width":3.0, "height":8.0, "orientation":0.0}}, "visibleEntities":[], "wind":{"orientation":0.0, "strength":100.0}}
[0;31m[15/03/2022 20:14:54][0;93m  [INFO][0m   Actions: [{"sailorId":0,"type":"OAR"},{"sailorId":1,"type":"OAR"},{"sailorId":2,"type":"OAR"},{"sailorId":3,"type":"OAR"},{"sailorId":4,"type":"TURN","rotation":-0.010878443960089967},{"sailorId":5,"type":"OAR"},{"sailorId":6,"type":"OAR"},{"sailorId":8,"type":"OAR"},{"sailorId":9,"type":"OAR"},{"sailorId":10,"type":"OAR"},{"sailorId":11,"type":"OAR"}]
[0;31m[15/03/2022 20:14:54][0;93m  [INFO][0m    === Tour 87 ===
[0;31m[15/03/2022 20:14:54][0;93m  [INFO][0m   Next round input: {"ship":{"type":"ship", "position":{"x":2551.3426941554526, "y":5779.701900768206, "orientation":-0.0018139947964883878}, "name":"kihm", "deck":{"width":3, "length":8}, "entities":[{"x":1, "y":1, "type":"rudder"}, {"x":6, "y":0, "type":"oar"}, {"x":6, "y":2, "type":"oar"}, {"x":5, "y":2, "type":"oar"}, {"x":4, "y":2, "type":"oar"}, {"x":3, "y":2, "type":"oar"}, {"x":3, "y":0, "type":"oar"}, {"x":4, "y":0, "type":"oar"}, {"x":5, "y":0, "type":"oar"}, {"x":6, "y":1, "type":"sail", "openned":true}, {"x":7, "y":2, "type":"oar"}, {"x":7, "y":0, "type":"oar"}], "life":1200, "shape":{"type":"rectangle", "width":3.0, "height":8.0, "orientation":0.0}}, "visibleEntities":[], "wind":{"orientation":0.0, "strength":100.0}}
[0;31m[15/03/2022 20:14:54][0;93m  [INFO][0m   Actions: [{"sailorId":0,"type":"OAR"},{"sailorId":1,"type":"OAR"},{"sailorId":2,"type":"OAR"},{"sailorId":3,"type":"OAR"},{"sailorId":4,"type":"TURN","rotation":-2.1337718788968564E-4},{"sailorId":5,"type":"OAR"},{"sailorId":6,"type":"OAR"},{"sailorId":8,"type":"OAR"},{"sailorId":9,"type":"OAR"},{"sailorId":10,"type":"OAR"},{"sailorId":11,"type":"OAR"}]
[0;31m[15/03/2022 20:14:54][0;93m  [INFO][0m    === Tour 88 ===
[0;31m[15/03/2022 20:14:54][0;93m  [INFO][0m   Next round input: {"ship":{"type":"ship", "position":{"x":2816.3420209643655, "y":5779.193203062675, "orientation":-0.00202737198437807}, "name":"kihm", "deck":{"width":3, "length":8}, "entities":[{"x":1, "y":1, "type":"rudder"}, {"x":6, "y":0, "type":"oar"}, {"x":6, "y":2, "type":"oar"}, {"x":5, "y":2, "type":"oar"}, {"x":4, "y":2, "type":"oar"}, {"x":3, "y":2, "type":"oar"}, {"x":3, "y":0, "type":"oar"}, {"x":4, "y":0, "type":"oar"}, {"x":5, "y":0, "type":"oar"}, {"x":6, "y":1, "type":"sail", "openned":true}, {"x":7, "y":2, "type":"oar"}, {"x":7, "y":0, "type":"oar"}], "life":1200, "shape":{"type":"rectangle", "width":3.0, "height":8.0, "orientation":0.0}}, "visibleEntities":[], "wind":{"orientation":0.0, "strength":100.0}}
[0;31m[15/03/2022 20:14:54][0;93m  [INFO][0m   Actions: [{"sailorId":0,"type":"OAR"},{"sailorId":1,"type":"OAR"},{"sailorId":2,"type":"OAR"},{"sailorId":3,"type":"OAR"},{"sailorId":4,"type":"TURN","rotation":-4.354529616820268E-6},{"sailorId":5,"type":"OAR"},{"sailorId":6,"type":"OAR"},{"sailorId":8,"type":"OAR"},{"sailorId":9,"type":"OAR"},{"sailorId":10,"type":"OAR"},{"sailorId":11,"type":"OAR"}]
[0;31m[15/03/2022 20:14:54][0;93m  [INFO][0m    === Tour 89 ===
[0;31m[15/03/2022 20:14:54][0;93m  [INFO][0m   Next round input: {"ship":{"type":"ship", "position":{"x":3081.341269250584, "y":5778.655379068586, "orientation":-0.002031726513994908}, "name":"kihm", "deck":{"width":3, "length":8}, "entities":[{"x":1, "y":1, "type":"rudder"}, {"x":6, "y":0, "type":"oar"}, {"x":6, "y":2, "type":"oar"}, {"x":5, "y":2, "type":"oar"}, {"x":4, "y":2, "type":"oar"}, {"x":3, "y":2, "type":"oar"}, {"x":3, "y":0, "type":"oar"}, {"x":4, "y":0, "type":"oar"}, {"x":5, "y":0, "type":"oar"}, {"x":6, "y":1, "type":"sail", "openned":true}, {"x":7, "y":2, "type":"oar"}, {"x":7, "y":0, "type":"oar"}], "life":1200, "shape":{"type":"rectangle", "width":3.0, "height":8.0, "orientation":0.0}}, "visibleEntities":[], "wind":{"orientation":0.0, "strength":100.0}}
[0;31m[15/03/2022 20:14:54][0;93m  [INFO][0m   Actions: [{"sailorId":0,"type":"OAR"},{"sailorId":1,"type":"OAR"},{"sailorId":2,"type":"OAR"},{"sailorId":3,"type":"OAR"},{"sailorId":4,"type":"TURN","rotation":-9.260816909942987E-8},{"sailorId":5,"type":"OAR"},{"sailorId":6,"type":"OAR"},{"sailorId":8,"type":"OAR"},{"sailorId":9,"type":"OAR"},{"sailorId":10,"type":"OAR"},{"sailorId":11,"type":"OAR"}]
[0;31m[15/03/2022 20:14:54][0;93m  [INFO][0m    === Tour 90 ===
[0;31m[15/03/2022 20:14:54][0;93m  [INFO][0m   Next round input: {"ship":{"type":"ship", "position":{"x":3346.3405158732194, "y":5778.116960184309, "orientation":-0.0020318191221640014}, "name":"kihm", "deck":{"width":3, "length":8}, "entities":[{"x":1, "y":1, "type":"rudder"}, {"x":6, "y":0, "type":"oar"}, {"x":6, "y":2, "type":"oar"}, {"x":5, "y":2, "type":"oar"}, {"x":4, "y":2, "type":"oar"}, {"x":3, "y":2, "type":"oar"}, {"x":3, "y":0, "type":"oar"}, {"x":4, "y":0, "type":"oar"}, {"x":5, "y":0, "type":"oar"}, {"x":6, "y":1, "type":"sail", "openned":true}, {"x":7, "y":2, "type":"oar"}, {"x":7, "y":0, "type":"oar"}], "life":1200, "shape":{"type":"rectangle", "width":3.0, "height":8.0, "orientation":0.0}}, "visibleEntities":[], "wind":{"orientation":0.0, "strength":100.0}}
[0;31m[15/03/2022 20:14:54][0;93m  [INFO][0m   Actions: [{"sailorId":0,"type":"OAR"},{"sailorId":1,"type":"OAR"},{"sailorId":2,"type":"OAR"},{"sailorId":3,"type":"OAR"},{"sailorId":4,"type":"TURN","rotation":-2.056094584954732E-9},{"sailorId":5,"type":"OAR"},{"sailorId":6,"type":"OAR"},{"sailorId":8,"type":"OAR"},{"sailorId":9,"type":"OAR"},{"sailorId":10,"type":"OAR"},{"sailorId":11,"type":"OAR"}]
[0;31m[15/03/2022 20:14:54][0;93m  [INFO][0m    === Tour 91 ===
[0;31m[15/03/2022 20:14:54][0;93m  [INFO][0m   Next round input: {"ship":{"type":"ship", "position":{"x":3611.3397624604195, "y":5777.578528637092, "orientation":-0.0020318211782585755}, "name":"kihm", "deck":{"width":3, "length":8}, "entities":[{"x":1, "y":1, "type":"rudder"}, {"x":6, "y":0, "type":"oar"}, {"x":6, "y":2, "type":"oar"}, {"x":5, "y":2, "type":"oar"}, {"x":4, "y":2, "type":"oar"}, {"x":3, "y":2, "type":"oar"}, {"x":3, "y":0, "type":"oar"}, {"x":4, "y":0, "type":"oar"}, {"x":5, "y":0, "type":"oar"}, {"x":6, "y":1, "type":"sail", "openned":true}, {"x":7, "y":2, "type":"oar"}, {"x":7, "y":0, "type":"oar"}], "life":1200, "shape":{"type":"rectangle", "width":3.0, "height":8.0, "orientation":0.0}}, "visibleEntities":[], "wind":{"orientation":0.0, "strength":100.0}}
[0;31m[15/03/2022 20:14:54][0;93m  [INFO][0m   Actions: [{"sailorId":0,"type":"OAR"},{"sailorId":1,"type":"OAR"},{"sailorId":2,"type":"OAR"},{"sailorId":3,"type":"OAR"},{"sailorId":4,"type":"TURN","rotation":-4.77487758533679E-11},{"sailorId":5,"type":"OAR"},{"sailorId":6,"type":"OAR"},{"sailorId":8,"type":"OAR"},{"sailorId":9,"type":"OAR"},{"sailorId":10,"type":"OAR"},{"sailorId":11,"type":"OAR"}]
[0;31m[15/03/2022 20:14:54][0;93m  [INFO][0m    === Tour 92 ===
[0;31m[15/03/2022 20:14:54][0;93m  [INFO][0m   Next round input: {"ship":{"type":"ship", "position":{"x":3876.3390090468333, "y":5777.040096808456, "orientation":-0.0020318212260073596}, "name":"kihm", "deck":{"width":3, "length":8}, "entities":[{"x":1, "y":1, "type":"rudder"}, {"x":6, "y":0, "type":"oar"}, {"x":6, "y":2, "type":"oar"}, {"x":5, "y":2, "type":"oar"}, {"x":4, "y":2, "type":"oar"}, {"x":3, "y":2, "type":"oar"}, {"x":3, "y":0, "type":"oar"}, {"x":4, "y":0, "type":"oar"}, {"x":5, "y":0, "type":"oar"}, {"x":6, "y":1, "type":"sail", "openned":true}, {"x":7, "y":2, "type":"oar"}, {"x":7, "y":0, "type":"oar"}], "life":1200, "shape":{"type":"rectangle", "width":3.0, "height":8.0, "orientation":0.0}}, "visibleEntities":[], "wind":{"orientation":0.0, "strength":100.0}}
[0;31m[15/03/2022 20:14:54][0;93m  [INFO][0m   Actions: [{"sailorId":0,"type":"OAR"},{"sailorId":1,"type":"OAR"},{"sailorId":2,"type":"OAR"},{"sailorId":3,"type":"OAR"},{"sailorId":4,"type":"TURN","rotation":-1.162320673736561E-12},{"sailorId":5,"type":"OAR"},{"sailorId":6,"type":"OAR"},{"sailorId":8,"type":"OAR"},{"sailorId":9,"type":"OAR"},{"sailorId":10,"type":"OAR"},{"sailorId":11,"type":"OAR"}]
[0;31m[15/03/2022 20:14:54][0;93m  [INFO][0m    === Tour 93 ===
[0;31m[15/03/2022 20:14:54][0;93m  [INFO][0m   Next round input: {"ship":{"type":"ship", "position":{"x":4141.33825563321, "y":5776.501664973276, "orientation":-0.0020318212271696677}, "name":"kihm", "deck":{"width":3, "length":8}, "entities":[{"x":1, "y":1, "type":"rudder"}, {"x":6, "y":0, "type":"oar"}, {"x":6, "y":2, "type":"oar"}, {"x":5, "y":2, "type":"oar"}, {"x":4, "y":2, "type":"oar"}, {"x":3, "y":2, "type":"oar"}, {"x":3, "y":0, "type":"oar"}, {"x":4, "y":0, "type":"oar"}, {"x":5, "y":0, "type":"oar"}, {"x":6, "y":1, "type":"sail", "openned":true}, {"x":7, "y":2, "type":"oar"}, {"x":7, "y":0, "type":"oar"}], "life":1200, "shape":{"type":"rectangle", "width":3.0, "height":8.0, "orientation":0.0}}, "visibleEntities":[], "wind":{"orientation":0.0, "strength":100.0}}
[0;31m[15/03/2022 20:14:54][0;93m  [INFO][0m   Actions: [{"sailorId":0,"type":"OAR"},{"sailorId":1,"type":"OAR"},{"sailorId":2,"type":"OAR"},{"sailorId":3,"type":"OAR"},{"sailorId":4,"type":"TURN","rotation":-2.947078345250098E-14},{"sailorId":5,"type":"OAR"},{"sailorId":6,"type":"OAR"},{"sailorId":8,"type":"OAR"},{"sailorId":9,"type":"OAR"},{"sailorId":10,"type":"OAR"},{"sailorId":11,"type":"OAR"}]
[0;31m[15/03/2022 20:14:54][0;93m  [INFO][0m    === Tour 94 ===
[0;31m[15/03/2022 20:14:54][0;93m  [INFO][0m   Next round input: {"ship":{"type":"ship", "position":{"x":4406.337502219586, "y":5775.963233137955, "orientation":-0.002031821227199158}, "name":"kihm", "deck":{"width":3, "length":8}, "entities":[{"x":1, "y":1, "type":"rudder"}, {"x":6, "y":0, "type":"oar"}, {"x":6, "y":2, "type":"oar"}, {"x":5, "y":2, "type":"oar"}, {"x":4, "y":2, "type":"oar"}, {"x":3, "y":2, "type":"oar"}, {"x":3, "y":0, "type":"oar"}, {"x":4, "y":0, "type":"oar"}, {"x":5, "y":0, "type":"oar"}, {"x":6, "y":1, "type":"sail", "openned":true}, {"x":7, "y":2, "type":"oar"}, {"x":7, "y":0, "type":"oar"}], "life":1200, "shape":{"type":"rectangle", "width":3.0, "height":8.0, "orientation":0.0}}, "visibleEntities":[], "wind":{"orientation":0.0, "strength":100.0}}
[0;31m[15/03/2022 20:14:54][0;93m  [INFO][0m   Actions: [{"sailorId":0,"type":"OAR"},{"sailorId":1,"type":"OAR"},{"sailorId":2,"type":"OAR"},{"sailorId":3,"type":"OAR"},{"sailorId":4,"type":"TURN","rotation":-4.202801301422809E-15},{"sailorId":5,"type":"OAR"},{"sailorId":6,"type":"OAR"},{"sailorId":8,"type":"OAR"},{"sailorId":9,"type":"OAR"},{"sailorId":10,"type":"OAR"},{"sailorId":11,"type":"OAR"}]
[0;31m[15/03/2022 20:14:54][0;93m  [INFO][0m    === Tour 95 ===
[0;31m[15/03/2022 20:14:54][0;93m  [INFO][0m   Next round input: {"ship":{"type":"ship", "position":{"x":4671.336748805962, "y":5775.4248013026345, "orientation":-0.0020318212272033647}, "name":"kihm", "deck":{"width":3, "length":8}, "entities":[{"x":1, "y":1, "type":"rudder"}, {"x":6, "y":0, "type":"oar"}, {"x":6, "y":2, "type":"oar"}, {"x":5, "y":2, "type":"oar"}, {"x":4, "y":2, "type":"oar"}, {"x":3, "y":2, "type":"oar"}, {"x":3, "y":0, "type":"oar"}, {"x":4, "y":0, "type":"oar"}, {"x":5, "y":0, "type":"oar"}, {"x":6, "y":1, "type":"sail", "openned":true}, {"x":7, "y":2, "type":"oar"}, {"x":7, "y":0, "type":"oar"}], "life":1200, "shape":{"type":"rectangle", "width":3.0, "height":8.0, "orientation":0.0}}, "visibleEntities":[], "wind":{"orientation":0.0, "strength":100.0}}
[0;31m[15/03/2022 20:14:54][0;93m  [INFO][0m   Actions: [{"sailorId":0,"type":"OAR"},{"sailorId":1,"type":"OAR"},{"sailorId":2,"type":"OAR"},{"sailorId":3,"type":"OAR"},{"sailorId":4,"type":"TURN","rotation":-4.69416172599324E-15},{"sailorId":5,"type":"OAR"},{"sailorId":6,"type":"OAR"},{"sailorId":8,"type":"OAR"},{"sailorId":9,"type":"OAR"},{"sailorId":10,"type":"OAR"},{"sailorId":11,"type":"OAR"}]
[0;31m[15/03/2022 20:14:54][0;93m  [INFO][0m    === Tour 96 ===
[0;31m[15/03/2022 20:14:54][0;93m  [INFO][0m   Next round input: {"ship":{"type":"ship", "position":{"x":4936.335995392338, "y":5774.886369467314, "orientation":-0.0020318212272080484}, "name":"kihm", "deck":{"width":3, "length":8}, "entities":[{"x":1, "y":1, "type":"rudder"}, {"x":6, "y":0, "type":"oar"}, {"x":6, "y":2, "type":"oar"}, {"x":5, "y":2, "type":"oar"}, {"x":4, "y":2, "type":"oar"}, {"x":3, "y":2, "type":"oar"}, {"x":3, "y":0, "type":"oar"}, {"x":4, "y":0, "type":"oar"}, {"x":5, "y":0, "type":"oar"}, {"x":6, "y":1, "type":"sail", "openned":true}, {"x":7, "y":2, "type":"oar"}, {"x":7, "y":0, "type":"oar"}], "life":1200, "shape":{"type":"rectangle", "width":3.0, "height":8.0, "orientation":0.0}}, "visibleEntities":[], "wind":{"orientation":0.0, "strength":100.0}}
[0;31m[15/03/2022 20:14:54][0;93m  [INFO][0m   Actions: [{"sailorId":0,"type":"OAR"},{"sailorId":1,"type":"OAR"},{"sailorId":2,"type":"OAR"},{"sailorId":3,"type":"OAR"},{"sailorId":4,"type":"TURN","rotation":-5.269656239148546E-15},{"sailorId":5,"type":"OAR"},{"sailorId":6,"type":"OAR"},{"sailorId":8,"type":"OAR"},{"sailorId":9,"type":"OAR"},{"sailorId":10,"type":"OAR"},{"sailorId":11,"type":"OAR"}]
[0;31m[15/03/2022 20:14:54][0;93m  [INFO][0m    === Tour 97 ===
[0;31m[15/03/2022 20:14:54][0;93m  [INFO][0m   Next round input: {"ship":{"type":"ship", "position":{"x":5201.335241978714, "y":5774.347937631993, "orientation":-0.0020318212272133394}, "name":"kihm", "deck":{"width":3, "length":8}, "entities":[{"x":1, "y":1, "type":"rudder"}, {"x":6, "y":0, "type":"oar"}, {"x":6, "y":2, "type":"oar"}, {"x":5, "y":2, "type":"oar"}, {"x":4, "y":2, "type":"oar"}, {"x":3, "y":2, "type":"oar"}, {"x":3, "y":0, "type":"oar"}, {"x":4, "y":0, "type":"oar"}, {"x":5, "y":0, "type":"oar"}, {"x":6, "y":1, "type":"sail", "openned":true}, {"x":7, "y":2, "type":"oar"}, {"x":7, "y":0, "type":"oar"}], "life":1200, "shape":{"type":"rectangle", "width":3.0, "height":8.0, "orientation":0.0}}, "visibleEntities":[], "wind":{"orientation":0.0, "strength":100.0}}
[0;31m[15/03/2022 20:14:54][0;93m  [INFO][0m   Actions: [{"sailorId":0,"type":"OAR"},{"sailorId":1,"type":"OAR"},{"sailorId":2,"type":"OAR"},{"sailorId":3,"type":"OAR"},{"sailorId":4,"type":"TURN","rotation":-5.90586607396304E-15},{"sailorId":5,"type":"OAR"},{"sailorId":6,"type":"OAR"},{"sailorId":8,"type":"OAR"},{"sailorId":9,"type":"OAR"},{"sailorId":10,"type":"OAR"},{"sailorId":11,"type":"OAR"}]
[0;31m[15/03/2022 20:14:54][0;93m  [INFO][0m    === Tour 98 ===
[0;31m[15/03/2022 20:14:54][0;93m  [INFO][0m   Next round input: {"ship":{"type":"ship", "position":{"x":5466.33448856509, "y":5773.809505796672, "orientation":-0.0020318212272192374}, "name":"kihm", "deck":{"width":3, "length":8}, "entities":[{"x":1, "y":1, "type":"rudder"}, {"x":6, "y":0, "type":"oar"}, {"x":6, "y":2, "type":"oar"}, {"x":5, "y":2, "type":"oar"}, {"x":4, "y":2, "type":"oar"}, {"x":3, "y":2, "type":"oar"}, {"x":3, "y":0, "type":"oar"}, {"x":4, "y":0, "type":"oar"}, {"x":5, "y":0, "type":"oar"}, {"x":6, "y":1, "type":"sail", "openned":true}, {"x":7, "y":2, "type":"oar"}, {"x":7, "y":0, "type":"oar"}], "life":1200, "shape":{"type":"rectangle", "width":3.0, "height":8.0, "orientation":0.0}}, "visibleEntities":[], "wind":{"orientation":0.0, "strength":100.0}}
[0;31m[15/03/2022 20:14:54][0;93m  [INFO][0m   Actions: [{"sailorId":0,"type":"OAR"},{"sailorId":1,"type":"OAR"},{"sailorId":2,"type":"OAR"},{"sailorId":3,"type":"OAR"},{"sailorId":4,"type":"TURN","rotation":-6.738533342431907E-15},{"sailorId":5,"type":"OAR"},{"sailorId":6,"type":"OAR"},{"sailorId":8,"type":"OAR"},{"sailorId":9,"type":"OAR"},{"sailorId":10,"type":"OAR"},{"sailorId":11,"type":"OAR"}]
[0;31m[15/03/2022 20:14:54][0;93m  [INFO][0m    === Tour 99 ===
[0;31m[15/03/2022 20:14:54][0;93m  [INFO][0m   Next round input: {"ship":{"type":"ship", "position":{"x":5731.3337351514665, "y":5773.271073961351, "orientation":-0.0020318212272259595}, "name":"kihm", "deck":{"width":3, "length":8}, "entities":[{"x":1, "y":1, "type":"rudder"}, {"x":6, "y":0, "type":"oar"}, {"x":6, "y":2, "type":"oar"}, {"x":5, "y":2, "type":"oar"}, {"x":4, "y":2, "type":"oar"}, {"x":3, "y":2, "type":"oar"}, {"x":3, "y":0, "type":"oar"}, {"x":4, "y":0, "type":"oar"}, {"x":5, "y":0, "type":"oar"}, {"x":6, "y":1, "type":"sail", "openned":true}, {"x":7, "y":2, "type":"oar"}, {"x":7, "y":0, "type":"oar"}], "life":1200, "shape":{"type":"rectangle", "width":3.0, "height":8.0, "orientation":0.0}}, "visibleEntities":[], "wind":{"orientation":0.0, "strength":100.0}}
[0;31m[15/03/2022 20:14:55][0;93m  [INFO][0m   Actions: [{"sailorId":0,"type":"OAR"},{"sailorId":1,"type":"OAR"},{"sailorId":2,"type":"OAR"},{"sailorId":3,"type":"OAR"},{"sailorId":4,"type":"TURN","rotation":-7.726892042869693E-15},{"sailorId":5,"type":"OAR"},{"sailorId":6,"type":"OAR"},{"sailorId":8,"type":"OAR"},{"sailorId":9,"type":"OAR"},{"sailorId":10,"type":"OAR"},{"sailorId":11,"type":"OAR"}]
[0;31m[15/03/2022 20:14:55][0;93m  [INFO][0m    === Tour 100 ===
[0;31m[15/03/2022 20:14:55][0;93m  [INFO][0m   Next round input: {"ship":{"type":"ship", "position":{"x":5996.332981737843, "y":5772.73264212603, "orientation":-0.002031821227233679}, "name":"kihm", "deck":{"width":3, "length":8}, "entities":[{"x":1, "y":1, "type":"rudder"}, {"x":6, "y":0, "type":"oar"}, {"x":6, "y":2, "type":"oar"}, {"x":5, "y":2, "type":"oar"}, {"x":4, "y":2, "type":"oar"}, {"x":3, "y":2, "type":"oar"}, {"x":3, "y":0, "type":"oar"}, {"x":4, "y":0, "type":"oar"}, {"x":5, "y":0, "type":"oar"}, {"x":6, "y":1, "type":"sail", "openned":true}, {"x":7, "y":2, "type":"oar"}, {"x":7, "y":0, "type":"oar"}], "life":1200, "shape":{"type":"rectangle", "width":3.0, "height":8.0, "orientation":0.0}}, "visibleEntities":[], "wind":{"orientation":0.0, "strength":100.0}}
[0;31m[15/03/2022 20:14:55][0;93m  [INFO][0m   Actions: [{"sailorId":0,"type":"OAR"},{"sailorId":1,"type":"OAR"},{"sailorId":2,"type":"OAR"},{"sailorId":3,"type":"OAR"},{"sailorId":4,"type":"TURN","rotation":-8.928188049983632E-15},{"sailorId":5,"type":"OAR"},{"sailorId":6,"type":"OAR"},{"sailorId":8,"type":"OAR"},{"sailorId":9,"type":"OAR"},{"sailorId":10,"type":"OAR"},{"sailorId":11,"type":"OAR"}]
[0;31m[15/03/2022 20:14:55][0;93m  [INFO][0m    === Tour 101 ===
[0;31m[15/03/2022 20:14:55][0;93m  [INFO][0m   Next round input: {"ship":{"type":"ship", "position":{"x":6261.332228324219, "y":5772.19421029071, "orientation":-0.002031821227242613}, "name":"kihm", "deck":{"width":3, "length":8}, "entities":[{"x":1, "y":1, "type":"rudder"}, {"x":6, "y":0, "type":"oar"}, {"x":6, "y":2, "type":"oar"}, {"x":5, "y":2, "type":"oar"}, {"x":4, "y":2, "type":"oar"}, {"x":3, "y":2, "type":"oar"}, {"x":3, "y":0, "type":"oar"}, {"x":4, "y":0, "type":"oar"}, {"x":5, "y":0, "type":"oar"}, {"x":6, "y":1, "type":"sail", "openned":true}, {"x":7, "y":2, "type":"oar"}, {"x":7, "y":0, "type":"oar"}], "life":1200, "shape":{"type":"rectangle", "width":3.0, "height":8.0, "orientation":0.0}}, "visibleEntities":[], "wind":{"orientation":0.0, "strength":100.0}}
[0;31m[15/03/2022 20:14:55][0;93m  [INFO][0m   Actions: [{"sailorId":0,"type":"OAR"},{"sailorId":1,"type":"OAR"},{"sailorId":2,"type":"OAR"},{"sailorId":3,"type":"OAR"},{"sailorId":4,"type":"TURN","rotation":-1.0433494346262506E-14},{"sailorId":5,"type":"OAR"},{"sailorId":6,"type":"OAR"},{"sailorId":8,"type":"OAR"},{"sailorId":9,"type":"OAR"},{"sailorId":10,"type":"OAR"},{"sailorId":11,"type":"OAR"}]
[0;31m[15/03/2022 20:14:55][0;93m  [INFO][0m    === Tour 102 ===
[0;31m[15/03/2022 20:14:55][0;93m  [INFO][0m   Next round input: {"ship":{"type":"ship", "position":{"x":6526.331474910595, "y":5771.655778455389, "orientation":-0.0020318212272530645}, "name":"kihm", "deck":{"width":3, "length":8}, "entities":[{"x":1, "y":1, "type":"rudder"}, {"x":6, "y":0, "type":"oar"}, {"x":6, "y":2, "type":"oar"}, {"x":5, "y":2, "type":"oar"}, {"x":4, "y":2, "type":"oar"}, {"x":3, "y":2, "type":"oar"}, {"x":3, "y":0, "type":"oar"}, {"x":4, "y":0, "type":"oar"}, {"x":5, "y":0, "type":"oar"}, {"x":6, "y":1, "type":"sail", "openned":true}, {"x":7, "y":2, "type":"oar"}, {"x":7, "y":0, "type":"oar"}], "life":1200, "shape":{"type":"rectangle", "width":3.0, "height":8.0, "orientation":0.0}}, "visibleEntities":[], "wind":{"orientation":0.0, "strength":100.0}}
[0;31m[15/03/2022 20:14:55][0;93m  [INFO][0m   Actions: [{"sailorId":0,"type":"OAR"},{"sailorId":1,"type":"OAR"},{"sailorId":2,"type":"OAR"},{"sailorId":3,"type":"OAR"},{"sailorId":4,"type":"TURN","rotation":-1.2364241575024693E-14},{"sailorId":5,"type":"OAR"},{"sailorId":6,"type":"OAR"},{"sailorId":8,"type":"OAR"},{"sailorId":9,"type":"OAR"},{"sailorId":10,"type":"OAR"},{"sailorId":11,"type":"OAR"}]
[0;31m[15/03/2022 20:14:55][0;93m  [INFO][0m    === Tour 103 ===
[0;31m[15/03/2022 20:14:55][0;93m  [INFO][0m   Next round input: {"ship":{"type":"ship", "position":{"x":6791.330721496971, "y":5771.117346620068, "orientation":-0.0020318212272654244}, "name":"kihm", "deck":{"width":3, "length":8}, "entities":[{"x":1, "y":1, "type":"rudder"}, {"x":6, "y":0, "type":"oar"}, {"x":6, "y":2, "type":"oar"}, {"x":5, "y":2, "type":"oar"}, {"x":4, "y":2, "type":"oar"}, {"x":3, "y":2, "type":"oar"}, {"x":3, "y":0, "type":"oar"}, {"x":4, "y":0, "type":"oar"}, {"x":5, "y":0, "type":"oar"}, {"x":6, "y":1, "type":"sail", "openned":true}, {"x":7, "y":2, "type":"oar"}, {"x":7, "y":0, "type":"oar"}], "life":1200, "shape":{"type":"rectangle", "width":3.0, "height":8.0, "orientation":0.0}}, "visibleEntities":[], "wind":{"orientation":0.0, "strength":100.0}}
[0;31m[15/03/2022 20:14:55][0;93m  [INFO][0m   Actions: [{"sailorId":0,"type":"OAR"},{"sailorId":1,"type":"OAR"},{"sailorId":2,"type":"OAR"},{"sailorId":3,"type":"OAR"},{"sailorId":4,"type":"TURN","rotation":-1.492772919164942E-14},{"sailorId":5,"type":"OAR"},{"sailorId":6,"type":"OAR"},{"sailorId":8,"type":"OAR"},{"sailorId":9,"type":"OAR"},{"sailorId":10,"type":"OAR"},{"sailorId":11,"type":"OAR"}]
[0;31m[15/03/2022 20:14:55][0;93m  [INFO][0m    === Tour 104 ===
[0;31m[15/03/2022 20:14:55][0;93m  [INFO][0m   Next round input: {"ship":{"type":"ship", "position":{"x":7056.329968083347, "y":5770.578914784747, "orientation":-0.002031821227280343}, "name":"kihm", "deck":{"width":3, "length":8}, "entities":[{"x":1, "y":1, "type":"rudder"}, {"x":6, "y":0, "type":"oar"}, {"x":6, "y":2, "type":"oar"}, {"x":5, "y":2, "type":"oar"}, {"x":4, "y":2, "type":"oar"}, {"x":3, "y":2, "type":"oar"}, {"x":3, "y":0, "type":"oar"}, {"x":4, "y":0, "type":"oar"}, {"x":5, "y":0, "type":"oar"}, {"x":6, "y":1, "type":"sail", "openned":true}, {"x":7, "y":2, "type":"oar"}, {"x":7, "y":0, "type":"oar"}], "life":1200, "shape":{"type":"rectangle", "width":3.0, "height":8.0, "orientation":0.0}}, "visibleEntities":[], "wind":{"orientation":0.0, "strength":100.0}}
[0;31m[15/03/2022 20:14:55][0;93m  [INFO][0m   Actions: [{"sailorId":0,"type":"OAR"},{"sailorId":1,"type":"OAR"},{"sailorId":2,"type":"OAR"},{"sailorId":3,"type":"OAR"},{"sailorId":4,"type":"TURN","rotation":-1.8345568120192723E-14},{"sailorId":5,"type":"OAR"},{"sailorId":6,"type":"OAR"},{"sailorId":8,"type":"OAR"},{"sailorId":9,"type":"OAR"},{"sailorId":10,"type":"OAR"},{"sailorId":11,"type":"OAR"}]
[0;31m[15/03/2022 20:14:55][0;93m  [INFO][0m    === Tour 105 ===
[0;31m[15/03/2022 20:14:55][0;93m  [INFO][0m   Next round input: {"ship":{"type":"ship", "position":{"x":7321.329214669723, "y":5770.040482949391, "orientation":-0.0020318212272986877}, "name":"kihm", "deck":{"width":3, "length":8}, "entities":[{"x":1, "y":1, "type":"rudder"}, {"x":6, "y":0, "type":"oar"}, {"x":6, "y":2, "type":"oar"}, {"x":5, "y":2, "type":"oar"}, {"x":4, "y":2, "type":"oar"}, {"x":3, "y":2, "type":"oar"}, {"x":3, "y":0, "type":"oar"}, {"x":4, "y":0, "type":"oar"}, {"x":5, "y":0, "type":"oar"}, {"x":6, "y":1, "type":"sail", "openned":true}, {"x":7, "y":2, "type":"oar"}, {"x":7, "y":0, "type":"oar"}], "life":1200, "shape":{"type":"rectangle", "width":3.0, "height":8.0, "orientation":0.0}}, "visibleEntities":[], "wind":{"orientation":0.0, "strength":100.0}}
[0;31m[15/03/2022 20:14:55][0;93m  [INFO][0m   Actions: [{"sailorId":0,"type":"OAR"},{"sailorId":1,"type":"OAR"},{"sailorId":2,"type":"OAR"},{"sailorId":3,"type":"OAR"},{"sailorId":4,"type":"TURN","rotation":-5.790940643679576E-15},{"sailorId":5,"type":"OAR"},{"sailorId":6,"type":"OAR"},{"sailorId":8,"type":"OAR"},{"sailorId":9,"type":"OAR"},{"sailorId":10,"type":"OAR"},{"sailorId":11,"type":"OAR"}]
[0;31m[15/03/2022 20:14:55][0;93m  [INFO][0m    === Tour 106 ===
[0;31m[15/03/2022 20:14:55][0;93m  [INFO][0m   Next round input: {"ship":{"type":"ship", "position":{"x":7586.328461256099, "y":5769.502051113979, "orientation":-0.002031821227304499}, "name":"kihm", "deck":{"width":3, "length":8}, "entities":[{"x":1, "y":1, "type":"rudder"}, {"x":6, "y":0, "type":"oar"}, {"x":6, "y":2, "type":"oar"}, {"x":5, "y":2, "type":"oar"}, {"x":4, "y":2, "type":"oar"}, {"x":3, "y":2, "type":"oar"}, {"x":3, "y":0, "type":"oar"}, {"x":4, "y":0, "type":"oar"}, {"x":5, "y":0, "type":"oar"}, {"x":6, "y":1, "type":"sail", "openned":true}, {"x":7, "y":2, "type":"oar"}, {"x":7, "y":0, "type":"oar"}], "life":1200, "shape":{"type":"rectangle", "width":3.0, "height":8.0, "orientation":0.0}}, "visibleEntities":[], "wind":{"orientation":0.0, "strength":100.0}}
[0;31m[15/03/2022 20:14:55][0;93m  [INFO][0m   Actions: [{"sailorId":0,"type":"OAR"},{"sailorId":1,"type":"OAR"},{"sailorId":2,"type":"OAR"},{"sailorId":3,"type":"OAR"},{"sailorId":4,"type":"TURN","rotation":2.354930486725415E-14},{"sailorId":5,"type":"OAR"},{"sailorId":6,"type":"OAR"},{"sailorId":8,"type":"OAR"},{"sailorId":9,"type":"OAR"},{"sailorId":10,"type":"OAR"},{"sailorId":11,"type":"OAR"}]
[0;31m[15/03/2022 20:14:55][0;93m  [INFO][0m    === Tour 107 ===
[0;31m[15/03/2022 20:14:55][0;93m  [INFO][0m   Next round input: {"ship":{"type":"ship", "position":{"x":7851.327707842475, "y":5768.963619278607, "orientation":-0.00203182122728095}, "name":"kihm", "deck":{"width":3, "length":8}, "entities":[{"x":1, "y":1, "type":"rudder"}, {"x":6, "y":0, "type":"oar"}, {"x":6, "y":2, "type":"oar"}, {"x":5, "y":2, "type":"oar"}, {"x":4, "y":2, "type":"oar"}, {"x":3, "y":2, "type":"oar"}, {"x":3, "y":0, "type":"oar"}, {"x":4, "y":0, "type":"oar"}, {"x":5, "y":0, "type":"oar"}, {"x":6, "y":1, "type":"sail", "openned":true}, {"x":7, "y":2, "type":"oar"}, {"x":7, "y":0, "type":"oar"}], "life":1200, "shape":{"type":"rectangle", "width":3.0, "height":8.0, "orientation":0.0}}, "visibleEntities":[], "wind":{"orientation":0.0, "strength":100.0}}
[0;31m[15/03/2022 20:14:55][0;93m  [INFO][0m   Actions: [{"sailorId":0,"type":"OAR"},{"sailorId":1,"type":"OAR"},{"sailorId":2,"type":"OAR"},{"sailorId":3,"type":"OAR"},{"sailorId":4,"type":"TURN","rotation":5.437057054580308E-15},{"sailorId":5,"type":"OAR"},{"sailorId":6,"type":"OAR"},{"sailorId":8,"type":"OAR"},{"sailorId":9,"type":"OAR"},{"sailorId":10,"type":"OAR"},{"sailorId":11,"type":"OAR"}]
[0;31m[15/03/2022 20:14:55][0;93m  [INFO][0m    === Tour 108 ===
[0;31m[15/03/2022 20:14:55][0;93m  [INFO][0m   Next round input: {"ship":{"type":"ship", "position":{"x":8116.326954428851, "y":5768.425187443287, "orientation":-0.002031821227275529}, "name":"kihm", "deck":{"width":3, "length":8}, "entities":[{"x":1, "y":1, "type":"rudder"}, {"x":6, "y":0, "type":"oar"}, {"x":6, "y":2, "type":"oar"}, {"x":5, "y":2, "type":"oar"}, {"x":4, "y":2, "type":"oar"}, {"x":3, "y":2, "type":"oar"}, {"x":3, "y":0, "type":"oar"}, {"x":4, "y":0, "type":"oar"}, {"x":5, "y":0, "type":"oar"}, {"x":6, "y":1, "type":"sail", "openned":true}, {"x":7, "y":2, "type":"oar"}, {"x":7, "y":0, "type":"oar"}], "life":1200, "shape":{"type":"rectangle", "width":3.0, "height":8.0, "orientation":0.0}}, "visibleEntities":[], "wind":{"orientation":0.0, "strength":100.0}}
[0;31m[15/03/2022 20:14:55][0;93m  [INFO][0m   Actions: [{"sailorId":0,"type":"OAR"},{"sailorId":1,"type":"OAR"},{"sailorId":2,"type":"OAR"},{"sailorId":3,"type":"OAR"},{"sailorId":4,"type":"TURN","rotation":-3.275591603513206E-14},{"sailorId":5,"type":"OAR"},{"sailorId":6,"type":"OAR"},{"sailorId":8,"type":"OAR"},{"sailorId":9,"type":"OAR"},{"sailorId":10,"type":"OAR"},{"sailorId":11,"type":"OAR"}]
[0;31m[15/03/2022 20:14:55][0;93m  [INFO][0m    === Tour 109 ===
[0;31m[15/03/2022 20:14:55][0;93m  [INFO][0m   Next round input: {"ship":{"type":"ship", "position":{"x":8381.326201015228, "y":5767.886755607919, "orientation":-0.002031821227308272}, "name":"kihm", "deck":{"width":3, "length":8}, "entities":[{"x":1, "y":1, "type":"rudder"}, {"x":6, "y":0, "type":"oar"}, {"x":6, "y":2, "type":"oar"}, {"x":5, "y":2, "type":"oar"}, {"x":4, "y":2, "type":"oar"}, {"x":3, "y":2, "type":"oar"}, {"x":3, "y":0, "type":"oar"}, {"x":4, "y":0, "type":"oar"}, {"x":5, "y":0, "type":"oar"}, {"x":6, "y":1, "type":"sail", "openned":true}, {"x":7, "y":2, "type":"oar"}, {"x":7, "y":0, "type":"oar"}], "life":1200, "shape":{"type":"rectangle", "width":3.0, "height":8.0, "orientation":0.0}}, "visibleEntities":[], "wind":{"orientation":0.0, "strength":100.0}}
[0;31m[15/03/2022 20:14:55][0;93m  [INFO][0m   Actions: [{"sailorId":0,"type":"OAR"},{"sailorId":1,"type":"OAR"},{"sailorId":2,"type":"OAR"},{"sailorId":3,"type":"OAR"},{"sailorId":4,"type":"TURN","rotation":-3.555315764014466E-15},{"sailorId":5,"type":"OAR"},{"sailorId":6,"type":"OAR"},{"sailorId":8,"type":"OAR"},{"sailorId":9,"type":"OAR"},{"sailorId":10,"type":"OAR"},{"sailorId":11,"type":"OAR"}]
[0;31m[15/03/2022 20:14:55][0;93m  [INFO][0m    === Tour 110 ===
[0;31m[15/03/2022 20:14:55][0;93m  [INFO][0m   Next round input: {"ship":{"type":"ship", "position":{"x":8646.325447601605, "y":5767.348323772508, "orientation":-0.0020318212273118283}, "name":"kihm", "deck":{"width":3, "length":8}, "entities":[{"x":1, "y":1, "type":"rudder"}, {"x":6, "y":0, "type":"oar"}, {"x":6, "y":2, "type":"oar"}, {"x":5, "y":2, "type":"oar"}, {"x":4, "y":2, "type":"oar"}, {"x":3, "y":2, "type":"oar"}, {"x":3, "y":0, "type":"oar"}, {"x":4, "y":0, "type":"oar"}, {"x":5, "y":0, "type":"oar"}, {"x":6, "y":1, "type":"sail", "openned":true}, {"x":7, "y":2, "type":"oar"}, {"x":7, "y":0, "type":"oar"}], "life":1200, "shape":{"type":"rectangle", "width":3.0, "height":8.0, "orientation":0.0}}, "visibleEntities":[], "wind":{"orientation":0.0, "strength":100.0}}
[0;31m[15/03/2022 20:14:55][0;93m  [INFO][0m   Actions: [{"sailorId":0,"type":"OAR"},{"sailorId":1,"type":"OAR"},{"sailorId":2,"type":"OAR"},{"sailorId":3,"type":"OAR"},{"sailorId":4,"type":"TURN","rotation":5.513254783262589E-14},{"sailorId":5,"type":"OAR"},{"sailorId":6,"type":"OAR"},{"sailorId":8,"type":"OAR"},{"sailorId":9,"type":"OAR"},{"sailorId":10,"type":"OAR"},{"sailorId":11,"type":"OAR"}]
[0;31m[15/03/2022 20:14:55][0;93m  [INFO][0m    === Tour 111 ===
[0;31m[15/03/2022 20:14:55][0;93m  [INFO][0m   Next round input: {"ship":{"type":"ship", "position":{"x":8911.32469418798, "y":5766.809891937153, "orientation":-0.0020318212272567074}, "name":"kihm", "deck":{"width":3, "length":8}, "entities":[{"x":1, "y":1, "type":"rudder"}, {"x":6, "y":0, "type":"oar"}, {"x":6, "y":2, "type":"oar"}, {"x":5, "y":2, "type":"oar"}, {"x":4, "y":2, "type":"oar"}, {"x":3, "y":2, "type":"oar"}, {"x":3, "y":0, "type":"oar"}, {"x":4, "y":0, "type":"oar"}, {"x":5, "y":0, "type":"oar"}, {"x":6, "y":1, "type":"sail", "openned":true}, {"x":7, "y":2, "type":"oar"}, {"x":7, "y":0, "type":"oar"}], "life":1200, "shape":{"type":"rectangle", "width":3.0, "height":8.0, "orientation":0.0}}, "visibleEntities":[], "wind":{"orientation":0.0, "strength":100.0}}
[0;31m[15/03/2022 20:14:55][0;93m  [INFO][0m   Actions: [{"sailorId":0,"type":"OAR"},{"sailorId":1,"type":"OAR"},{"sailorId":2,"type":"OAR"},{"sailorId":3,"type":"OAR"},{"sailorId":4,"type":"TURN","rotation":-5.556319293553713E-15},{"sailorId":5,"type":"OAR"},{"sailorId":6,"type":"OAR"},{"sailorId":8,"type":"OAR"},{"sailorId":9,"type":"OAR"},{"sailorId":10,"type":"OAR"},{"sailorId":11,"type":"OAR"}]
[0;31m[15/03/2022 20:14:55][0;93m  [INFO][0m    === Tour 112 ===
[0;31m[15/03/2022 20:14:55][0;93m  [INFO][0m   Next round input: {"ship":{"type":"ship", "position":{"x":9176.323940774357, "y":5766.271460101832, "orientation":-0.0020318212272622586}, "name":"kihm", "deck":{"width":3, "length":8}, "entities":[{"x":1, "y":1, "type":"rudder"}, {"x":6, "y":0, "type":"oar"}, {"x":6, "y":2, "type":"oar"}, {"x":5, "y":2, "type":"oar"}, {"x":4, "y":2, "type":"oar"}, {"x":3, "y":2, "type":"oar"}, {"x":3, "y":0, "type":"oar"}, {"x":4, "y":0, "type":"oar"}, {"x":5, "y":0, "type":"oar"}, {"x":6, "y":1, "type":"sail", "openned":true}, {"x":7, "y":2, "type":"oar"}, {"x":7, "y":0, "type":"oar"}], "life":1200, "shape":{"type":"rectangle", "width":3.0, "height":8.0, "orientation":0.0}}, "visibleEntities":[], "wind":{"orientation":0.0, "strength":100.0}}
[0;31m[15/03/2022 20:14:55][0;93m  [INFO][0m   Actions: [{"sailorId":0,"type":"OAR"},{"sailorId":1,"type":"OAR"},{"sailorId":2,"type":"OAR"},{"sailorId":3,"type":"OAR"},{"sailorId":4,"type":"TURN","rotation":2.1840781071242807E-5},{"sailorId":5,"type":"OAR"},{"sailorId":6,"type":"OAR"},{"sailorId":8,"type":"OAR"},{"sailorId":9,"type":"OAR"},{"sailorId":10,"type":"OAR"},{"sailorId":11,"type":"OAR"}]
