Init game input: {"goal":{"mode":"REGATTA","checkpoints":[{"position":{"x":2279.6317218053687,"y":2879.047015765768,"orientation":0.0},"shape":{"type":"circle","radius":100.0}},{"position":{"x":2256.4589017735334,"y":1352.1959459459492,"orientation":0.0},"shape":{"type":"circle","radius":100.0}},{"position":{"x":3590.3073840382,"y":2221.734234234234,"orientation":0.0},"shape":{"type":"circle","radius":80.0}},{"position":{"x":2241.8126847430635,"y":1345.6855292792793,"orientation":0.0},"shape":{"type":"circle","radius":100.0}},{"position":{"x":1132.5943610732181,"y":2342.236768018018,"orientation":0.0},"shape":{"type":"circle","radius":80.0}}]},"ship":{"type":"ship","position":{"x":2185.3061761027725,"y":-227.86458333333408,"orientation":1.5882496193148399},"name":"d3","deck":{"width":3,"length":4},"entities":[{"x":0,"y":0,"type":"oar"},{"x":0,"y":2,"type":"oar"},{"x":1,"y":0,"type":"oar"},{"x":1,"y":2,"type":"oar"},{"x":2,"y":0,"type":"oar"},{"x":2,"y":2,"type":"oar"},{"x":3,"y":1,"type":"rudder"}],"life":300,"shape":{"type":"rectangle","width":3.0,"height":4.0,"orientation":0.0}},"sailors":[{"x":0,"y":0,"id":0,"name":"Tom Pouce"},{"x":0,"y":1,"id":1,"name":"Edward Teach"},{"x":0,"y":2,"id":2,"name":"Edward Teach"},{"x":1,"y":0,"id":3,"name":"Luffy Teach"},{"x":1,"y":1,"id":4,"name":"Luffy Pouce"},{"x":1,"y":2,"id":5,"name":"Jack Pouce"},{"x":2,"y":0,"id":6,"name":"Tom Pouce"}],"shipCount":1}
Next round input: {"ship":{"type":"ship","position":{"x":2185.3061761027725,"y":-227.86458333333408,"orientation":1.5882496193148399},"name":"d3","deck":{"width":3,"length":4},"entities":[{"x":0,"y":0,"type":"oar"},{"x":0,"y":2,"type":"oar"},{"x":1,"y":0,"type":"oar"},{"x":1,"y":2,"type":"oar"},{"x":2,"y":0,"type":"oar"},{"x":2,"y":2,"type":"oar"},{"x":3,"y":1,"type":"rudder"}],"life":300,"shape":{"type":"rectangle","width":3.0,"height":4.0,"orientation":0.0}},"visibleEntities":[],"wind":{"orientation":0.0,"strength":0.0}}
Next round input: {"ship":{"type":"ship","position":{"x":2186.33066031007,"y":-62.88347297872803,"orientation":1.5404457429408869},"name":"d3","deck":{"width":3,"length":4},"entities":[{"x":0,"y":0,"type":"oar"},{"x":0,"y":2,"type":"oar"},{"x":1,"y":0,"type":"oar"},{"x":1,"y":2,"type":"oar"},{"x":2,"y":0,"type":"oar"},{"x":2,"y":2,"type":"oar"},{"x":3,"y":1,"type":"rudder"}],"life":300,"shape":{"type":"rectangle","width":3.0,"height":4.0,"orientation":0.0}},"visibleEntities":[],"wind":{"orientation":0.0,"strength":0.0}}
Next round input: {"ship":{"type":"ship","position":{"x":2191.4481933682896,"y":102.03713429184454,"orientation":1.5390927225746298},"name":"d3","deck":{"width":3,"length":4},"entities":[{"x":0,"y":0,"type":"oar"},{"x":0,"y":2,"type":"oar"},{"x":1,"y":0,"type":"oar"},{"x":1,"y":2,"type":"oar"},{"x":2,"y":0,"type":"oar"},{"x":2,"y":2,"type":"oar"},{"x":3,"y":1,"type":"rudder"}],"life":300,"shape":{"type":"rectangle","width":3.0,"height":4.0,"orientation":0.0}},"visibleEntities":[],"wind":{"orientation":0.0,"strength":0.0}}
Next round input: {"ship":{"type":"ship","position":{"x":2196.6817242823645,"y":266.95411386167603,"orientation":1.539052145259433},"name":"d3","deck":{"width":3,"length":4},"entities":[{"x":0,"y":0,"type":"oar"},{"x":0,"y":2,"type":"oar"},{"x":1,"y":0,"type":"oar"},{"x":1,"y":2,"type":"oar"},{"x":2,"y":0,"type":"oar"},{"x":2,"y":2,"type":"oar"},{"x":3,"y":1,"type":"rudder"}],"life":300,"shape":{"type":"rectangle","width":3.0,"height":4.0,"orientation":0.0}},"visibleEntities":[],"wind":{"orientation":0.0,"strength":0.0}}
Next round input: {"ship":{"type":"ship","position":{"x":2201.918740213276,"y":431.87098281126407,"orientation":1.5390508515068613},"name":"d3","deck":{"width":3,"length":4},"entities":[{"x":0,"y":0,"type":"oar"},{"x":0,"y":2,"type":"oar"},{"x":1,"y":0,"type":"oar"},{"x":1,"y":2,"type":"oar"},{"x":2,"y":0,"type":"oar"},{"x":2,"y":2,"type":"oar"},{"x":3,"y":1,"type":"rudder"}],"life":300,"shape":{"type":"rectangle","width":3.0,"height":4.0,"orientation":0.0}},"visibleEntities":[],"wind":{"orientation":0.0,"strength":0.0}}
Next round input: {"ship":{"type":"ship","position":{"x":2207.1558674860785,"y":596.7878482251098,"orientation":1.539050807477681},"name":"d3","deck":{"width":3,"length":4},"entities":[{"x":0,"y":0,"type":"oar"},{"x":0,"y":2,"type":"oar"},{"x":1,"y":0,"type":"oar"},{"x":1,"y":2,"type":"oar"},{"x":2,"y":0,"type":"oar"},{"x":2,"y":2,"type":"oar"},{"x":3,"y":1,"type":"rudder"}],"life":300,"shape":{"type":"rectangle","width":3.0,"height":4.0,"orientation":0.0}},"visibleEntities":[],"wind":{"orientation":0.0,"strength":0.0}}
Next round input: {"ship":{"type":"ship","position":{"x":2212.3929985569407,"y":761.7047135183436,"orientation":1.5390508058707886},"name":"d3","deck":{"width":3,"length":4},"entities":[{"x":0,"y":0,"type":"oar"},{"x":0,"y":2,"type":"oar"},{"x":1,"y":0,"type":"oar"},{"x":1,"y":2,"type":"oar"},{"x":2,"y":0,"type":"oar"},{"x":2,"y":2,"type":"oar"},{"x":3,"y":1,"type":"rudder"}],"life":300,"shape":{"type":"rectangle","width":3.0,"height":4.0,"orientation":0.0}},"visibleEntities":[],"wind":{"orientation":0.0,"strength":0.0}}
Next round input: {"ship":{"type":"ship","position":{"x":2217.6301297667806,"y":926.6215788071639,"orientation":1.5390508058076835},"name":"d3","deck":{"width":3,"length":4},"entities":[{"x":0,"y":0,"type":"oar"},{"x":0,"y":2,"type":"oar"},{"x":1,"y":0,"type":"oar"},{"x":1,"y":2,"type":"oar"},{"x":2,"y":0,"type":"oar"},{"x":2,"y":2,"type":"oar"},{"x":3,"y":1,"type":"rudder"}],"life":300,"shape":{"type":"rectangle","width":3.0,"height":4.0,"orientation":0.0}},"visibleEntities":[],"wind":{"orientation":0.0,"strength":0.0}}
Next round input: {"ship":{"type":"ship","position":{"x":2222.867260982085,"y":1091.538444095808,"orientation":1.53905080580513},"name":"d3","deck":{"width":3,"length":4},"entities":[{"x":0,"y":0,"type":"oar"},{"x":0,"y":2,"type":"oar"},{"x":1,"y":0,"type":"oar"},{"x":1,"y":2,"type":"oar"},{"x":2,"y":0,"type":"oar"},{"x":2,"y":2,"type":"oar"},{"x":3,"y":1,"type":"rudder"}],"life":300,"shape":{"type":"rectangle","width":3.0,"height":4.0,"orientation":0.0}},"visibleEntities":[],"wind":{"orientation":0.0,"strength":0.0}}
Next round input: {"ship":{"type":"ship","position":{"x":2228.104392197633,"y":1256.4553093844454,"orientation":1.539050805804708},"name":"d3","deck":{"width":3,"length":4},"entities":[{"x":0,"y":0,"type":"oar"},{"x":0,"y":2,"type":"oar"},{"x":1,"y":0,"type":"oar"},{"x":1,"y":2,"type":"oar"},{"x":2,"y":0,"type":"oar"},{"x":2,"y":2,"type":"oar"},{"x":3,"y":1,"type":"rudder"}],"life":300,"shape":{"type":"rectangle","width":3.0,"height":4.0,"orientation":0.0}},"visibleEntities":[],"wind":{"orientation":0.0,"strength":0.0}}
Next round input: {"ship":{"type":"ship","position":{"x":2233.3415234132076,"y":1421.3721746730828,"orientation":1.5390508058047303},"name":"d3","deck":{"width":3,"length":4},"entities":[{"x":0,"y":0,"type":"oar"},{"x":0,"y":2,"type":"oar"},{"x":1,"y":0,"type":"oar"},{"x":1,"y":2,"type":"oar"},{"x":2,"y":0,"type":"oar"},{"x":2,"y":2,"type":"oar"},{"x":3,"y":1,"type":"rudder"}],"life":300,"shape":{"type":"rectangle","width":3.0,"height":4.0,"orientation":0.0}},"visibleEntities":[],"wind":{"orientation":0.0,"strength":0.0}}
Next round input: {"ship":{"type":"ship","position":{"x":2238.5786546287704,"y":1586.2890399617202,"orientation":1.5390508058047747},"name":"d3","deck":{"width":3,"length":4},"entities":[{"x":0,"y":0,"type":"oar"},{"x":0,"y":2,"type":"oar"},{"x":1,"y":0,"type":"oar"},{"x":1,"y":2,"type":"oar"},{"x":2,"y":0,"type":"oar"},{"x":2,"y":2,"type":"oar"},{"x":3,"y":1,"type":"rudder"}],"life":300,"shape":{"type":"rectangle","width":3.0,"height":4.0,"orientation":0.0}},"visibleEntities":[],"wind":{"orientation":0.0,"strength":0.0}}
Next round input: {"ship":{"type":"ship","position":{"x":2243.8157858443333,"y":1751.2059052503575,"orientation":1.5390508058048191},"name":"d3","deck":{"width":3,"length":4},"entities":[{"x":0,"y":0,"type":"oar"},{"x":0,"y":2,"type":"oar"},{"x":1,"y":0,"type":"oar"},{"x":1,"y":2,"type":"oar"},{"x":2,"y":0,"type":"oar"},{"x":2,"y":2,"type":"oar"},{"x":3,"y":1,"type":"rudder"}],"life":300,"shape":{"type":"rectangle","width":3.0,"height":4.0,"orientation":0.0}},"visibleEntities":[],"wind":{"orientation":0.0,"strength":0.0}}
Next round input: {"ship":{"type":"ship","position":{"x":2249.052917059896,"y":1916.122770538995,"orientation":1.5390508058048635},"name":"d3","deck":{"width":3,"length":4},"entities":[{"x":0,"y":0,"type":"oar"},{"x":0,"y":2,"type":"oar"},{"x":1,"y":0,"type":"oar"},{"x":1,"y":2,"type":"oar"},{"x":2,"y":0,"type":"oar"},{"x":2,"y":2,"type":"oar"},{"x":3,"y":1,"type":"rudder"}],"life":300,"shape":{"type":"rectangle","width":3.0,"height":4.0,"orientation":0.0}},"visibleEntities":[],"wind":{"orientation":0.0,"strength":0.0}}
Next round input: {"ship":{"type":"ship","position":{"x":2254.290048275459,"y":2081.039635827637,"orientation":1.539050805804908},"name":"d3","deck":{"width":3,"length":4},"entities":[{"x":0,"y":0,"type":"oar"},{"x":0,"y":2,"type":"oar"},{"x":1,"y":0,"type":"oar"},{"x":1,"y":2,"type":"oar"},{"x":2,"y":0,"type":"oar"},{"x":2,"y":2,"type":"oar"},{"x":3,"y":1,"type":"rudder"}],"life":300,"shape":{"type":"rectangle","width":3.0,"height":4.0,"orientation":0.0}},"visibleEntities":[],"wind":{"orientation":0.0,"strength":0.0}}
Next round input: {"ship":{"type":"ship","position":{"x":2259.527179491022,"y":2245.956501116297,"orientation":1.5390508058049523},"name":"d3","deck":{"width":3,"length":4},"entities":[{"x":0,"y":0,"type":"oar"},{"x":0,"y":2,"type":"oar"},{"x":1,"y":0,"type":"oar"},{"x":1,"y":2,"type":"oar"},{"x":2,"y":0,"type":"oar"},{"x":2,"y":2,"type":"oar"},{"x":3,"y":1,"type":"rudder"}],"life":300,"shape":{"type":"rectangle","width":3.0,"height":4.0,"orientation":0.0}},"visibleEntities":[],"wind":{"orientation":0.0,"strength":0.0}}
Next round input: {"ship":{"type":"ship","position":{"x":2264.7643107065646,"y":2410.8733664049573,"orientation":1.539050805805019},"name":"d3","deck":{"width":3,"length":4},"entities":[{"x":0,"y":0,"type":"oar"},{"x":0,"y":2,"type":"oar"},{"x":1,"y":0,"type":"oar"},{"x":1,"y":2,"type":"oar"},{"x":2,"y":0,"type":"oar"},{"x":2,"y":2,"type":"oar"},{"x":3,"y":1,"type":"rudder"}],"life":300,"shape":{"type":"rectangle","width":3.0,"height":4.0,"orientation":0.0}},"visibleEntities":[],"wind":{"orientation":0.0,"strength":0.0}}
Next round input: {"ship":{"type":"ship","position":{"x":2270.001441922082,"y":2575.7902316936174,"orientation":1.5390508058050412},"name":"d3","deck":{"width":3,"length":4},"entities":[{"x":0,"y":0,"type":"oar"},{"x":0,"y":2,"type":"oar"},{"x":1,"y":0,"type":"oar"},{"x":1,"y":2,"type":"oar"},{"x":2,"y":0,"type":"oar"},{"x":2,"y":2,"type":"oar"},{"x":3,"y":1,"type":"rudder"}],"life":300,"shape":{"type":"rectangle","width":3.0,"height":4.0,"orientation":0.0}},"visibleEntities":[],"wind":{"orientation":0.0,"strength":0.0}}
Next round input: {"ship":{"type":"ship","position":{"x":2275.238573137627,"y":2740.7070969822776,"orientation":1.539050805804908},"name":"d3","deck":{"width":3,"length":4},"entities":[{"x":0,"y":0,"type":"oar"},{"x":0,"y":2,"type":"oar"},{"x":1,"y":0,"type":"oar"},{"x":1,"y":2,"type":"oar"},{"x":2,"y":0,"type":"oar"},{"x":2,"y":2,"type":"oar"},{"x":3,"y":1,"type":"rudder"}],"life":300,"shape":{"type":"rectangle","width":3.0,"height":4.0,"orientation":0.0}},"visibleEntities":[],"wind":{"orientation":0.0,"strength":0.0}}
Next round input: {"ship":{"type":"ship","position":{"x":2280.4757043532163,"y":2905.623962270921,"orientation":1.5390508058044416},"name":"d3","deck":{"width":3,"length":4},"entities":[{"x":0,"y":0,"type":"oar"},{"x":0,"y":2,"type":"oar"},{"x":1,"y":0,"type":"oar"},{"x":1,"y":2,"type":"oar"},{"x":2,"y":0,"type":"oar"},{"x":2,"y":2,"type":"oar"},{"x":3,"y":1,"type":"rudder"}],"life":300,"shape":{"type":"rectangle","width":3.0,"height":4.0,"orientation":0.0}},"visibleEntities":[],"wind":{"orientation":0.0,"strength":0.0}}
Next round input: {"ship":{"type":"ship","position":{"x":2340.7322359529235,"y":2929.185014517738,"orientation":-0.817143684387904},"name":"d3","deck":{"width":3,"length":4},"entities":[{"x":0,"y":0,"type":"oar"},{"x":0,"y":2,"type":"oar"},{"x":1,"y":0,"type":"oar"},{"x":1,"y":2,"type":"oar"},{"x":2,"y":0,"type":"oar"},{"x":2,"y":2,"type":"oar"},{"x":3,"y":1,"type":"rudder"}],"life":300,"shape":{"type":"rectangle","width":3.0,"height":4.0,"orientation":0.0}},"visibleEntities":[],"wind":{"orientation":0.0,"strength":0.0}}
Next round input: {"ship":{"type":"ship","position":{"x":2326.1715972482543,"y":2835.0625604239754,"orientation":-2.649739398981955},"name":"d3","deck":{"width":3,"length":4},"entities":[{"x":0,"y":0,"type":"oar"},{"x":0,"y":2,"type":"oar"},{"x":1,"y":0,"type":"oar"},{"x":1,"y":2,"type":"oar"},{"x":2,"y":0,"type":"oar"},{"x":2,"y":2,"type":"oar"},{"x":3,"y":1,"type":"rudder"}],"life":300,"shape":{"type":"rectangle","width":3.0,"height":4.0,"orientation":0.0}},"visibleEntities":[],"wind":{"orientation":0.0,"strength":0.0}}
Next round input: {"ship":{"type":"ship","position":{"x":2180.730836787985,"y":2757.139616455342,"orientation":-2.649739398981955},"name":"d3","deck":{"width":3,"length":4},"entities":[{"x":0,"y":0,"type":"oar"},{"x":0,"y":2,"type":"oar"},{"x":1,"y":0,"type":"oar"},{"x":1,"y":2,"type":"oar"},{"x":2,"y":0,"type":"oar"},{"x":2,"y":2,"type":"oar"},{"x":3,"y":1,"type":"rudder"}],"life":300,"shape":{"type":"rectangle","width":3.0,"height":4.0,"orientation":0.0}},"visibleEntities":[],"wind":{"orientation":0.0,"strength":0.0}}
Next round input: {"ship":{"type":"ship","position":{"x":2127.301271022302,"y":2640.9427409154873,"orientation":-1.3407424599862003},"name":"d3","deck":{"width":3,"length":4},"entities":[{"x":0,"y":0,"type":"oar"},{"x":0,"y":2,"type":"oar"},{"x":1,"y":0,"type":"oar"},{"x":1,"y":2,"type":"oar"},{"x":2,"y":0,"type":"oar"},{"x":2,"y":2,"type":"oar"},{"x":3,"y":1,"type":"rudder"}],"life":300,"shape":{"type":"rectangle","width":3.0,"height":4.0,"orientation":0.0}},"visibleEntities":[],"wind":{"orientation":0.0,"strength":0.0}}
Next round input: {"ship":{"type":"ship","position":{"x":2154.4847404165066,"y":2478.315425888917,"orientation":-1.4709102974972974},"name":"d3","deck":{"width":3,"length":4},"entities":[{"x":0,"y":0,"type":"oar"},{"x":0,"y":2,"type":"oar"},{"x":1,"y":0,"type":"oar"},{"x":1,"y":2,"type":"oar"},{"x":2,"y":0,"type":"oar"},{"x":2,"y":2,"type":"oar"},{"x":3,"y":1,"type":"rudder"}],"life":300,"shape":{"type":"rectangle","width":3.0,"height":4.0,"orientation":0.0}},"visibleEntities":[],"wind":{"orientation":0.0,"strength":0.0}}
Next round input: {"ship":{"type":"ship","position":{"x":2170.1598568025497,"y":2314.0623206373916,"orientation":-1.480489038130973},"name":"d3","deck":{"width":3,"length":4},"entities":[{"x":0,"y":0,"type":"oar"},{"x":0,"y":2,"type":"oar"},{"x":1,"y":0,"type":"oar"},{"x":1,"y":2,"type":"oar"},{"x":2,"y":0,"type":"oar"},{"x":2,"y":2,"type":"oar"},{"x":3,"y":1,"type":"rudder"}],"life":300,"shape":{"type":"rectangle","width":3.0,"height":4.0,"orientation":0.0}},"visibleEntities":[],"wind":{"orientation":0.0,"strength":0.0}}
Next round input: {"ship":{"type":"ship","position":{"x":2184.9730859751003,"y":2149.7286153545815,"orientation":-1.481315503586401},"name":"d3","deck":{"width":3,"length":4},"entities":[{"x":0,"y":0,"type":"oar"},{"x":0,"y":2,"type":"oar"},{"x":1,"y":0,"type":"oar"},{"x":1,"y":2,"type":"oar"},{"x":2,"y":0,"type":"oar"},{"x":2,"y":2,"type":"oar"},{"x":3,"y":1,"type":"rudder"}],"life":300,"shape":{"type":"rectangle","width":3.0,"height":4.0,"orientation":0.0}},"visibleEntities":[],"wind":{"orientation":0.0,"strength":0.0}}
Next round input: {"ship":{"type":"ship","position":{"x":2199.7107309179146,"y":1985.3881096818745,"orientation":-1.481401506643388},"name":"d3","deck":{"width":3,"length":4},"entities":[{"x":0,"y":0,"type":"oar"},{"x":0,"y":2,"type":"oar"},{"x":1,"y":0,"type":"oar"},{"x":1,"y":2,"type":"oar"},{"x":2,"y":0,"type":"oar"},{"x":2,"y":2,"type":"oar"},{"x":3,"y":1,"type":"rudder"}],"life":300,"shape":{"type":"rectangle","width":3.0,"height":4.0,"orientation":0.0}},"visibleEntities":[],"wind":{"orientation":0.0,"strength":0.0}}
Next round input: {"ship":{"type":"ship","position":{"x":2214.4403212920583,"y":1821.046881844422,"orientation":-1.4814127790454665},"name":"d3","deck":{"width":3,"length":4},"entities":[{"x":0,"y":0,"type":"oar"},{"x":0,"y":2,"type":"oar"},{"x":1,"y":0,"type":"oar"},{"x":1,"y":2,"type":"oar"},{"x":2,"y":0,"type":"oar"},{"x":2,"y":2,"type":"oar"},{"x":3,"y":1,"type":"rudder"}],"life":300,"shape":{"type":"rectangle","width":3.0,"height":4.0,"orientation":0.0}},"visibleEntities":[],"wind":{"orientation":0.0,"strength":0.0}}
Next round input: {"ship":{"type":"ship","position":{"x":2229.1688138232703,"y":1656.7055556122507,"orientation":-1.4814147743995707},"name":"d3","deck":{"width":3,"length":4},"entities":[{"x":0,"y":0,"type":"oar"},{"x":0,"y":2,"type":"oar"},{"x":1,"y":0,"type":"oar"},{"x":1,"y":2,"type":"oar"},{"x":2,"y":0,"type":"oar"},{"x":2,"y":2,"type":"oar"},{"x":3,"y":1,"type":"rudder"}],"life":300,"shape":{"type":"rectangle","width":3.0,"height":4.0,"orientation":0.0}},"visibleEntities":[],"wind":{"orientation":0.0,"strength":0.0}}
Next round input: {"ship":{"type":"ship","position":{"x":2243.8970965159574,"y":1492.3642105741758,"orientation":-1.481415318221536},"name":"d3","deck":{"width":3,"length":4},"entities":[{"x":0,"y":0,"type":"oar"},{"x":0,"y":2,"type":"oar"},{"x":1,"y":0,"type":"oar"},{"x":1,"y":2,"type":"oar"},{"x":2,"y":0,"type":"oar"},{"x":2,"y":2,"type":"oar"},{"x":3,"y":1,"type":"rudder"}],"life":300,"shape":{"type":"rectangle","width":3.0,"height":4.0,"orientation":0.0}},"visibleEntities":[],"wind":{"orientation":0.0,"strength":0.0}}
Next round input: {"ship":{"type":"ship","position":{"x":2258.625307881799,"y":1328.0228591437983,"orientation":-1.4814156402141463},"name":"d3","deck":{"width":3,"length":4},"entities":[{"x":0,"y":0,"type":"oar"},{"x":0,"y":2,"type":"oar"},{"x":1,"y":0,"type":"oar"},{"x":1,"y":2,"type":"oar"},{"x":2,"y":0,"type":"oar"},{"x":2,"y":2,"type":"oar"},{"x":3,"y":1,"type":"rudder"}],"life":300,"shape":{"type":"rectangle","width":3.0,"height":4.0,"orientation":0.0}},"visibleEntities":[],"wind":{"orientation":0.0,"strength":0.0}}
Next round input: {"ship":{"type":"ship","position":{"x":2338.5889381648376,"y":1276.284416994097,"orientation":0.3511800743798975},"name":"d3","deck":{"width":3,"length":4},"entities":[{"x":0,"y":0,"type":"oar"},{"x":0,"y":2,"type":"oar"},{"x":1,"y":0,"type":"oar"},{"x":1,"y":2,"type":"oar"},{"x":2,"y":0,"type":"oar"},{"x":2,"y":2,"type":"oar"},{"x":3,"y":1,"type":"rudder"}],"life":300,"shape":{"type":"rectangle","width":3.0,"height":4.0,"orientation":0.0}},"visibleEntities":[],"wind":{"orientation":0.0,"strength":0.0}}
Next round input: {"ship":{"type":"ship","position":{"x":2483.0549189834755,"y":1354.7495504650287,"orientation":0.6468981597315764},"name":"d3","deck":{"width":3,"length":4},"entities":[{"x":0,"y":0,"type":"oar"},{"x":0,"y":2,"type":"oar"},{"x":1,"y":0,"type":"oar"},{"x":1,"y":2,"type":"oar"},{"x":2,"y":0,"type":"oar"},{"x":2,"y":2,"type":"oar"},{"x":3,"y":1,"type":"rudder"}],"life":300,"shape":{"type":"rectangle","width":3.0,"height":4.0,"orientation":0.0}},"visibleEntities":[],"wind":{"orientation":0.0,"strength":0.0}}
Next round input: {"ship":{"type":"ship","position":{"x":2613.8550831097555,"y":1455.3260423887155,"orientation":0.6642921509665805},"name":"d3","deck":{"width":3,"length":4},"entities":[{"x":0,"y":0,"type":"oar"},{"x":0,"y":2,"type":"oar"},{"x":1,"y":0,"type":"oar"},{"x":1,"y":2,"type":"oar"},{"x":2,"y":0,"type":"oar"},{"x":2,"y":2,"type":"oar"},{"x":3,"y":1,"type":"rudder"}],"life":300,"shape":{"type":"rectangle","width":3.0,"height":4.0,"orientation":0.0}},"visibleEntities":[],"wind":{"orientation":0.0,"strength":0.0}}
Next round input: {"ship":{"type":"ship","position":{"x":2743.7095698669896,"y":1557.1239263377165,"orientation":0.6654597258669985},"name":"d3","deck":{"width":3,"length":4},"entities":[{"x":0,"y":0,"type":"oar"},{"x":0,"y":2,"type":"oar"},{"x":1,"y":0,"type":"oar"},{"x":1,"y":2,"type":"oar"},{"x":2,"y":0,"type":"oar"},{"x":2,"y":2,"type":"oar"},{"x":3,"y":1,"type":"rudder"}],"life":300,"shape":{"type":"rectangle","width":3.0,"height":4.0,"orientation":0.0}},"visibleEntities":[],"wind":{"orientation":0.0,"strength":0.0}}
Next round input: {"ship":{"type":"ship","position":{"x":2873.499460428996,"y":1659.0041711811978,"orientation":0.6655501166691751},"name":"d3","deck":{"width":3,"length":4},"entities":[{"x":0,"y":0,"type":"oar"},{"x":0,"y":2,"type":"oar"},{"x":1,"y":0,"type":"oar"},{"x":1,"y":2,"type":"oar"},{"x":2,"y":0,"type":"oar"},{"x":2,"y":2,"type":"oar"},{"x":3,"y":1,"type":"rudder"}],"life":300,"shape":{"type":"rectangle","width":3.0,"height":4.0,"orientation":0.0}},"visibleEntities":[],"wind":{"orientation":0.0,"strength":0.0}}
Next round input: {"ship":{"type":"ship","position":{"x":3003.284283507893,"y":1760.8908714821926,"orientation":0.6655583815254744},"name":"d3","deck":{"width":3,"length":4},"entities":[{"x":0,"y":0,"type":"oar"},{"x":0,"y":2,"type":"oar"},{"x":1,"y":0,"type":"oar"},{"x":1,"y":2,"type":"oar"},{"x":2,"y":0,"type":"oar"},{"x":2,"y":2,"type":"oar"},{"x":3,"y":1,"type":"rudder"}],"life":300,"shape":{"type":"rectangle","width":3.0,"height":4.0,"orientation":0.0}},"visibleEntities":[],"wind":{"orientation":0.0,"strength":0.0}}
Next round input: {"ship":{"type":"ship","position":{"x":3133.068634796972,"y":1862.778172754094,"orientation":0.6655593042959123},"name":"d3","deck":{"width":3,"length":4},"entities":[{"x":0,"y":0,"type":"oar"},{"x":0,"y":2,"type":"oar"},{"x":1,"y":0,"type":"oar"},{"x":1,"y":2,"type":"oar"},{"x":2,"y":0,"type":"oar"},{"x":2,"y":2,"type":"oar"},{"x":3,"y":1,"type":"rudder"}],"life":300,"shape":{"type":"rectangle","width":3.0,"height":4.0,"orientation":0.0}},"visibleEntities":[],"wind":{"orientation":0.0,"strength":0.0}}
Next round input: {"ship":{"type":"ship","position":{"x":3262.852931935676,"y":1964.665543002876,"orientation":0.6655594365666844},"name":"d3","deck":{"width":3,"length":4},"entities":[{"x":0,"y":0,"type":"oar"},{"x":0,"y":2,"type":"oar"},{"x":1,"y":0,"type":"oar"},{"x":1,"y":2,"type":"oar"},{"x":2,"y":0,"type":"oar"},{"x":2,"y":2,"type":"oar"},{"x":3,"y":1,"type":"rudder"}],"life":300,"shape":{"type":"rectangle","width":3.0,"height":4.0,"orientation":0.0}},"visibleEntities":[],"wind":{"orientation":0.0,"strength":0.0}}
Next round input: {"ship":{"type":"ship","position":{"x":3392.637220933424,"y":2066.5529236216207,"orientation":0.665559463040996},"name":"d3","deck":{"width":3,"length":4},"entities":[{"x":0,"y":0,"type":"oar"},{"x":0,"y":2,"type":"oar"},{"x":1,"y":0,"type":"oar"},{"x":1,"y":2,"type":"oar"},{"x":2,"y":0,"type":"oar"},{"x":2,"y":2,"type":"oar"},{"x":3,"y":1,"type":"rudder"}],"life":300,"shape":{"type":"rectangle","width":3.0,"height":4.0,"orientation":0.0}},"visibleEntities":[],"wind":{"orientation":0.0,"strength":0.0}}
Next round input: {"ship":{"type":"ship","position":{"x":3522.421508126256,"y":2168.440306539469,"orientation":0.6655594718193518},"name":"d3","deck":{"width":3,"length":4},"entities":[{"x":0,"y":0,"type":"oar"},{"x":0,"y":2,"type":"oar"},{"x":1,"y":0,"type":"oar"},{"x":1,"y":2,"type":"oar"},{"x":2,"y":0,"type":"oar"},{"x":2,"y":2,"type":"oar"},{"x":3,"y":1,"type":"rudder"}],"life":300,"shape":{"type":"rectangle","width":3.0,"height":4.0,"orientation":0.0}},"visibleEntities":[],"wind":{"orientation":0.0,"strength":0.0}}
Next round input: {"ship":{"type":"ship","position":{"x":3579.1768139125256,"y":2137.378947127631,"orientation":-1.6906350183729946},"name":"d3","deck":{"width":3,"length":4},"entities":[{"x":0,"y":0,"type":"oar"},{"x":0,"y":2,"type":"oar"},{"x":1,"y":0,"type":"oar"},{"x":1,"y":2,"type":"oar"},{"x":2,"y":0,"type":"oar"},{"x":2,"y":2,"type":"oar"},{"x":3,"y":1,"type":"rudder"}],"life":300,"shape":{"type":"rectangle","width":3.0,"height":4.0,"orientation":0.0}},"visibleEntities":[],"wind":{"orientation":0.0,"strength":0.0}}
Next round input: {"ship":{"type":"ship","position":{"x":3559.4507244517704,"y":1973.5623380961028,"orientation":-1.6906350183729946},"name":"d3","deck":{"width":3,"length":4},"entities":[{"x":0,"y":0,"type":"oar"},{"x":0,"y":2,"type":"oar"},{"x":1,"y":0,"type":"oar"},{"x":1,"y":2,"type":"oar"},{"x":2,"y":0,"type":"oar"},{"x":2,"y":2,"type":"oar"},{"x":3,"y":1,"type":"rudder"}],"life":300,"shape":{"type":"rectangle","width":3.0,"height":4.0,"orientation":0.0}},"visibleEntities":[],"wind":{"orientation":0.0,"strength":0.0}}
Next round input: {"ship":{"type":"ship","position":{"x":3539.724634991015,"y":1809.7457290645748,"orientation":-1.6906350183729946},"name":"d3","deck":{"width":3,"length":4},"entities":[{"x":0,"y":0,"type":"oar"},{"x":0,"y":2,"type":"oar"},{"x":1,"y":0,"type":"oar"},{"x":1,"y":2,"type":"oar"},{"x":2,"y":0,"type":"oar"},{"x":2,"y":2,"type":"oar"},{"x":3,"y":1,"type":"rudder"}],"life":300,"shape":{"type":"rectangle","width":3.0,"height":4.0,"orientation":0.0}},"visibleEntities":[],"wind":{"orientation":0.0,"strength":0.0}}
Next round input: {"ship":{"type":"ship","position":{"x":3450.897248672774,"y":1717.734165535829,"orientation":-2.999631957368749},"name":"d3","deck":{"width":3,"length":4},"entities":[{"x":0,"y":0,"type":"oar"},{"x":0,"y":2,"type":"oar"},{"x":1,"y":0,"type":"oar"},{"x":1,"y":2,"type":"oar"},{"x":2,"y":0,"type":"oar"},{"x":2,"y":2,"type":"oar"},{"x":3,"y":1,"type":"rudder"}],"life":300,"shape":{"type":"rectangle","width":3.0,"height":4.0,"orientation":0.0}},"visibleEntities":[],"wind":{"orientation":0.0,"strength":0.0}}
Next round input: {"ship":{"type":"ship","position":{"x":3290.018985139542,"y":1681.8506150394423,"orientation":-2.8430766343252434},"name":"d3","deck":{"width":3,"length":4},"entities":[{"x":0,"y":0,"type":"oar"},{"x":0,"y":2,"type":"oar"},{"x":1,"y":0,"type":"oar"},{"x":1,"y":2,"type":"oar"},{"x":2,"y":0,"type":"oar"},{"x":2,"y":2,"type":"oar"},{"x":3,"y":1,"type":"rudder"}],"life":300,"shape":{"type":"rectangle","width":3.0,"height":4.0,"orientation":0.0}},"visibleEntities":[],"wind":{"orientation":0.0,"strength":0.0}}
Next round input: {"ship":{"type":"ship","position":{"x":3132.603974844062,"y":1632.401679236407,"orientation":-2.8312502533635997},"name":"d3","deck":{"width":3,"length":4},"entities":[{"x":0,"y":0,"type":"oar"},{"x":0,"y":2,"type":"oar"},{"x":1,"y":0,"type":"oar"},{"x":1,"y":2,"type":"oar"},{"x":2,"y":0,"type":"oar"},{"x":2,"y":2,"type":"oar"},{"x":3,"y":1,"type":"rudder"}],"life":300,"shape":{"type":"rectangle","width":3.0,"height":4.0,"orientation":0.0}},"visibleEntities":[],"wind":{"orientation":0.0,"strength":0.0}}
Next round input: {"ship":{"type":"ship","position":{"x":2975.512473210535,"y":1581.9313156650794,"orientation":-2.830197223487725},"name":"d3","deck":{"width":3,"length":4},"entities":[{"x":0,"y":0,"type":"oar"},{"x":0,"y":2,"type":"oar"},{"x":1,"y":0,"type":"oar"},{"x":1,"y":2,"type":"oar"},{"x":2,"y":0,"type":"oar"},{"x":2,"y":2,"type":"oar"},{"x":3,"y":1,"type":"rudder"}],"life":300,"shape":{"type":"rectangle","width":3.0,"height":4.0,"orientation":0.0}},"visibleEntities":[],"wind":{"orientation":0.0,"strength":0.0}}
Next round input: {"ship":{"type":"ship","position":{"x":2818.450674629792,"y":1531.368568536529,"orientation":-2.830083388394995},"name":"d3","deck":{"width":3,"length":4},"entities":[{"x":0,"y":0,"type":"oar"},{"x":0,"y":2,"type":"oar"},{"x":1,"y":0,"type":"oar"},{"x":1,"y":2,"type":"oar"},{"x":2,"y":0,"type":"oar"},{"x":2,"y":2,"type":"oar"},{"x":3,"y":1,"type":"rudder"}],"life":300,"shape":{"type":"rectangle","width":3.0,"height":4.0,"orientation":0.0}},"visibleEntities":[],"wind":{"orientation":0.0,"strength":0.0}}
Next round input: {"ship":{"type":"ship","position":{"x":2661.3921748733287,"y":1480.7955752130915,"orientation":-2.8300677308152733},"name":"d3","deck":{"width":3,"length":4},"entities":[{"x":0,"y":0,"type":"oar"},{"x":0,"y":2,"type":"oar"},{"x":1,"y":0,"type":"oar"},{"x":1,"y":2,"type":"oar"},{"x":2,"y":0,"type":"oar"},{"x":2,"y":2,"type":"oar"},{"x":3,"y":1,"type":"rudder"}],"life":300,"shape":{"type":"rectangle","width":3.0,"height":4.0,"orientation":0.0}},"visibleEntities":[],"wind":{"orientation":0.0,"strength":0.0}}
Next round input: {"ship":{"type":"ship","position":{"x":2504.3341491012307,"y":1430.221109911406,"orientation":-2.8300647710199756},"name":"d3","deck":{"width":3,"length":4},"entities":[{"x":0,"y":0,"type":"oar"},{"x":0,"y":2,"type":"oar"},{"x":1,"y":0,"type":"oar"},{"x":1,"y":2,"type":"oar"},{"x":2,"y":0,"type":"oar"},{"x":2,"y":2,"type":"oar"},{"x":3,"y":1,"type":"rudder"}],"life":300,"shape":{"type":"rectangle","width":3.0,"height":4.0,"orientation":0.0}},"visibleEntities":[],"wind":{"orientation":0.0,"strength":0.0}}
Next round input: {"ship":{"type":"ship","position":{"x":2347.276221309279,"y":1379.6463403351036,"orientation":-2.830063876792217},"name":"d3","deck":{"width":3,"length":4},"entities":[{"x":0,"y":0,"type":"oar"},{"x":0,"y":2,"type":"oar"},{"x":1,"y":0,"type":"oar"},{"x":1,"y":2,"type":"oar"},{"x":2,"y":0,"type":"oar"},{"x":2,"y":2,"type":"oar"},{"x":3,"y":1,"type":"rudder"}],"life":300,"shape":{"type":"rectangle","width":3.0,"height":4.0,"orientation":0.0}},"visibleEntities":[],"wind":{"orientation":0.0,"strength":0.0}}
Next round input: {"ship":{"type":"ship","position":{"x":2190.21833319206,"y":1329.0714475506588,"orientation":-2.8300632042854112},"name":"d3","deck":{"width":3,"length":4},"entities":[{"x":0,"y":0,"type":"oar"},{"x":0,"y":2,"type":"oar"},{"x":1,"y":0,"type":"oar"},{"x":1,"y":2,"type":"oar"},{"x":2,"y":0,"type":"oar"},{"x":2,"y":2,"type":"oar"},{"x":3,"y":1,"type":"rudder"}],"life":300,"shape":{"type":"rectangle","width":3.0,"height":4.0,"orientation":0.0}},"visibleEntities":[],"wind":{"orientation":0.0,"strength":0.0}}
Next round input: {"ship":{"type":"ship","position":{"x":2184.2131692332514,"y":1264.6516463305993,"orientation":-0.47386871409306786},"name":"d3","deck":{"width":3,"length":4},"entities":[{"x":0,"y":0,"type":"oar"},{"x":0,"y":2,"type":"oar"},{"x":1,"y":0,"type":"oar"},{"x":1,"y":2,"type":"oar"},{"x":2,"y":0,"type":"oar"},{"x":2,"y":2,"type":"oar"},{"x":3,"y":1,"type":"rudder"}],"life":300,"shape":{"type":"rectangle","width":3.0,"height":4.0,"orientation":0.0}},"visibleEntities":[],"wind":{"orientation":0.0,"strength":0.0}}
Next round input: {"ship":{"type":"ship","position":{"x":2234.011139676057,"y":1305.9570324585832,"orientation":1.8823257760992795},"name":"d3","deck":{"width":3,"length":4},"entities":[{"x":0,"y":0,"type":"oar"},{"x":0,"y":2,"type":"oar"},{"x":1,"y":0,"type":"oar"},{"x":1,"y":2,"type":"oar"},{"x":2,"y":0,"type":"oar"},{"x":2,"y":2,"type":"oar"},{"x":3,"y":1,"type":"rudder"}],"life":300,"shape":{"type":"rectangle","width":3.0,"height":4.0,"orientation":0.0}},"visibleEntities":[],"wind":{"orientation":0.0,"strength":0.0}}
Next round input: {"ship":{"type":"ship","position":{"x":2147.1290742342658,"y":1444.1756268613296,"orientation":2.386655734223802},"name":"d3","deck":{"width":3,"length":4},"entities":[{"x":0,"y":0,"type":"oar"},{"x":0,"y":2,"type":"oar"},{"x":1,"y":0,"type":"oar"},{"x":1,"y":2,"type":"oar"},{"x":2,"y":0,"type":"oar"},{"x":2,"y":2,"type":"oar"},{"x":3,"y":1,"type":"rudder"}],"life":300,"shape":{"type":"rectangle","width":3.0,"height":4.0,"orientation":0.0}},"visibleEntities":[],"wind":{"orientation":0.0,"strength":0.0}}
Next round input: {"ship":{"type":"ship","position":{"x":2025.2761876368781,"y":1555.4176282765757,"orientation":2.4170175371476637},"name":"d3","deck":{"width":3,"length":4},"entities":[{"x":0,"y":0,"type":"oar"},{"x":0,"y":2,"type":"oar"},{"x":1,"y":0,"type":"oar"},{"x":1,"y":2,"type":"oar"},{"x":2,"y":0,"type":"oar"},{"x":2,"y":2,"type":"oar"},{"x":3,"y":1,"type":"rudder"}],"life":300,"shape":{"type":"rectangle","width":3.0,"height":4.0,"orientation":0.0}},"visibleEntities":[],"wind":{"orientation":0.0,"strength":0.0}}
Next round input: {"ship":{"type":"ship","position":{"x":1901.6123092522148,"y":1664.6523980633417,"orientation":2.4191434390462723},"name":"d3","deck":{"width":3,"length":4},"entities":[{"x":0,"y":0,"type":"oar"},{"x":0,"y":2,"type":"oar"},{"x":1,"y":0,"type":"oar"},{"x":1,"y":2,"type":"oar"},{"x":2,"y":0,"type":"oar"},{"x":2,"y":2,"type":"oar"},{"x":3,"y":1,"type":"rudder"}],"life":300,"shape":{"type":"rectangle","width":3.0,"height":4.0,"orientation":0.0}},"visibleEntities":[],"wind":{"orientation":0.0,"strength":0.0}}
Next round input: {"ship":{"type":"ship","position":{"x":1777.8218733905887,"y":1773.7437722476827,"orientation":2.4193162687766216},"name":"d3","deck":{"width":3,"length":4},"entities":[{"x":0,"y":0,"type":"oar"},{"x":0,"y":2,"type":"oar"},{"x":1,"y":0,"type":"oar"},{"x":1,"y":2,"type":"oar"},{"x":2,"y":0,"type":"oar"},{"x":2,"y":2,"type":"oar"},{"x":3,"y":1,"type":"rudder"}],"life":300,"shape":{"type":"rectangle","width":3.0,"height":4.0,"orientation":0.0}},"visibleEntities":[],"wind":{"orientation":0.0,"strength":0.0}}
Next round input: {"ship":{"type":"ship","position":{"x":1654.021012239675,"y":1882.8233155986532,"orientation":2.4193330152689034},"name":"d3","deck":{"width":3,"length":4},"entities":[{"x":0,"y":0,"type":"oar"},{"x":0,"y":2,"type":"oar"},{"x":1,"y":0,"type":"oar"},{"x":1,"y":2,"type":"oar"},{"x":2,"y":0,"type":"oar"},{"x":2,"y":2,"type":"oar"},{"x":3,"y":1,"type":"rudder"}],"life":300,"shape":{"type":"rectangle","width":3.0,"height":4.0,"orientation":0.0}},"visibleEntities":[],"wind":{"orientation":0.0,"strength":0.0}}
Next round input: {"ship":{"type":"ship","position":{"x":1530.219120192295,"y":1991.901688915639,"orientation":2.4193350232041437},"name":"d3","deck":{"width":3,"length":4},"entities":[{"x":0,"y":0,"type":"oar"},{"x":0,"y":2,"type":"oar"},{"x":1,"y":0,"type":"oar"},{"x":1,"y":2,"type":"oar"},{"x":2,"y":0,"type":"oar"},{"x":2,"y":2,"type":"oar"},{"x":3,"y":1,"type":"rudder"}],"life":300,"shape":{"type":"rectangle","width":3.0,"height":4.0,"orientation":0.0}},"visibleEntities":[],"wind":{"orientation":0.0,"strength":0.0}}
Next round input: {"ship":{"type":"ship","position":{"x":1406.4171004920593,"y":2100.9799173489164,"orientation":2.419335338919198},"name":"d3","deck":{"width":3,"length":4},"entities":[{"x":0,"y":0,"type":"oar"},{"x":0,"y":2,"type":"oar"},{"x":1,"y":0,"type":"oar"},{"x":1,"y":2,"type":"oar"},{"x":2,"y":0,"type":"oar"},{"x":2,"y":2,"type":"oar"},{"x":3,"y":1,"type":"rudder"}],"life":300,"shape":{"type":"rectangle","width":3.0,"height":4.0,"orientation":0.0}},"visibleEntities":[],"wind":{"orientation":0.0,"strength":0.0}}
Next round input: {"ship":{"type":"ship","position":{"x":1282.6150595086767,"y":2210.058121626164,"orientation":2.419335411004247},"name":"d3","deck":{"width":3,"length":4},"entities":[{"x":0,"y":0,"type":"oar"},{"x":0,"y":2,"type":"oar"},{"x":1,"y":0,"type":"oar"},{"x":1,"y":2,"type":"oar"},{"x":2,"y":0,"type":"oar"},{"x":2,"y":2,"type":"oar"},{"x":3,"y":1,"type":"rudder"}],"life":300,"shape":{"type":"rectangle","width":3.0,"height":4.0,"orientation":0.0}},"visibleEntities":[],"wind":{"orientation":0.0,"strength":0.0}}
Next round input: {"ship":{"type":"ship","position":{"x":1158.813012932502,"y":2319.13631955568,"orientation":2.419335441045239},"name":"d3","deck":{"width":3,"length":4},"entities":[{"x":0,"y":0,"type":"oar"},{"x":0,"y":2,"type":"oar"},{"x":1,"y":0,"type":"oar"},{"x":1,"y":2,"type":"oar"},{"x":2,"y":0,"type":"oar"},{"x":2,"y":2,"type":"oar"},{"x":3,"y":1,"type":"rudder"}],"life":300,"shape":{"type":"rectangle","width":3.0,"height":4.0,"orientation":0.0}},"visibleEntities":[],"wind":{"orientation":0.0,"strength":0.0}}
Next round input: {"ship":{"type":"ship","position":{"x":1035.0109608337593,"y":2428.2145112171684,"orientation":2.419335512679049},"name":"d3","deck":{"width":3,"length":4},"entities":[{"x":0,"y":0,"type":"oar"},{"x":0,"y":2,"type":"oar"},{"x":1,"y":0,"type":"oar"},{"x":1,"y":2,"type":"oar"},{"x":2,"y":0,"type":"oar"},{"x":2,"y":2,"type":"oar"},{"x":3,"y":1,"type":"rudder"}],"life":300,"shape":{"type":"rectangle","width":3.0,"height":4.0,"orientation":0.0}},"visibleEntities":[],"wind":{"orientation":0.0,"strength":0.0}}
Next round input: {"ship":{"type":"ship","position":{"x":1055.2265626966396,"y":2489.674272237902,"orientation":0.06314102248670306},"name":"d3","deck":{"width":3,"length":4},"entities":[{"x":0,"y":0,"type":"oar"},{"x":0,"y":2,"type":"oar"},{"x":1,"y":0,"type":"oar"},{"x":1,"y":2,"type":"oar"},{"x":2,"y":0,"type":"oar"},{"x":2,"y":2,"type":"oar"},{"x":3,"y":1,"type":"rudder"}],"life":300,"shape":{"type":"rectangle","width":3.0,"height":4.0,"orientation":0.0}},"visibleEntities":[],"wind":{"orientation":0.0,"strength":0.0}}
Next round input: {"ship":{"type":"ship","position":{"x":1161.8651351875822,"y":2419.072237987974,"orientation":-1.2458559165090444},"name":"d3","deck":{"width":3,"length":4},"entities":[{"x":0,"y":0,"type":"oar"},{"x":0,"y":2,"type":"oar"},{"x":1,"y":0,"type":"oar"},{"x":1,"y":2,"type":"oar"},{"x":2,"y":0,"type":"oar"},{"x":2,"y":2,"type":"oar"},{"x":3,"y":1,"type":"rudder"}],"life":300,"shape":{"type":"rectangle","width":3.0,"height":4.0,"orientation":0.0}},"visibleEntities":[],"wind":{"orientation":0.0,"strength":0.0}}
Next round input: {"ship":{"type":"ship","position":{"x":1159.2649529240591,"y":2257.336470423239,"orientation":-1.9347766345125939},"name":"d3","deck":{"width":3,"length":4},"entities":[{"x":0,"y":0,"type":"oar"},{"x":0,"y":2,"type":"oar"},{"x":1,"y":0,"type":"oar"},{"x":1,"y":2,"type":"oar"},{"x":2,"y":0,"type":"oar"},{"x":2,"y":2,"type":"oar"},{"x":3,"y":1,"type":"rudder"}],"life":300,"shape":{"type":"rectangle","width":3.0,"height":4.0,"orientation":0.0}},"visibleEntities":[],"wind":{"orientation":0.0,"strength":0.0}}
Next round input: {"ship":{"type":"ship","position":{"x":1205.782412099925,"y":2212.36871780844,"orientation":0.42141785567975365},"name":"d3","deck":{"width":3,"length":4},"entities":[{"x":0,"y":0,"type":"oar"},{"x":0,"y":2,"type":"oar"},{"x":1,"y":0,"type":"oar"},{"x":1,"y":2,"type":"oar"},{"x":2,"y":0,"type":"oar"},{"x":2,"y":2,"type":"oar"},{"x":3,"y":1,"type":"rudder"}],"life":300,"shape":{"type":"rectangle","width":3.0,"height":4.0,"orientation":0.0}},"visibleEntities":[],"wind":{"orientation":0.0,"strength":0.0}}
Next round input: {"ship":{"type":"ship","position":{"x":1228.6292006894953,"y":2304.8299140761933,"orientation":2.2540135702738},"name":"d3","deck":{"width":3,"length":4},"entities":[{"x":0,"y":0,"type":"oar"},{"x":0,"y":2,"type":"oar"},{"x":1,"y":0,"type":"oar"},{"x":1,"y":2,"type":"oar"},{"x":2,"y":0,"type":"oar"},{"x":2,"y":2,"type":"oar"},{"x":3,"y":1,"type":"rudder"}],"life":300,"shape":{"type":"rectangle","width":3.0,"height":4.0,"orientation":0.0}},"visibleEntities":[],"wind":{"orientation":0.0,"strength":0.0}}
Next round input: {"ship":{"type":"ship","position":{"x":1096.980456684091,"y":2401.2384209493307,"orientation":2.7701590351906282},"name":"d3","deck":{"width":3,"length":4},"entities":[{"x":0,"y":0,"type":"oar"},{"x":0,"y":2,"type":"oar"},{"x":1,"y":0,"type":"oar"},{"x":1,"y":2,"type":"oar"},{"x":2,"y":0,"type":"oar"},{"x":2,"y":2,"type":"oar"},{"x":3,"y":1,"type":"rudder"}],"life":300,"shape":{"type":"rectangle","width":3.0,"height":4.0,"orientation":0.0}},"visibleEntities":[],"wind":{"orientation":0.0,"strength":0.0}}
Next round input: {"ship":{"type":"ship","position":{"x":1094.8427713584033,"y":2465.9021904408496,"orientation":0.4139645449982844},"name":"d3","deck":{"width":3,"length":4},"entities":[{"x":0,"y":0,"type":"oar"},{"x":0,"y":2,"type":"oar"},{"x":1,"y":0,"type":"oar"},{"x":1,"y":2,"type":"oar"},{"x":2,"y":0,"type":"oar"},{"x":2,"y":2,"type":"oar"},{"x":3,"y":1,"type":"rudder"}],"life":300,"shape":{"type":"rectangle","width":3.0,"height":4.0,"orientation":0.0}},"visibleEntities":[],"wind":{"orientation":0.0,"strength":0.0}}
Next round input: {"ship":{"type":"ship","position":{"x":1178.7354366589404,"y":2420.812620994109,"orientation":-1.4186311695957607},"name":"d3","deck":{"width":3,"length":4},"entities":[{"x":0,"y":0,"type":"oar"},{"x":0,"y":2,"type":"oar"},{"x":1,"y":0,"type":"oar"},{"x":1,"y":2,"type":"oar"},{"x":2,"y":0,"type":"oar"},{"x":2,"y":2,"type":"oar"},{"x":3,"y":1,"type":"rudder"}],"life":300,"shape":{"type":"rectangle","width":3.0,"height":4.0,"orientation":0.0}},"visibleEntities":[],"wind":{"orientation":0.0,"strength":0.0}}
Next round input: {"ship":{"type":"ship","position":{"x":1148.8142270229794,"y":2261.7924995639305,"orientation":-2.1017635253970655},"name":"d3","deck":{"width":3,"length":4},"entities":[{"x":0,"y":0,"type":"oar"},{"x":0,"y":2,"type":"oar"},{"x":1,"y":0,"type":"oar"},{"x":1,"y":2,"type":"oar"},{"x":2,"y":0,"type":"oar"},{"x":2,"y":2,"type":"oar"},{"x":3,"y":1,"type":"rudder"}],"life":300,"shape":{"type":"rectangle","width":3.0,"height":4.0,"orientation":0.0}},"visibleEntities":[],"wind":{"orientation":0.0,"strength":0.0}}
Next round input: {"ship":{"type":"ship","position":{"x":1187.210454894011,"y":2209.7184900324964,"orientation":0.25443096479528193},"name":"d3","deck":{"width":3,"length":4},"entities":[{"x":0,"y":0,"type":"oar"},{"x":0,"y":2,"type":"oar"},{"x":1,"y":0,"type":"oar"},{"x":1,"y":2,"type":"oar"},{"x":2,"y":0,"type":"oar"},{"x":2,"y":2,"type":"oar"},{"x":3,"y":1,"type":"rudder"}],"life":300,"shape":{"type":"rectangle","width":3.0,"height":4.0,"orientation":0.0}},"visibleEntities":[],"wind":{"orientation":0.0,"strength":0.0}}
Next round input: {"ship":{"type":"ship","position":{"x":1225.1075980943258,"y":2297.0961479398547,"orientation":2.087026679389326},"name":"d3","deck":{"width":3,"length":4},"entities":[{"x":0,"y":0,"type":"oar"},{"x":0,"y":2,"type":"oar"},{"x":1,"y":0,"type":"oar"},{"x":1,"y":2,"type":"oar"},{"x":2,"y":0,"type":"oar"},{"x":2,"y":2,"type":"oar"},{"x":3,"y":1,"type":"rudder"}],"life":300,"shape":{"type":"rectangle","width":3.0,"height":4.0,"orientation":0.0}},"visibleEntities":[],"wind":{"orientation":0.0,"strength":0.0}}
Next round input: {"ship":{"type":"ship","position":{"x":1106.9928361575994,"y":2408.7444099106265,"orientation":2.6876420297879404},"name":"d3","deck":{"width":3,"length":4},"entities":[{"x":0,"y":0,"type":"oar"},{"x":0,"y":2,"type":"oar"},{"x":1,"y":0,"type":"oar"},{"x":1,"y":2,"type":"oar"},{"x":2,"y":0,"type":"oar"},{"x":2,"y":2,"type":"oar"},{"x":3,"y":1,"type":"rudder"}],"life":300,"shape":{"type":"rectangle","width":3.0,"height":4.0,"orientation":0.0}},"visibleEntities":[],"wind":{"orientation":0.0,"strength":0.0}}
Next round input: {"ship":{"type":"ship","position":{"x":1110.1922318282727,"y":2473.364349950421,"orientation":0.33144753959559636},"name":"d3","deck":{"width":3,"length":4},"entities":[{"x":0,"y":0,"type":"oar"},{"x":0,"y":2,"type":"oar"},{"x":1,"y":0,"type":"oar"},{"x":1,"y":2,"type":"oar"},{"x":2,"y":0,"type":"oar"},{"x":2,"y":2,"type":"oar"},{"x":3,"y":1,"type":"rudder"}],"life":300,"shape":{"type":"rectangle","width":3.0,"height":4.0,"orientation":0.0}},"visibleEntities":[],"wind":{"orientation":0.0,"strength":0.0}}
Next round input: {"ship":{"type":"ship","position":{"x":1190.0830088971002,"y":2421.513483964794,"orientation":-1.5011481749984485},"name":"d3","deck":{"width":3,"length":4},"entities":[{"x":0,"y":0,"type":"oar"},{"x":0,"y":2,"type":"oar"},{"x":1,"y":0,"type":"oar"},{"x":1,"y":2,"type":"oar"},{"x":2,"y":0,"type":"oar"},{"x":2,"y":2,"type":"oar"},{"x":3,"y":1,"type":"rudder"}],"life":300,"shape":{"type":"rectangle","width":3.0,"height":4.0,"orientation":0.0}},"visibleEntities":[],"wind":{"orientation":0.0,"strength":0.0}}
Next round input: {"ship":{"type":"ship","position":{"x":1146.1172840872755,"y":2265.9260812810035,"orientation":-2.1982122339749193},"name":"d3","deck":{"width":3,"length":4},"entities":[{"x":0,"y":0,"type":"oar"},{"x":0,"y":2,"type":"oar"},{"x":1,"y":0,"type":"oar"},{"x":1,"y":2,"type":"oar"},{"x":2,"y":0,"type":"oar"},{"x":2,"y":2,"type":"oar"},{"x":3,"y":1,"type":"rudder"}],"life":300,"shape":{"type":"rectangle","width":3.0,"height":4.0,"orientation":0.0}},"visibleEntities":[],"wind":{"orientation":0.0,"strength":0.0}}
Next round input: {"ship":{"type":"ship","position":{"x":1179.320374924871,"y":2210.3965617239755,"orientation":0.15798225621742756},"name":"d3","deck":{"width":3,"length":4},"entities":[{"x":0,"y":0,"type":"oar"},{"x":0,"y":2,"type":"oar"},{"x":1,"y":0,"type":"oar"},{"x":1,"y":2,"type":"oar"},{"x":2,"y":0,"type":"oar"},{"x":2,"y":2,"type":"oar"},{"x":3,"y":1,"type":"rudder"}],"life":300,"shape":{"type":"rectangle","width":3.0,"height":4.0,"orientation":0.0}},"visibleEntities":[],"wind":{"orientation":0.0,"strength":0.0}}
Next round input: {"ship":{"type":"ship","position":{"x":1225.4557908821132,"y":2293.7186593846354,"orientation":1.9905779708114708},"name":"d3","deck":{"width":3,"length":4},"entities":[{"x":0,"y":0,"type":"oar"},{"x":0,"y":2,"type":"oar"},{"x":1,"y":0,"type":"oar"},{"x":1,"y":2,"type":"oar"},{"x":2,"y":0,"type":"oar"},{"x":2,"y":2,"type":"oar"},{"x":3,"y":1,"type":"rudder"}],"life":300,"shape":{"type":"rectangle","width":3.0,"height":4.0,"orientation":0.0}},"visibleEntities":[],"wind":{"orientation":0.0,"strength":0.0}}
Next round input: {"ship":{"type":"ship","position":{"x":1114.931323091535,"y":2412.0717489588847,"orientation":2.660124312635994},"name":"d3","deck":{"width":3,"length":4},"entities":[{"x":0,"y":0,"type":"oar"},{"x":0,"y":2,"type":"oar"},{"x":1,"y":0,"type":"oar"},{"x":1,"y":2,"type":"oar"},{"x":2,"y":0,"type":"oar"},{"x":2,"y":2,"type":"oar"},{"x":3,"y":1,"type":"rudder"}],"life":300,"shape":{"type":"rectangle","width":3.0,"height":4.0,"orientation":0.0}},"visibleEntities":[],"wind":{"orientation":0.0,"strength":0.0}}
Next round input: {"ship":{"type":"ship","position":{"x":1119.907476333403,"y":2476.5791956787602,"orientation":0.30392982244364997},"name":"d3","deck":{"width":3,"length":4},"entities":[{"x":0,"y":0,"type":"oar"},{"x":0,"y":2,"type":"oar"},{"x":1,"y":0,"type":"oar"},{"x":1,"y":2,"type":"oar"},{"x":2,"y":0,"type":"oar"},{"x":2,"y":2,"type":"oar"},{"x":3,"y":1,"type":"rudder"}],"life":300,"shape":{"type":"rectangle","width":3.0,"height":4.0,"orientation":0.0}},"visibleEntities":[],"wind":{"orientation":0.0,"strength":0.0}}
Next round input: {"ship":{"type":"ship","position":{"x":1198.341370272893,"y":2422.549825465799,"orientation":-1.5286658921503948},"name":"d3","deck":{"width":3,"length":4},"entities":[{"x":0,"y":0,"type":"oar"},{"x":0,"y":2,"type":"oar"},{"x":1,"y":0,"type":"oar"},{"x":1,"y":2,"type":"oar"},{"x":2,"y":0,"type":"oar"},{"x":2,"y":2,"type":"oar"},{"x":3,"y":1,"type":"rudder"}],"life":300,"shape":{"type":"rectangle","width":3.0,"height":4.0,"orientation":0.0}},"visibleEntities":[],"wind":{"orientation":0.0,"strength":0.0}}
Next round input: {"ship":{"type":"ship","position":{"x":1147.838142024885,"y":2269.276335884814,"orientation":-2.2567967115981755},"name":"d3","deck":{"width":3,"length":4},"entities":[{"x":0,"y":0,"type":"oar"},{"x":0,"y":2,"type":"oar"},{"x":1,"y":0,"type":"oar"},{"x":1,"y":2,"type":"oar"},{"x":2,"y":0,"type":"oar"},{"x":2,"y":2,"type":"oar"},{"x":3,"y":1,"type":"rudder"}],"life":300,"shape":{"type":"rectangle","width":3.0,"height":4.0,"orientation":0.0}},"visibleEntities":[],"wind":{"orientation":0.0,"strength":0.0}}
Next round input: {"ship":{"type":"ship","position":{"x":1177.7329629854967,"y":2211.8980084158375,"orientation":0.09939777859417112},"name":"d3","deck":{"width":3,"length":4},"entities":[{"x":0,"y":0,"type":"oar"},{"x":0,"y":2,"type":"oar"},{"x":1,"y":0,"type":"oar"},{"x":1,"y":2,"type":"oar"},{"x":2,"y":0,"type":"oar"},{"x":2,"y":2,"type":"oar"},{"x":3,"y":1,"type":"rudder"}],"life":300,"shape":{"type":"rectangle","width":3.0,"height":4.0,"orientation":0.0}},"visibleEntities":[],"wind":{"orientation":0.0,"strength":0.0}}
Next round input: {"ship":{"type":"ship","position":{"x":1228.667819737484,"y":2292.375886940154,"orientation":1.9319934931882146},"name":"d3","deck":{"width":3,"length":4},"entities":[{"x":0,"y":0,"type":"oar"},{"x":0,"y":2,"type":"oar"},{"x":1,"y":0,"type":"oar"},{"x":1,"y":2,"type":"oar"},{"x":2,"y":0,"type":"oar"},{"x":2,"y":2,"type":"oar"},{"x":3,"y":1,"type":"rudder"}],"life":300,"shape":{"type":"rectangle","width":3.0,"height":4.0,"orientation":0.0}},"visibleEntities":[],"wind":{"orientation":0.0,"strength":0.0}}
Next round input: {"ship":{"type":"ship","position":{"x":1121.913379351618,"y":2413.363716760409,"orientation":2.662871037958338},"name":"d3","deck":{"width":3,"length":4},"entities":[{"x":0,"y":0,"type":"oar"},{"x":0,"y":2,"type":"oar"},{"x":1,"y":0,"type":"oar"},{"x":1,"y":2,"type":"oar"},{"x":2,"y":0,"type":"oar"},{"x":2,"y":2,"type":"oar"},{"x":3,"y":1,"type":"rudder"}],"life":300,"shape":{"type":"rectangle","width":3.0,"height":4.0,"orientation":0.0}},"visibleEntities":[],"wind":{"orientation":0.0,"strength":0.0}}
Next round input: {"ship":{"type":"ship","position":{"x":1126.7123298076128,"y":2477.8845882511537,"orientation":0.3066765477659936},"name":"d3","deck":{"width":3,"length":4},"entities":[{"x":0,"y":0,"type":"oar"},{"x":0,"y":2,"type":"oar"},{"x":1,"y":0,"type":"oar"},{"x":1,"y":2,"type":"oar"},{"x":2,"y":0,"type":"oar"},{"x":2,"y":2,"type":"oar"},{"x":3,"y":1,"type":"rudder"}],"life":300,"shape":{"type":"rectangle","width":3.0,"height":4.0,"orientation":0.0}},"visibleEntities":[],"wind":{"orientation":0.0,"strength":0.0}}
Next round input: {"ship":{"type":"ship","position":{"x":1205.2943315277396,"y":2424.070857942076,"orientation":-1.5259191668280512},"name":"d3","deck":{"width":3,"length":4},"entities":[{"x":0,"y":0,"type":"oar"},{"x":0,"y":2,"type":"oar"},{"x":1,"y":0,"type":"oar"},{"x":1,"y":2,"type":"oar"},{"x":2,"y":0,"type":"oar"},{"x":2,"y":2,"type":"oar"},{"x":3,"y":1,"type":"rudder"}],"life":300,"shape":{"type":"rectangle","width":3.0,"height":4.0,"orientation":0.0}},"visibleEntities":[],"wind":{"orientation":0.0,"strength":0.0}}
Next round input: {"ship":{"type":"ship","position":{"x":1152.0953550340273,"y":2272.1761410735544,"orientation":-2.297155696964508},"name":"d3","deck":{"width":3,"length":4},"entities":[{"x":0,"y":0,"type":"oar"},{"x":0,"y":2,"type":"oar"},{"x":1,"y":0,"type":"oar"},{"x":1,"y":2,"type":"oar"},{"x":2,"y":0,"type":"oar"},{"x":2,"y":2,"type":"oar"},{"x":3,"y":1,"type":"rudder"}],"life":300,"shape":{"type":"rectangle","width":3.0,"height":4.0,"orientation":0.0}},"visibleEntities":[],"wind":{"orientation":0.0,"strength":0.0}}
Next round input: {"ship":{"type":"ship","position":{"x":1179.6507297764283,"y":2213.6383404126996,"orientation":0.05903879322783846},"name":"d3","deck":{"width":3,"length":4},"entities":[{"x":0,"y":0,"type":"oar"},{"x":0,"y":2,"type":"oar"},{"x":1,"y":0,"type":"oar"},{"x":1,"y":2,"type":"oar"},{"x":2,"y":0,"type":"oar"},{"x":2,"y":2,"type":"oar"},{"x":3,"y":1,"type":"rudder"}],"life":300,"shape":{"type":"rectangle","width":3.0,"height":4.0,"orientation":0.0}},"visibleEntities":[],"wind":{"orientation":0.0,"strength":0.0}}
Next round input: {"ship":{"type":"ship","position":{"x":1233.7912334391435,"y":2291.995563610486,"orientation":1.891634507821882},"name":"d3","deck":{"width":3,"length":4},"entities":[{"x":0,"y":0,"type":"oar"},{"x":0,"y":2,"type":"oar"},{"x":1,"y":0,"type":"oar"},{"x":1,"y":2,"type":"oar"},{"x":2,"y":0,"type":"oar"},{"x":2,"y":2,"type":"oar"},{"x":3,"y":1,"type":"rudder"}],"life":300,"shape":{"type":"rectangle","width":3.0,"height":4.0,"orientation":0.0}},"visibleEntities":[],"wind":{"orientation":0.0,"strength":0.0}}
Next round input: {"ship":{"type":"ship","position":{"x":1181.7564900507764,"y":2448.575848067081,"orientation":1.891634507821882},"name":"d3","deck":{"width":3,"length":4},"entities":[{"x":0,"y":0,"type":"oar"},{"x":0,"y":2,"type":"oar"},{"x":1,"y":0,"type":"oar"},{"x":1,"y":2,"type":"oar"},{"x":2,"y":0,"type":"oar"},{"x":2,"y":2,"type":"oar"},{"x":3,"y":1,"type":"rudder"}],"life":300,"shape":{"type":"rectangle","width":3.0,"height":4.0,"orientation":0.0}},"visibleEntities":[],"wind":{"orientation":0.0,"strength":0.0}}
Next round input: {"ship":{"type":"ship","position":{"x":1230.1700685238118,"y":2491.4955195807283,"orientation":-0.46455998237046536},"name":"d3","deck":{"width":3,"length":4},"entities":[{"x":0,"y":0,"type":"oar"},{"x":0,"y":2,"type":"oar"},{"x":1,"y":0,"type":"oar"},{"x":1,"y":2,"type":"oar"},{"x":2,"y":0,"type":"oar"},{"x":2,"y":2,"type":"oar"},{"x":3,"y":1,"type":"rudder"}],"life":300,"shape":{"type":"rectangle","width":3.0,"height":4.0,"orientation":0.0}},"visibleEntities":[],"wind":{"orientation":0.0,"strength":0.0}}
Next round input: {"ship":{"type":"ship","position":{"x":1249.007863346646,"y":2398.1350030315316,"orientation":-2.2971556969645124},"name":"d3","deck":{"width":3,"length":4},"entities":[{"x":0,"y":0,"type":"oar"},{"x":0,"y":2,"type":"oar"},{"x":1,"y":0,"type":"oar"},{"x":1,"y":2,"type":"oar"},{"x":2,"y":0,"type":"oar"},{"x":2,"y":2,"type":"oar"},{"x":3,"y":1,"type":"rudder"}],"life":300,"shape":{"type":"rectangle","width":3.0,"height":4.0,"orientation":0.0}},"visibleEntities":[],"wind":{"orientation":0.0,"strength":0.0}}
Next round input: {"ship":{"type":"ship","position":{"x":1118.3188583521476,"y":2299.1900143081452,"orientation":-2.6939347750523956},"name":"d3","deck":{"width":3,"length":4},"entities":[{"x":0,"y":0,"type":"oar"},{"x":0,"y":2,"type":"oar"},{"x":1,"y":0,"type":"oar"},{"x":1,"y":2,"type":"oar"},{"x":2,"y":0,"type":"oar"},{"x":2,"y":2,"type":"oar"},{"x":3,"y":1,"type":"rudder"}],"life":300,"shape":{"type":"rectangle","width":3.0,"height":4.0,"orientation":0.0}},"visibleEntities":[],"wind":{"orientation":0.0,"strength":0.0}}
Next round input: {"ship":{"type":"ship","position":{"x":1121.1115565391967,"y":2234.5512208460127,"orientation":-0.3377402848600516},"name":"d3","deck":{"width":3,"length":4},"entities":[{"x":0,"y":0,"type":"oar"},{"x":0,"y":2,"type":"oar"},{"x":1,"y":0,"type":"oar"},{"x":1,"y":2,"type":"oar"},{"x":2,"y":0,"type":"oar"},{"x":2,"y":2,"type":"oar"},{"x":3,"y":1,"type":"rudder"}],"life":300,"shape":{"type":"rectangle","width":3.0,"height":4.0,"orientation":0.0}},"visibleEntities":[],"wind":{"orientation":0.0,"strength":0.0}}
Next round input: {"ship":{"type":"ship","position":{"x":1201.3270339680562,"y":2285.8983312319,"orientation":1.4948554297339922},"name":"d3","deck":{"width":3,"length":4},"entities":[{"x":0,"y":0,"type":"oar"},{"x":0,"y":2,"type":"oar"},{"x":1,"y":0,"type":"oar"},{"x":1,"y":2,"type":"oar"},{"x":2,"y":0,"type":"oar"},{"x":2,"y":2,"type":"oar"},{"x":3,"y":1,"type":"rudder"}],"life":300,"shape":{"type":"rectangle","width":3.0,"height":4.0,"orientation":0.0}},"visibleEntities":[],"wind":{"orientation":0.0,"strength":0.0}}
Next round input: {"ship":{"type":"ship","position":{"x":1213.8452417572867,"y":2450.422780702937,"orientation":1.4948554297339922},"name":"d3","deck":{"width":3,"length":4},"entities":[{"x":0,"y":0,"type":"oar"},{"x":0,"y":2,"type":"oar"},{"x":1,"y":0,"type":"oar"},{"x":1,"y":2,"type":"oar"},{"x":2,"y":0,"type":"oar"},{"x":2,"y":2,"type":"oar"},{"x":3,"y":1,"type":"rudder"}],"life":300,"shape":{"type":"rectangle","width":3.0,"height":4.0,"orientation":0.0}},"visibleEntities":[],"wind":{"orientation":0.0,"strength":0.0}}
Next round input: {"ship":{"type":"ship","position":{"x":1275.08388608206,"y":2471.298633372182,"orientation":-0.8613390604583533},"name":"d3","deck":{"width":3,"length":4},"entities":[{"x":0,"y":0,"type":"oar"},{"x":0,"y":2,"type":"oar"},{"x":1,"y":0,"type":"oar"},{"x":1,"y":2,"type":"oar"},{"x":2,"y":0,"type":"oar"},{"x":2,"y":2,"type":"oar"},{"x":3,"y":1,"type":"rudder"}],"life":300,"shape":{"type":"rectangle","width":3.0,"height":4.0,"orientation":0.0}},"visibleEntities":[],"wind":{"orientation":0.0,"strength":0.0}}
Next round input: {"ship":{"type":"ship","position":{"x":1282.9447861213241,"y":2343.6481784818557,"orientation":-2.1703359994541067},"name":"d3","deck":{"width":3,"length":4},"entities":[{"x":0,"y":0,"type":"oar"},{"x":0,"y":2,"type":"oar"},{"x":1,"y":0,"type":"oar"},{"x":1,"y":2,"type":"oar"},{"x":2,"y":0,"type":"oar"},{"x":2,"y":2,"type":"oar"},{"x":3,"y":1,"type":"rudder"}],"life":300,"shape":{"type":"rectangle","width":3.0,"height":4.0,"orientation":0.0}},"visibleEntities":[],"wind":{"orientation":0.0,"strength":0.0}}
Next round input: {"ship":{"type":"ship","position":{"x":1189.8414754304797,"y":2207.424929590927,"orientation":-2.1703359994541067},"name":"d3","deck":{"width":3,"length":4},"entities":[{"x":0,"y":0,"type":"oar"},{"x":0,"y":2,"type":"oar"},{"x":1,"y":0,"type":"oar"},{"x":1,"y":2,"type":"oar"},{"x":2,"y":0,"type":"oar"},{"x":2,"y":2,"type":"oar"},{"x":3,"y":1,"type":"rudder"}],"life":300,"shape":{"type":"rectangle","width":3.0,"height":4.0,"orientation":0.0}},"visibleEntities":[],"wind":{"orientation":0.0,"strength":0.0}}
Next round input: {"ship":{"type":"ship","position":{"x":1224.5794197366336,"y":2152.8424414762717,"orientation":0.18585849073824026},"name":"d3","deck":{"width":3,"length":4},"entities":[{"x":0,"y":0,"type":"oar"},{"x":0,"y":2,"type":"oar"},{"x":1,"y":0,"type":"oar"},{"x":1,"y":2,"type":"oar"},{"x":2,"y":0,"type":"oar"},{"x":2,"y":2,"type":"oar"},{"x":3,"y":1,"type":"rudder"}],"life":300,"shape":{"type":"rectangle","width":3.0,"height":4.0,"orientation":0.0}},"visibleEntities":[],"wind":{"orientation":0.0,"strength":0.0}}
Next round input: {"ship":{"type":"ship","position":{"x":1268.3745057737801,"y":2237.418082195805,"orientation":2.018454205332284},"name":"d3","deck":{"width":3,"length":4},"entities":[{"x":0,"y":0,"type":"oar"},{"x":0,"y":2,"type":"oar"},{"x":1,"y":0,"type":"oar"},{"x":1,"y":2,"type":"oar"},{"x":2,"y":0,"type":"oar"},{"x":2,"y":2,"type":"oar"},{"x":3,"y":1,"type":"rudder"}],"life":300,"shape":{"type":"rectangle","width":3.0,"height":4.0,"orientation":0.0}},"visibleEntities":[],"wind":{"orientation":0.0,"strength":0.0}}
Next round input: {"ship":{"type":"ship","position":{"x":1165.7889284350836,"y":2364.7472099210486,"orientation":2.4841761250462744},"name":"d3","deck":{"width":3,"length":4},"entities":[{"x":0,"y":0,"type":"oar"},{"x":0,"y":2,"type":"oar"},{"x":1,"y":0,"type":"oar"},{"x":1,"y":2,"type":"oar"},{"x":2,"y":0,"type":"oar"},{"x":2,"y":2,"type":"oar"},{"x":3,"y":1,"type":"rudder"}],"life":300,"shape":{"type":"rectangle","width":3.0,"height":4.0,"orientation":0.0}},"visibleEntities":[],"wind":{"orientation":0.0,"strength":0.0}}
Next round input: {"ship":{"type":"ship","position":{"x":1181.97975220051,"y":2427.3876921126857,"orientation":0.12798163485392916},"name":"d3","deck":{"width":3,"length":4},"entities":[{"x":0,"y":0,"type":"oar"},{"x":0,"y":2,"type":"oar"},{"x":1,"y":0,"type":"oar"},{"x":1,"y":2,"type":"oar"},{"x":2,"y":0,"type":"oar"},{"x":2,"y":2,"type":"oar"},{"x":3,"y":1,"type":"rudder"}],"life":300,"shape":{"type":"rectangle","width":3.0,"height":4.0,"orientation":0.0}},"visibleEntities":[],"wind":{"orientation":0.0,"strength":0.0}}
Next round input: {"ship":{"type":"ship","position":{"x":1214.8246206574822,"y":2371.6455411006523,"orientation":-2.2282128553384175},"name":"d3","deck":{"width":3,"length":4},"entities":[{"x":0,"y":0,"type":"oar"},{"x":0,"y":2,"type":"oar"},{"x":1,"y":0,"type":"oar"},{"x":1,"y":2,"type":"oar"},{"x":2,"y":0,"type":"oar"},{"x":2,"y":2,"type":"oar"},{"x":3,"y":1,"type":"rudder"}],"life":300,"shape":{"type":"rectangle","width":3.0,"height":4.0,"orientation":0.0}},"visibleEntities":[],"wind":{"orientation":0.0,"strength":0.0}}
Next round input: {"ship":{"type":"ship","position":{"x":1083.4189860827228,"y":2275.579603502696,"orientation":-2.7981284917209073},"name":"d3","deck":{"width":3,"length":4},"entities":[{"x":0,"y":0,"type":"oar"},{"x":0,"y":2,"type":"oar"},{"x":1,"y":0,"type":"oar"},{"x":1,"y":2,"type":"oar"},{"x":2,"y":0,"type":"oar"},{"x":2,"y":2,"type":"oar"},{"x":3,"y":1,"type":"rudder"}],"life":300,"shape":{"type":"rectangle","width":3.0,"height":4.0,"orientation":0.0}},"visibleEntities":[],"wind":{"orientation":0.0,"strength":0.0}}
Next round input: {"ship":{"type":"ship","position":{"x":1079.4737621586867,"y":2211.000907390174,"orientation":-0.44193400152856355},"name":"d3","deck":{"width":3,"length":4},"entities":[{"x":0,"y":0,"type":"oar"},{"x":0,"y":2,"type":"oar"},{"x":1,"y":0,"type":"oar"},{"x":1,"y":2,"type":"oar"},{"x":2,"y":0,"type":"oar"},{"x":2,"y":2,"type":"oar"},{"x":3,"y":1,"type":"rudder"}],"life":300,"shape":{"type":"rectangle","width":3.0,"height":4.0,"orientation":0.0}},"visibleEntities":[],"wind":{"orientation":0.0,"strength":0.0}}
Next round input: {"ship":{"type":"ship","position":{"x":1164.5945817114796,"y":2253.7267150803905,"orientation":1.3906617130654804},"name":"d3","deck":{"width":3,"length":4},"entities":[{"x":0,"y":0,"type":"oar"},{"x":0,"y":2,"type":"oar"},{"x":1,"y":0,"type":"oar"},{"x":1,"y":2,"type":"oar"},{"x":2,"y":0,"type":"oar"},{"x":2,"y":2,"type":"oar"},{"x":3,"y":1,"type":"rudder"}],"life":300,"shape":{"type":"rectangle","width":3.0,"height":4.0,"orientation":0.0}},"visibleEntities":[],"wind":{"orientation":0.0,"strength":0.0}}
Next round input: {"ship":{"type":"ship","position":{"x":1151.437504036283,"y":2416.2921745331732,"orientation":1.917717510845865},"name":"d3","deck":{"width":3,"length":4},"entities":[{"x":0,"y":0,"type":"oar"},{"x":0,"y":2,"type":"oar"},{"x":1,"y":0,"type":"oar"},{"x":1,"y":2,"type":"oar"},{"x":2,"y":0,"type":"oar"},{"x":2,"y":2,"type":"oar"},{"x":3,"y":1,"type":"rudder"}],"life":300,"shape":{"type":"rectangle","width":3.0,"height":4.0,"orientation":0.0}},"visibleEntities":[],"wind":{"orientation":0.0,"strength":0.0}}
Next round input: {"ship":{"type":"ship","position":{"x":1198.7152680141355,"y":2460.459875590152,"orientation":-0.43847697934648233},"name":"d3","deck":{"width":3,"length":4},"entities":[{"x":0,"y":0,"type":"oar"},{"x":0,"y":2,"type":"oar"},{"x":1,"y":0,"type":"oar"},{"x":1,"y":2,"type":"oar"},{"x":2,"y":0,"type":"oar"},{"x":2,"y":2,"type":"oar"},{"x":3,"y":1,"type":"rudder"}],"life":300,"shape":{"type":"rectangle","width":3.0,"height":4.0,"orientation":0.0}},"visibleEntities":[],"wind":{"orientation":0.0,"strength":0.0}}
Next round input: {"ship":{"type":"ship","position":{"x":1219.9815018404538,"y":2367.6224054449317,"orientation":-2.271072693940529},"name":"d3","deck":{"width":3,"length":4},"entities":[{"x":0,"y":0,"type":"oar"},{"x":0,"y":2,"type":"oar"},{"x":1,"y":0,"type":"oar"},{"x":1,"y":2,"type":"oar"},{"x":2,"y":0,"type":"oar"},{"x":2,"y":2,"type":"oar"},{"x":3,"y":1,"type":"rudder"}],"life":300,"shape":{"type":"rectangle","width":3.0,"height":4.0,"orientation":0.0}},"visibleEntities":[],"wind":{"orientation":0.0,"strength":0.0}}
Next round input: {"ship":{"type":"ship","position":{"x":1083.9038395828684,"y":2278.5548324833526,"orientation":-2.858877531658582},"name":"d3","deck":{"width":3,"length":4},"entities":[{"x":0,"y":0,"type":"oar"},{"x":0,"y":2,"type":"oar"},{"x":1,"y":0,"type":"oar"},{"x":1,"y":2,"type":"oar"},{"x":2,"y":0,"type":"oar"},{"x":2,"y":2,"type":"oar"},{"x":3,"y":1,"type":"rudder"}],"life":300,"shape":{"type":"rectangle","width":3.0,"height":4.0,"orientation":0.0}},"visibleEntities":[],"wind":{"orientation":0.0,"strength":0.0}}
Next round input: {"ship":{"type":"ship","position":{"x":1076.045211997655,"y":2214.334782998154,"orientation":-0.5026830414662389},"name":"d3","deck":{"width":3,"length":4},"entities":[{"x":0,"y":0,"type":"oar"},{"x":0,"y":2,"type":"oar"},{"x":1,"y":0,"type":"oar"},{"x":1,"y":2,"type":"oar"},{"x":2,"y":0,"type":"oar"},{"x":2,"y":2,"type":"oar"},{"x":3,"y":1,"type":"rudder"}],"life":300,"shape":{"type":"rectangle","width":3.0,"height":4.0,"orientation":0.0}},"visibleEntities":[],"wind":{"orientation":0.0,"strength":0.0}}
Next round input: {"ship":{"type":"ship","position":{"x":1163.6029685957017,"y":2251.813948192132,"orientation":1.329912673127805},"name":"d3","deck":{"width":3,"length":4},"entities":[{"x":0,"y":0,"type":"oar"},{"x":0,"y":2,"type":"oar"},{"x":1,"y":0,"type":"oar"},{"x":1,"y":2,"type":"oar"},{"x":2,"y":0,"type":"oar"},{"x":2,"y":2,"type":"oar"},{"x":3,"y":1,"type":"rudder"}],"life":300,"shape":{"type":"rectangle","width":3.0,"height":4.0,"orientation":0.0}},"visibleEntities":[],"wind":{"orientation":0.0,"strength":0.0}}
Next round input: {"ship":{"type":"ship","position":{"x":1156.7878741542436,"y":2414.4371061749375,"orientation":1.9011579823530596},"name":"d3","deck":{"width":3,"length":4},"entities":[{"x":0,"y":0,"type":"oar"},{"x":0,"y":2,"type":"oar"},{"x":1,"y":0,"type":"oar"},{"x":1,"y":2,"type":"oar"},{"x":2,"y":0,"type":"oar"},{"x":2,"y":2,"type":"oar"},{"x":3,"y":1,"type":"rudder"}],"life":300,"shape":{"type":"rectangle","width":3.0,"height":4.0,"orientation":0.0}},"visibleEntities":[],"wind":{"orientation":0.0,"strength":0.0}}
Next round input: {"ship":{"type":"ship","position":{"x":1204.7905189512305,"y":2457.815889881933,"orientation":-0.45503650783928784},"name":"d3","deck":{"width":3,"length":4},"entities":[{"x":0,"y":0,"type":"oar"},{"x":0,"y":2,"type":"oar"},{"x":1,"y":0,"type":"oar"},{"x":1,"y":2,"type":"oar"},{"x":2,"y":0,"type":"oar"},{"x":2,"y":2,"type":"oar"},{"x":3,"y":1,"type":"rudder"}],"life":300,"shape":{"type":"rectangle","width":3.0,"height":4.0,"orientation":0.0}},"visibleEntities":[],"wind":{"orientation":0.0,"strength":0.0}}
Next round input: {"ship":{"type":"ship","position":{"x":1224.5165625805244,"y":2364.639005587299,"orientation":-2.2876322224333343},"name":"d3","deck":{"width":3,"length":4},"entities":[{"x":0,"y":0,"type":"oar"},{"x":0,"y":2,"type":"oar"},{"x":1,"y":0,"type":"oar"},{"x":1,"y":2,"type":"oar"},{"x":2,"y":0,"type":"oar"},{"x":2,"y":2,"type":"oar"},{"x":3,"y":1,"type":"rudder"}],"life":300,"shape":{"type":"rectangle","width":3.0,"height":4.0,"orientation":0.0}},"visibleEntities":[],"wind":{"orientation":0.0,"strength":0.0}}
Next round input: {"ship":{"type":"ship","position":{"x":1086.0198114622053,"y":2279.806105425383,"orientation":-2.902543950028292},"name":"d3","deck":{"width":3,"length":4},"entities":[{"x":0,"y":0,"type":"oar"},{"x":0,"y":2,"type":"oar"},{"x":1,"y":0,"type":"oar"},{"x":1,"y":2,"type":"oar"},{"x":2,"y":0,"type":"oar"},{"x":2,"y":2,"type":"oar"},{"x":3,"y":1,"type":"rudder"}],"life":300,"shape":{"type":"rectangle","width":3.0,"height":4.0,"orientation":0.0}},"visibleEntities":[],"wind":{"orientation":0.0,"strength":0.0}}
Next round input: {"ship":{"type":"ship","position":{"x":1075.3653064692546,"y":2215.990321274758,"orientation":-0.5463494598359491},"name":"d3","deck":{"width":3,"length":4},"entities":[{"x":0,"y":0,"type":"oar"},{"x":0,"y":2,"type":"oar"},{"x":1,"y":0,"type":"oar"},{"x":1,"y":2,"type":"oar"},{"x":2,"y":0,"type":"oar"},{"x":2,"y":2,"type":"oar"},{"x":3,"y":1,"type":"rudder"}],"life":300,"shape":{"type":"rectangle","width":3.0,"height":4.0,"orientation":0.0}},"visibleEntities":[],"wind":{"orientation":0.0,"strength":0.0}}
Next round input: {"ship":{"type":"ship","position":{"x":1164.4756615511365,"y":2249.6116416132204,"orientation":1.2862462547580948},"name":"d3","deck":{"width":3,"length":4},"entities":[{"x":0,"y":0,"type":"oar"},{"x":0,"y":2,"type":"oar"},{"x":1,"y":0,"type":"oar"},{"x":1,"y":2,"type":"oar"},{"x":2,"y":0,"type":"oar"},{"x":2,"y":2,"type":"oar"},{"x":3,"y":1,"type":"rudder"}],"life":300,"shape":{"type":"rectangle","width":3.0,"height":4.0,"orientation":0.0}},"visibleEntities":[],"wind":{"orientation":0.0,"strength":0.0}}
Next round input: {"ship":{"type":"ship","position":{"x":1161.164050357001,"y":2411.9813313655295,"orientation":1.9022922060240814},"name":"d3","deck":{"width":3,"length":4},"entities":[{"x":0,"y":0,"type":"oar"},{"x":0,"y":2,"type":"oar"},{"x":1,"y":0,"type":"oar"},{"x":1,"y":2,"type":"oar"},{"x":2,"y":0,"type":"oar"},{"x":2,"y":2,"type":"oar"},{"x":3,"y":1,"type":"rudder"}],"life":300,"shape":{"type":"rectangle","width":3.0,"height":4.0,"orientation":0.0}},"visibleEntities":[],"wind":{"orientation":0.0,"strength":0.0}}
Next round input: {"ship":{"type":"ship","position":{"x":1209.11746304442,"y":2455.414532894248,"orientation":-0.45390228416826595},"name":"d3","deck":{"width":3,"length":4},"entities":[{"x":0,"y":0,"type":"oar"},{"x":0,"y":2,"type":"oar"},{"x":1,"y":0,"type":"oar"},{"x":1,"y":2,"type":"oar"},{"x":2,"y":0,"type":"oar"},{"x":2,"y":2,"type":"oar"},{"x":3,"y":1,"type":"rudder"}],"life":300,"shape":{"type":"rectangle","width":3.0,"height":4.0,"orientation":0.0}},"visibleEntities":[],"wind":{"orientation":0.0,"strength":0.0}}
Next round input: {"ship":{"type":"ship","position":{"x":1228.949177390398,"y":2362.260082274754,"orientation":-2.2864979987623126},"name":"d3","deck":{"width":3,"length":4},"entities":[{"x":0,"y":0,"type":"oar"},{"x":0,"y":2,"type":"oar"},{"x":1,"y":0,"type":"oar"},{"x":1,"y":2,"type":"oar"},{"x":2,"y":0,"type":"oar"},{"x":2,"y":2,"type":"oar"},{"x":3,"y":1,"type":"rudder"}],"life":300,"shape":{"type":"rectangle","width":3.0,"height":4.0,"orientation":0.0}},"visibleEntities":[],"wind":{"orientation":0.0,"strength":0.0}}
Next round input: {"ship":{"type":"ship","position":{"x":1089.3469070512822,"y":2279.855174733091,"orientation":-2.9367006728101632},"name":"d3","deck":{"width":3,"length":4},"entities":[{"x":0,"y":0,"type":"oar"},{"x":0,"y":2,"type":"oar"},{"x":1,"y":0,"type":"oar"},{"x":1,"y":2,"type":"oar"},{"x":2,"y":0,"type":"oar"},{"x":2,"y":2,"type":"oar"},{"x":3,"y":1,"type":"rudder"}],"life":300,"shape":{"type":"rectangle","width":3.0,"height":4.0,"orientation":0.0}},"visibleEntities":[],"wind":{"orientation":0.0,"strength":0.0}}
Next round input: {"ship":{"type":"ship","position":{"x":1076.519302432504,"y":2216.440465531296,"orientation":-0.5805061826178202},"name":"d3","deck":{"width":3,"length":4},"entities":[{"x":0,"y":0,"type":"oar"},{"x":0,"y":2,"type":"oar"},{"x":1,"y":0,"type":"oar"},{"x":1,"y":2,"type":"oar"},{"x":2,"y":0,"type":"oar"},{"x":2,"y":2,"type":"oar"},{"x":3,"y":1,"type":"rudder"}],"life":300,"shape":{"type":"rectangle","width":3.0,"height":4.0,"orientation":0.0}},"visibleEntities":[],"wind":{"orientation":0.0,"strength":0.0}}
Next round input: {"ship":{"type":"ship","position":{"x":1166.7258516869056,"y":2246.999049198303,"orientation":1.2520895319762237},"name":"d3","deck":{"width":3,"length":4},"entities":[{"x":0,"y":0,"type":"oar"},{"x":0,"y":2,"type":"oar"},{"x":1,"y":0,"type":"oar"},{"x":1,"y":2,"type":"oar"},{"x":2,"y":0,"type":"oar"},{"x":2,"y":2,"type":"oar"},{"x":3,"y":1,"type":"rudder"}],"life":300,"shape":{"type":"rectangle","width":3.0,"height":4.0,"orientation":0.0}},"visibleEntities":[],"wind":{"orientation":0.0,"strength":0.0}}
Next round input: {"ship":{"type":"ship","position":{"x":1165.204124878075,"y":2408.9882616468835,"orientation":1.9149188641170811},"name":"d3","deck":{"width":3,"length":4},"entities":[{"x":0,"y":0,"type":"oar"},{"x":0,"y":2,"type":"oar"},{"x":1,"y":0,"type":"oar"},{"x":1,"y":2,"type":"oar"},{"x":2,"y":0,"type":"oar"},{"x":2,"y":2,"type":"oar"},{"x":3,"y":1,"type":"rudder"}],"life":300,"shape":{"type":"rectangle","width":3.0,"height":4.0,"orientation":0.0}},"visibleEntities":[],"wind":{"orientation":0.0,"strength":0.0}}
Next round input: {"ship":{"type":"ship","position":{"x":1212.605313337034,"y":2453.023476147128,"orientation":-0.44127562607526627},"name":"d3","deck":{"width":3,"length":4},"entities":[{"x":0,"y":0,"type":"oar"},{"x":0,"y":2,"type":"oar"},{"x":1,"y":0,"type":"oar"},{"x":1,"y":2,"type":"oar"},{"x":2,"y":0,"type":"oar"},{"x":2,"y":2,"type":"oar"},{"x":3,"y":1,"type":"rudder"}],"life":300,"shape":{"type":"rectangle","width":3.0,"height":4.0,"orientation":0.0}},"visibleEntities":[],"wind":{"orientation":0.0,"strength":0.0}}
Next round input: {"ship":{"type":"ship","position":{"x":1233.6116449373703,"y":2360.1268529748236,"orientation":-2.273871340669313},"name":"d3","deck":{"width":3,"length":4},"entities":[{"x":0,"y":0,"type":"oar"},{"x":0,"y":2,"type":"oar"},{"x":1,"y":0,"type":"oar"},{"x":1,"y":2,"type":"oar"},{"x":2,"y":0,"type":"oar"},{"x":2,"y":2,"type":"oar"},{"x":3,"y":1,"type":"rudder"}],"life":300,"shape":{"type":"rectangle","width":3.0,"height":4.0,"orientation":0.0}},"visibleEntities":[],"wind":{"orientation":0.0,"strength":0.0}}
Next round input: {"ship":{"type":"ship","position":{"x":1093.665360922748,"y":2279.0739283997937,"orientation":-2.966310847333535},"name":"d3","deck":{"width":3,"length":4},"entities":[{"x":0,"y":0,"type":"oar"},{"x":0,"y":2,"type":"oar"},{"x":1,"y":0,"type":"oar"},{"x":1,"y":2,"type":"oar"},{"x":2,"y":0,"type":"oar"},{"x":2,"y":2,"type":"oar"},{"x":3,"y":1,"type":"rudder"}],"life":300,"shape":{"type":"rectangle","width":3.0,"height":4.0,"orientation":0.0}},"visibleEntities":[],"wind":{"orientation":0.0,"strength":0.0}}
Next round input: {"ship":{"type":"ship","position":{"x":1078.9659330410238,"y":2216.066789095156,"orientation":-0.6101163571411922},"name":"d3","deck":{"width":3,"length":4},"entities":[{"x":0,"y":0,"type":"oar"},{"x":0,"y":2,"type":"oar"},{"x":1,"y":0,"type":"oar"},{"x":1,"y":2,"type":"oar"},{"x":2,"y":0,"type":"oar"},{"x":2,"y":2,"type":"oar"},{"x":3,"y":1,"type":"rudder"}],"life":300,"shape":{"type":"rectangle","width":3.0,"height":4.0,"orientation":0.0}},"visibleEntities":[],"wind":{"orientation":0.0,"strength":0.0}}
Next round input: {"ship":{"type":"ship","position":{"x":1170.0376531067402,"y":2243.941336058152,"orientation":1.2224793574528516},"name":"d3","deck":{"width":3,"length":4},"entities":[{"x":0,"y":0,"type":"oar"},{"x":0,"y":2,"type":"oar"},{"x":1,"y":0,"type":"oar"},{"x":1,"y":2,"type":"oar"},{"x":2,"y":0,"type":"oar"},{"x":2,"y":2,"type":"oar"},{"x":3,"y":1,"type":"rudder"}],"life":300,"shape":{"type":"rectangle","width":3.0,"height":4.0,"orientation":0.0}},"visibleEntities":[],"wind":{"orientation":0.0,"strength":0.0}}
Next round input: {"ship":{"type":"ship","position":{"x":1169.3498190691512,"y":2405.4743529146112,"orientation":1.9347523016162573},"name":"d3","deck":{"width":3,"length":4},"entities":[{"x":0,"y":0,"type":"oar"},{"x":0,"y":2,"type":"oar"},{"x":1,"y":0,"type":"oar"},{"x":1,"y":2,"type":"oar"},{"x":2,"y":0,"type":"oar"},{"x":2,"y":2,"type":"oar"},{"x":3,"y":1,"type":"rudder"}],"life":300,"shape":{"type":"rectangle","width":3.0,"height":4.0,"orientation":0.0}},"visibleEntities":[],"wind":{"orientation":0.0,"strength":0.0}}
Next round input: {"ship":{"type":"ship","position":{"x":1215.8683724269074,"y":2450.4409736115854,"orientation":-0.42144218857609017},"name":"d3","deck":{"width":3,"length":4},"entities":[{"x":0,"y":0,"type":"oar"},{"x":0,"y":2,"type":"oar"},{"x":1,"y":0,"type":"oar"},{"x":1,"y":2,"type":"oar"},{"x":2,"y":0,"type":"oar"},{"x":2,"y":2,"type":"oar"},{"x":3,"y":1,"type":"rudder"}],"life":300,"shape":{"type":"rectangle","width":3.0,"height":4.0,"orientation":0.0}},"visibleEntities":[],"wind":{"orientation":0.0,"strength":0.0}}
Next round input: {"ship":{"type":"ship","position":{"x":1238.7129111610116,"y":2357.979221442669,"orientation":-2.2540379031701363},"name":"d3","deck":{"width":3,"length":4},"entities":[{"x":0,"y":0,"type":"oar"},{"x":0,"y":2,"type":"oar"},{"x":1,"y":0,"type":"oar"},{"x":1,"y":2,"type":"oar"},{"x":2,"y":0,"type":"oar"},{"x":2,"y":2,"type":"oar"},{"x":3,"y":1,"type":"rudder"}],"life":300,"shape":{"type":"rectangle","width":3.0,"height":4.0,"orientation":0.0}},"visibleEntities":[],"wind":{"orientation":0.0,"strength":0.0}}
Next round input: {"ship":{"type":"ship","position":{"x":1098.8591855151767,"y":2277.697008246176,"orientation":-2.9943189400161607},"name":"d3","deck":{"width":3,"length":4},"entities":[{"x":0,"y":0,"type":"oar"},{"x":0,"y":2,"type":"oar"},{"x":1,"y":0,"type":"oar"},{"x":1,"y":2,"type":"oar"},{"x":2,"y":0,"type":"oar"},{"x":2,"y":2,"type":"oar"},{"x":3,"y":1,"type":"rudder"}],"life":300,"shape":{"type":"rectangle","width":3.0,"height":4.0,"orientation":0.0}},"visibleEntities":[],"wind":{"orientation":0.0,"strength":0.0}}
Next round input: {"ship":{"type":"ship","position":{"x":1082.4010436792908,"y":2215.126229517491,"orientation":-0.6381244498238181},"name":"d3","deck":{"width":3,"length":4},"entities":[{"x":0,"y":0,"type":"oar"},{"x":0,"y":2,"type":"oar"},{"x":1,"y":0,"type":"oar"},{"x":1,"y":2,"type":"oar"},{"x":2,"y":0,"type":"oar"},{"x":2,"y":2,"type":"oar"},{"x":3,"y":1,"type":"rudder"}],"life":300,"shape":{"type":"rectangle","width":3.0,"height":4.0,"orientation":0.0}},"visibleEntities":[],"wind":{"orientation":0.0,"strength":0.0}}
Next round input: {"ship":{"type":"ship","position":{"x":1174.2176561530969,"y":2240.4394323562337,"orientation":1.1944712647702258},"name":"d3","deck":{"width":3,"length":4},"entities":[{"x":0,"y":0,"type":"oar"},{"x":0,"y":2,"type":"oar"},{"x":1,"y":0,"type":"oar"},{"x":1,"y":2,"type":"oar"},{"x":2,"y":0,"type":"oar"},{"x":2,"y":2,"type":"oar"},{"x":3,"y":1,"type":"rudder"}],"life":300,"shape":{"type":"rectangle","width":3.0,"height":4.0,"orientation":0.0}},"visibleEntities":[],"wind":{"orientation":0.0,"strength":0.0}}
Next round input: {"ship":{"type":"ship","position":{"x":1173.8818117958128,"y":2401.4509111309985,"orientation":1.9589377295840324},"name":"d3","deck":{"width":3,"length":4},"entities":[{"x":0,"y":0,"type":"oar"},{"x":0,"y":2,"type":"oar"},{"x":1,"y":0,"type":"oar"},{"x":1,"y":2,"type":"oar"},{"x":2,"y":0,"type":"oar"},{"x":2,"y":2,"type":"oar"},{"x":3,"y":1,"type":"rudder"}],"life":300,"shape":{"type":"rectangle","width":3.0,"height":4.0,"orientation":0.0}},"visibleEntities":[],"wind":{"orientation":0.0,"strength":0.0}}
Next round input: {"ship":{"type":"ship","position":{"x":1219.2993297075895,"y":2447.529342637913,"orientation":-0.39725676060831516},"name":"d3","deck":{"width":3,"length":4},"entities":[{"x":0,"y":0,"type":"oar"},{"x":0,"y":2,"type":"oar"},{"x":1,"y":0,"type":"oar"},{"x":1,"y":2,"type":"oar"},{"x":2,"y":0,"type":"oar"},{"x":2,"y":2,"type":"oar"},{"x":3,"y":1,"type":"rudder"}],"life":300,"shape":{"type":"rectangle","width":3.0,"height":4.0,"orientation":0.0}},"visibleEntities":[],"wind":{"orientation":0.0,"strength":0.0}}
Next round input: {"ship":{"type":"ship","position":{"x":1244.3731965284237,"y":2355.6470822892943,"orientation":-2.229852475202361},"name":"d3","deck":{"width":3,"length":4},"entities":[{"x":0,"y":0,"type":"oar"},{"x":0,"y":2,"type":"oar"},{"x":1,"y":0,"type":"oar"},{"x":1,"y":2,"type":"oar"},{"x":2,"y":0,"type":"oar"},{"x":2,"y":2,"type":"oar"},{"x":3,"y":1,"type":"rudder"}],"life":300,"shape":{"type":"rectangle","width":3.0,"height":4.0,"orientation":0.0}},"visibleEntities":[],"wind":{"orientation":0.0,"strength":0.0}}
Next round input: {"ship":{"type":"ship","position":{"x":1143.3319908411854,"y":2225.2029381000166,"orientation":-2.229852475202361},"name":"d3","deck":{"width":3,"length":4},"entities":[{"x":0,"y":0,"type":"oar"},{"x":0,"y":2,"type":"oar"},{"x":1,"y":0,"type":"oar"},{"x":1,"y":2,"type":"oar"},{"x":2,"y":0,"type":"oar"},{"x":2,"y":2,"type":"oar"},{"x":3,"y":1,"type":"rudder"}],"life":300,"shape":{"type":"rectangle","width":3.0,"height":4.0,"orientation":0.0}},"visibleEntities":[],"wind":{"orientation":0.0,"strength":0.0}}
Next round input: {"ship":{"type":"ship","position":{"x":1174.761788920106,"y":2168.6508331336895,"orientation":0.1263420149899856},"name":"d3","deck":{"width":3,"length":4},"entities":[{"x":0,"y":0,"type":"oar"},{"x":0,"y":2,"type":"oar"},{"x":1,"y":0,"type":"oar"},{"x":1,"y":2,"type":"oar"},{"x":2,"y":0,"type":"oar"},{"x":2,"y":2,"type":"oar"},{"x":3,"y":1,"type":"rudder"}],"life":300,"shape":{"type":"rectangle","width":3.0,"height":4.0,"orientation":0.0}},"visibleEntities":[],"wind":{"orientation":0.0,"strength":0.0}}
Next round input: {"ship":{"type":"ship","position":{"x":1223.5100050267295,"y":2250.4717350508795,"orientation":1.958937729584029},"name":"d3","deck":{"width":3,"length":4},"entities":[{"x":0,"y":0,"type":"oar"},{"x":0,"y":2,"type":"oar"},{"x":1,"y":0,"type":"oar"},{"x":1,"y":2,"type":"oar"},{"x":2,"y":0,"type":"oar"},{"x":2,"y":2,"type":"oar"},{"x":3,"y":1,"type":"rudder"}],"life":300,"shape":{"type":"rectangle","width":3.0,"height":4.0,"orientation":0.0}},"visibleEntities":[],"wind":{"orientation":0.0,"strength":0.0}}
Next round input: {"ship":{"type":"ship","position":{"x":1133.3255491908683,"y":2387.3800409508026,"orientation":2.351544940457961},"name":"d3","deck":{"width":3,"length":4},"entities":[{"x":0,"y":0,"type":"oar"},{"x":0,"y":2,"type":"oar"},{"x":1,"y":0,"type":"oar"},{"x":1,"y":2,"type":"oar"},{"x":2,"y":0,"type":"oar"},{"x":2,"y":2,"type":"oar"},{"x":3,"y":1,"type":"rudder"}],"life":300,"shape":{"type":"rectangle","width":3.0,"height":4.0,"orientation":0.0}},"visibleEntities":[],"wind":{"orientation":0.0,"strength":0.0}}
Next round input: {"ship":{"type":"ship","position":{"x":1157.657919766575,"y":2447.3292571722895,"orientation":-0.004649549734385201},"name":"d3","deck":{"width":3,"length":4},"entities":[{"x":0,"y":0,"type":"oar"},{"x":0,"y":2,"type":"oar"},{"x":1,"y":0,"type":"oar"},{"x":1,"y":2,"type":"oar"},{"x":2,"y":0,"type":"oar"},{"x":2,"y":2,"type":"oar"},{"x":3,"y":1,"type":"rudder"}],"life":300,"shape":{"type":"rectangle","width":3.0,"height":4.0,"orientation":0.0}},"visibleEntities":[],"wind":{"orientation":0.0,"strength":0.0}}
Next round input: {"ship":{"type":"ship","position":{"x":1215.9780534304139,"y":2372.031112616447,"orientation":-1.8372452643284294},"name":"d3","deck":{"width":3,"length":4},"entities":[{"x":0,"y":0,"type":"oar"},{"x":0,"y":2,"type":"oar"},{"x":1,"y":0,"type":"oar"},{"x":1,"y":2,"type":"oar"},{"x":2,"y":0,"type":"oar"},{"x":2,"y":2,"type":"oar"},{"x":3,"y":1,"type":"rudder"}],"life":300,"shape":{"type":"rectangle","width":3.0,"height":4.0,"orientation":0.0}},"visibleEntities":[],"wind":{"orientation":0.0,"strength":0.0}}
Next round input: {"ship":{"type":"ship","position":{"x":1172.53234043632,"y":2212.8536329830476,"orientation":-1.8372452643284294},"name":"d3","deck":{"width":3,"length":4},"entities":[{"x":0,"y":0,"type":"oar"},{"x":0,"y":2,"type":"oar"},{"x":1,"y":0,"type":"oar"},{"x":1,"y":2,"type":"oar"},{"x":2,"y":0,"type":"oar"},{"x":2,"y":2,"type":"oar"},{"x":3,"y":1,"type":"rudder"}],"life":300,"shape":{"type":"rectangle","width":3.0,"height":4.0,"orientation":0.0}},"visibleEntities":[],"wind":{"orientation":0.0,"strength":0.0}}
Next round input: {"ship":{"type":"ship","position":{"x":1223.207546000323,"y":2172.6293079489333,"orientation":0.5189492258639177},"name":"d3","deck":{"width":3,"length":4},"entities":[{"x":0,"y":0,"type":"oar"},{"x":0,"y":2,"type":"oar"},{"x":1,"y":0,"type":"oar"},{"x":1,"y":2,"type":"oar"},{"x":2,"y":0,"type":"oar"},{"x":2,"y":2,"type":"oar"},{"x":3,"y":1,"type":"rudder"}],"life":300,"shape":{"type":"rectangle","width":3.0,"height":4.0,"orientation":0.0}},"visibleEntities":[],"wind":{"orientation":0.0,"strength":0.0}}
Next round input: {"ship":{"type":"ship","position":{"x":1273.4694172444956,"y":2290.2310795434464,"orientation":1.8279461648596682},"name":"d3","deck":{"width":3,"length":4},"entities":[{"x":0,"y":0,"type":"oar"},{"x":0,"y":2,"type":"oar"},{"x":1,"y":0,"type":"oar"},{"x":1,"y":2,"type":"oar"},{"x":2,"y":0,"type":"oar"},{"x":2,"y":2,"type":"oar"},{"x":3,"y":1,"type":"rudder"}],"life":300,"shape":{"type":"rectangle","width":3.0,"height":4.0,"orientation":0.0}},"visibleEntities":[],"wind":{"orientation":0.0,"strength":0.0}}
Next round input: {"ship":{"type":"ship","position":{"x":1231.5057685662164,"y":2449.805677113364,"orientation":1.8279461648596682},"name":"d3","deck":{"width":3,"length":4},"entities":[{"x":0,"y":0,"type":"oar"},{"x":0,"y":2,"type":"oar"},{"x":1,"y":0,"type":"oar"},{"x":1,"y":2,"type":"oar"},{"x":2,"y":0,"type":"oar"},{"x":2,"y":2,"type":"oar"},{"x":3,"y":1,"type":"rudder"}],"life":300,"shape":{"type":"rectangle","width":3.0,"height":4.0,"orientation":0.0}},"visibleEntities":[],"wind":{"orientation":0.0,"strength":0.0}}
Next round input: {"ship":{"type":"ship","position":{"x":1282.5528277298188,"y":2489.557036010286,"orientation":-0.5282483253326788},"name":"d3","deck":{"width":3,"length":4},"entities":[{"x":0,"y":0,"type":"oar"},{"x":0,"y":2,"type":"oar"},{"x":1,"y":0,"type":"oar"},{"x":1,"y":2,"type":"oar"},{"x":2,"y":0,"type":"oar"},{"x":2,"y":2,"type":"oar"},{"x":3,"y":1,"type":"rudder"}],"life":300,"shape":{"type":"rectangle","width":3.0,"height":4.0,"orientation":0.0}},"visibleEntities":[],"wind":{"orientation":0.0,"strength":0.0}}
Next round input: {"ship":{"type":"ship","position":{"x":1295.4104727568867,"y":2395.1868631351754,"orientation":-2.360844039926726},"name":"d3","deck":{"width":3,"length":4},"entities":[{"x":0,"y":0,"type":"oar"},{"x":0,"y":2,"type":"oar"},{"x":1,"y":0,"type":"oar"},{"x":1,"y":2,"type":"oar"},{"x":2,"y":0,"type":"oar"},{"x":2,"y":2,"type":"oar"},{"x":3,"y":1,"type":"rudder"}],"life":300,"shape":{"type":"rectangle","width":3.0,"height":4.0,"orientation":0.0}},"visibleEntities":[],"wind":{"orientation":0.0,"strength":0.0}}
Next round input: {"ship":{"type":"ship","position":{"x":1156.0079313723568,"y":2309.7340333445754,"orientation":-2.8271671211748695},"name":"d3","deck":{"width":3,"length":4},"entities":[{"x":0,"y":0,"type":"oar"},{"x":0,"y":2,"type":"oar"},{"x":1,"y":0,"type":"oar"},{"x":1,"y":2,"type":"oar"},{"x":2,"y":0,"type":"oar"},{"x":2,"y":2,"type":"oar"},{"x":3,"y":1,"type":"rudder"}],"life":300,"shape":{"type":"rectangle","width":3.0,"height":4.0,"orientation":0.0}},"visibleEntities":[],"wind":{"orientation":0.0,"strength":0.0}}
Next round input: {"ship":{"type":"ship","position":{"x":1150.1893574345809,"y":2245.297110848738,"orientation":-0.47097263098252606},"name":"d3","deck":{"width":3,"length":4},"entities":[{"x":0,"y":0,"type":"oar"},{"x":0,"y":2,"type":"oar"},{"x":1,"y":0,"type":"oar"},{"x":1,"y":2,"type":"oar"},{"x":2,"y":0,"type":"oar"},{"x":2,"y":2,"type":"oar"},{"x":3,"y":1,"type":"rudder"}],"life":300,"shape":{"type":"rectangle","width":3.0,"height":4.0,"orientation":0.0}},"visibleEntities":[],"wind":{"orientation":0.0,"strength":0.0}}
Next round input: {"ship":{"type":"ship","position":{"x":1199.8674953784177,"y":2286.746542616102,"orientation":1.8852218592098213},"name":"d3","deck":{"width":3,"length":4},"entities":[{"x":0,"y":0,"type":"oar"},{"x":0,"y":2,"type":"oar"},{"x":1,"y":0,"type":"oar"},{"x":1,"y":2,"type":"oar"},{"x":2,"y":0,"type":"oar"},{"x":2,"y":2,"type":"oar"},{"x":3,"y":1,"type":"rudder"}],"life":300,"shape":{"type":"rectangle","width":3.0,"height":4.0,"orientation":0.0}},"visibleEntities":[],"wind":{"orientation":0.0,"strength":0.0}}
Next round input: {"ship":{"type":"ship","position":{"x":1108.6263174580502,"y":2421.577426243728,"orientation":2.4518820398157195},"name":"d3","deck":{"width":3,"length":4},"entities":[{"x":0,"y":0,"type":"oar"},{"x":0,"y":2,"type":"oar"},{"x":1,"y":0,"type":"oar"},{"x":1,"y":2,"type":"oar"},{"x":2,"y":0,"type":"oar"},{"x":2,"y":2,"type":"oar"},{"x":3,"y":1,"type":"rudder"}],"life":300,"shape":{"type":"rectangle","width":3.0,"height":4.0,"orientation":0.0}},"visibleEntities":[],"wind":{"orientation":0.0,"strength":0.0}}
Next round input: {"ship":{"type":"ship","position":{"x":1126.831264657602,"y":2483.6624701823907,"orientation":0.09568754962337414},"name":"d3","deck":{"width":3,"length":4},"entities":[{"x":0,"y":0,"type":"oar"},{"x":0,"y":2,"type":"oar"},{"x":1,"y":0,"type":"oar"},{"x":1,"y":2,"type":"oar"},{"x":2,"y":0,"type":"oar"},{"x":2,"y":2,"type":"oar"},{"x":3,"y":1,"type":"rudder"}],"life":300,"shape":{"type":"rectangle","width":3.0,"height":4.0,"orientation":0.0}},"visibleEntities":[],"wind":{"orientation":0.0,"strength":0.0}}
Next round input: {"ship":{"type":"ship","position":{"x":1192.4006013403648,"y":2414.5849003706,"orientation":-1.7369081649706704},"name":"d3","deck":{"width":3,"length":4},"entities":[{"x":0,"y":0,"type":"oar"},{"x":0,"y":2,"type":"oar"},{"x":1,"y":0,"type":"oar"},{"x":1,"y":2,"type":"oar"},{"x":2,"y":0,"type":"oar"},{"x":2,"y":2,"type":"oar"},{"x":3,"y":1,"type":"rudder"}],"life":300,"shape":{"type":"rectangle","width":3.0,"height":4.0,"orientation":0.0}},"visibleEntities":[],"wind":{"orientation":0.0,"strength":0.0}}
Next round input: {"ship":{"type":"ship","position":{"x":1125.0231541658572,"y":2266.036883095418,"orientation":-2.2615745350602694},"name":"d3","deck":{"width":3,"length":4},"entities":[{"x":0,"y":0,"type":"oar"},{"x":0,"y":2,"type":"oar"},{"x":1,"y":0,"type":"oar"},{"x":1,"y":2,"type":"oar"},{"x":2,"y":0,"type":"oar"},{"x":2,"y":2,"type":"oar"},{"x":3,"y":1,"type":"rudder"}],"life":300,"shape":{"type":"rectangle","width":3.0,"height":4.0,"orientation":0.0}},"visibleEntities":[],"wind":{"orientation":0.0,"strength":0.0}}
Next round input: {"ship":{"type":"ship","position":{"x":1154.6434914374631,"y":2208.516378896304,"orientation":0.09461995513207702},"name":"d3","deck":{"width":3,"length":4},"entities":[{"x":0,"y":0,"type":"oar"},{"x":0,"y":2,"type":"oar"},{"x":1,"y":0,"type":"oar"},{"x":1,"y":2,"type":"oar"},{"x":2,"y":0,"type":"oar"},{"x":2,"y":2,"type":"oar"},{"x":3,"y":1,"type":"rudder"}],"life":300,"shape":{"type":"rectangle","width":3.0,"height":4.0,"orientation":0.0}},"visibleEntities":[],"wind":{"orientation":0.0,"strength":0.0}}
Next round input: {"ship":{"type":"ship","position":{"x":1205.962274463656,"y":2288.7499820363305,"orientation":1.9272156697261205},"name":"d3","deck":{"width":3,"length":4},"entities":[{"x":0,"y":0,"type":"oar"},{"x":0,"y":2,"type":"oar"},{"x":1,"y":0,"type":"oar"},{"x":1,"y":2,"type":"oar"},{"x":2,"y":0,"type":"oar"},{"x":2,"y":2,"type":"oar"},{"x":3,"y":1,"type":"rudder"}],"life":300,"shape":{"type":"rectangle","width":3.0,"height":4.0,"orientation":0.0}},"visibleEntities":[],"wind":{"orientation":0.0,"strength":0.0}}
Next round input: {"ship":{"type":"ship","position":{"x":1108.0771044335768,"y":2418.663055746352,"orientation":2.5116535290325426},"name":"d3","deck":{"width":3,"length":4},"entities":[{"x":0,"y":0,"type":"oar"},{"x":0,"y":2,"type":"oar"},{"x":1,"y":0,"type":"oar"},{"x":1,"y":2,"type":"oar"},{"x":2,"y":0,"type":"oar"},{"x":2,"y":2,"type":"oar"},{"x":3,"y":1,"type":"rudder"}],"life":300,"shape":{"type":"rectangle","width":3.0,"height":4.0,"orientation":0.0}},"visibleEntities":[],"wind":{"orientation":0.0,"strength":0.0}}
Next round input: {"ship":{"type":"ship","position":{"x":1122.5408352280315,"y":2481.7247182276883,"orientation":0.15545903884019738},"name":"d3","deck":{"width":3,"length":4},"entities":[{"x":0,"y":0,"type":"oar"},{"x":0,"y":2,"type":"oar"},{"x":1,"y":0,"type":"oar"},{"x":1,"y":2,"type":"oar"},{"x":2,"y":0,"type":"oar"},{"x":2,"y":2,"type":"oar"},{"x":3,"y":1,"type":"rudder"}],"life":300,"shape":{"type":"rectangle","width":3.0,"height":4.0,"orientation":0.0}},"visibleEntities":[],"wind":{"orientation":0.0,"strength":0.0}}
Next round input: {"ship":{"type":"ship","position":{"x":1192.1194904284475,"y":2416.687349702954,"orientation":-1.677136675753847},"name":"d3","deck":{"width":3,"length":4},"entities":[{"x":0,"y":0,"type":"oar"},{"x":0,"y":2,"type":"oar"},{"x":1,"y":0,"type":"oar"},{"x":1,"y":2,"type":"oar"},{"x":2,"y":0,"type":"oar"},{"x":2,"y":2,"type":"oar"},{"x":3,"y":1,"type":"rudder"}],"life":300,"shape":{"type":"rectangle","width":3.0,"height":4.0,"orientation":0.0}},"visibleEntities":[],"wind":{"orientation":0.0,"strength":0.0}}
Next round input: {"ship":{"type":"ship","position":{"x":1130.5967904498548,"y":2265.9703251661285,"orientation":-2.245247797458019},"name":"d3","deck":{"width":3,"length":4},"entities":[{"x":0,"y":0,"type":"oar"},{"x":0,"y":2,"type":"oar"},{"x":1,"y":0,"type":"oar"},{"x":1,"y":2,"type":"oar"},{"x":2,"y":0,"type":"oar"},{"x":2,"y":2,"type":"oar"},{"x":3,"y":1,"type":"rudder"}],"life":300,"shape":{"type":"rectangle","width":3.0,"height":4.0,"orientation":0.0}},"visibleEntities":[],"wind":{"orientation":0.0,"strength":0.0}}
Next round input: {"ship":{"type":"ship","position":{"x":1161.1522604325676,"y":2208.9410691869407,"orientation":0.11094669273432739},"name":"d3","deck":{"width":3,"length":4},"entities":[{"x":0,"y":0,"type":"oar"},{"x":0,"y":2,"type":"oar"},{"x":1,"y":0,"type":"oar"},{"x":1,"y":2,"type":"oar"},{"x":2,"y":0,"type":"oar"},{"x":2,"y":2,"type":"oar"},{"x":3,"y":1,"type":"rudder"}],"life":300,"shape":{"type":"rectangle","width":3.0,"height":4.0,"orientation":0.0}},"visibleEntities":[],"wind":{"orientation":0.0,"strength":0.0}}
Next round input: {"ship":{"type":"ship","position":{"x":1211.1543089939544,"y":2290.00181001618,"orientation":1.9435424073283707},"name":"d3","deck":{"width":3,"length":4},"entities":[{"x":0,"y":0,"type":"oar"},{"x":0,"y":2,"type":"oar"},{"x":1,"y":0,"type":"oar"},{"x":1,"y":2,"type":"oar"},{"x":2,"y":0,"type":"oar"},{"x":2,"y":2,"type":"oar"},{"x":3,"y":1,"type":"rudder"}],"life":300,"shape":{"type":"rectangle","width":3.0,"height":4.0,"orientation":0.0}},"visibleEntities":[],"wind":{"orientation":0.0,"strength":0.0}}
Next round input: {"ship":{"type":"ship","position":{"x":1109.6028325380564,"y":2416.7896381351625,"orientation":2.554810164471501},"name":"d3","deck":{"width":3,"length":4},"entities":[{"x":0,"y":0,"type":"oar"},{"x":0,"y":2,"type":"oar"},{"x":1,"y":0,"type":"oar"},{"x":1,"y":2,"type":"oar"},{"x":2,"y":0,"type":"oar"},{"x":2,"y":2,"type":"oar"},{"x":3,"y":1,"type":"rudder"}],"life":300,"shape":{"type":"rectangle","width":3.0,"height":4.0,"orientation":0.0}},"visibleEntities":[],"wind":{"orientation":0.0,"strength":0.0}}
Next round input: {"ship":{"type":"ship","position":{"x":1121.3324116577442,"y":2480.416595920988,"orientation":0.1986156742791563},"name":"d3","deck":{"width":3,"length":4},"entities":[{"x":0,"y":0,"type":"oar"},{"x":0,"y":2,"type":"oar"},{"x":1,"y":0,"type":"oar"},{"x":1,"y":2,"type":"oar"},{"x":2,"y":0,"type":"oar"},{"x":2,"y":2,"type":"oar"},{"x":3,"y":1,"type":"rudder"}],"life":300,"shape":{"type":"rectangle","width":3.0,"height":4.0,"orientation":0.0}},"visibleEntities":[],"wind":{"orientation":0.0,"strength":0.0}}
Next round input: {"ship":{"type":"ship","position":{"x":1193.6522047702522,"y":2418.4416325221755,"orientation":-1.6339800403148883},"name":"d3","deck":{"width":3,"length":4},"entities":[{"x":0,"y":0,"type":"oar"},{"x":0,"y":2,"type":"oar"},{"x":1,"y":0,"type":"oar"},{"x":1,"y":2,"type":"oar"},{"x":2,"y":0,"type":"oar"},{"x":2,"y":2,"type":"oar"},{"x":3,"y":1,"type":"rudder"}],"life":300,"shape":{"type":"rectangle","width":3.0,"height":4.0,"orientation":0.0}},"visibleEntities":[],"wind":{"orientation":0.0,"strength":0.0}}
Next round input: {"ship":{"type":"ship","position":{"x":1135.4776139614419,"y":2266.7816339641454,"orientation":-2.2462885782543336},"name":"d3","deck":{"width":3,"length":4},"entities":[{"x":0,"y":0,"type":"oar"},{"x":0,"y":2,"type":"oar"},{"x":1,"y":0,"type":"oar"},{"x":1,"y":2,"type":"oar"},{"x":2,"y":0,"type":"oar"},{"x":2,"y":2,"type":"oar"},{"x":3,"y":1,"type":"rudder"}],"life":300,"shape":{"type":"rectangle","width":3.0,"height":4.0,"orientation":0.0}},"visibleEntities":[],"wind":{"orientation":0.0,"strength":0.0}}
Next round input: {"ship":{"type":"ship","position":{"x":1165.9737124512008,"y":2209.7206073320644,"orientation":0.10990591193801297},"name":"d3","deck":{"width":3,"length":4},"entities":[{"x":0,"y":0,"type":"oar"},{"x":0,"y":2,"type":"oar"},{"x":1,"y":0,"type":"oar"},{"x":1,"y":2,"type":"oar"},{"x":2,"y":0,"type":"oar"},{"x":2,"y":2,"type":"oar"},{"x":3,"y":1,"type":"rudder"}],"life":300,"shape":{"type":"rectangle","width":3.0,"height":4.0,"orientation":0.0}},"visibleEntities":[],"wind":{"orientation":0.0,"strength":0.0}}
Next round input: {"ship":{"type":"ship","position":{"x":1216.0601003780207,"y":2290.7292630952884,"orientation":1.9425016265320563},"name":"d3","deck":{"width":3,"length":4},"entities":[{"x":0,"y":0,"type":"oar"},{"x":0,"y":2,"type":"oar"},{"x":1,"y":0,"type":"oar"},{"x":1,"y":2,"type":"oar"},{"x":2,"y":0,"type":"oar"},{"x":2,"y":2,"type":"oar"},{"x":3,"y":1,"type":"rudder"}],"life":300,"shape":{"type":"rectangle","width":3.0,"height":4.0,"orientation":0.0}},"visibleEntities":[],"wind":{"orientation":0.0,"strength":0.0}}
Next round input: {"ship":{"type":"ship","position":{"x":1112.6532082287217,"y":2415.6206684996587,"orientation":2.5886875005539345},"name":"d3","deck":{"width":3,"length":4},"entities":[{"x":0,"y":0,"type":"oar"},{"x":0,"y":2,"type":"oar"},{"x":1,"y":0,"type":"oar"},{"x":1,"y":2,"type":"oar"},{"x":2,"y":0,"type":"oar"},{"x":2,"y":2,"type":"oar"},{"x":3,"y":1,"type":"rudder"}],"life":300,"shape":{"type":"rectangle","width":3.0,"height":4.0,"orientation":0.0}},"visibleEntities":[],"wind":{"orientation":0.0,"strength":0.0}}
Next round input: {"ship":{"type":"ship","position":{"x":1122.220957573853,"y":2479.608409168268,"orientation":0.23249301036158973},"name":"d3","deck":{"width":3,"length":4},"entities":[{"x":0,"y":0,"type":"oar"},{"x":0,"y":2,"type":"oar"},{"x":1,"y":0,"type":"oar"},{"x":1,"y":2,"type":"oar"},{"x":2,"y":0,"type":"oar"},{"x":2,"y":2,"type":"oar"},{"x":3,"y":1,"type":"rudder"}],"life":300,"shape":{"type":"rectangle","width":3.0,"height":4.0,"orientation":0.0}},"visibleEntities":[],"wind":{"orientation":0.0,"strength":0.0}}
Next round input: {"ship":{"type":"ship","position":{"x":1196.5983999733733,"y":2420.1185392219772,"orientation":-1.600102704232455},"name":"d3","deck":{"width":3,"length":4},"entities":[{"x":0,"y":0,"type":"oar"},{"x":0,"y":2,"type":"oar"},{"x":1,"y":0,"type":"oar"},{"x":1,"y":2,"type":"oar"},{"x":2,"y":0,"type":"oar"},{"x":2,"y":2,"type":"oar"},{"x":3,"y":1,"type":"rudder"}],"life":300,"shape":{"type":"rectangle","width":3.0,"height":4.0,"orientation":0.0}},"visibleEntities":[],"wind":{"orientation":0.0,"strength":0.0}}
Next round input: {"ship":{"type":"ship","position":{"x":1140.2297310710537,"y":2268.204983455438,"orientation":-2.258695450630614},"name":"d3","deck":{"width":3,"length":4},"entities":[{"x":0,"y":0,"type":"oar"},{"x":0,"y":2,"type":"oar"},{"x":1,"y":0,"type":"oar"},{"x":1,"y":2,"type":"oar"},{"x":2,"y":0,"type":"oar"},{"x":2,"y":2,"type":"oar"},{"x":3,"y":1,"type":"rudder"}],"life":300,"shape":{"type":"rectangle","width":3.0,"height":4.0,"orientation":0.0}},"visibleEntities":[],"wind":{"orientation":0.0,"strength":0.0}}
Next round input: {"ship":{"type":"ship","position":{"x":1170.0155517386104,"y":2210.769996987569,"orientation":0.09749903956173259},"name":"d3","deck":{"width":3,"length":4},"entities":[{"x":0,"y":0,"type":"oar"},{"x":0,"y":2,"type":"oar"},{"x":1,"y":0,"type":"oar"},{"x":1,"y":2,"type":"oar"},{"x":2,"y":0,"type":"oar"},{"x":2,"y":2,"type":"oar"},{"x":3,"y":1,"type":"rudder"}],"life":300,"shape":{"type":"rectangle","width":3.0,"height":4.0,"orientation":0.0}},"visibleEntities":[],"wind":{"orientation":0.0,"strength":0.0}}
Next round input: {"ship":{"type":"ship","position":{"x":1221.1031230725857,"y":2291.151018499591,"orientation":1.930094754155776},"name":"d3","deck":{"width":3,"length":4},"entities":[{"x":0,"y":0,"type":"oar"},{"x":0,"y":2,"type":"oar"},{"x":1,"y":0,"type":"oar"},{"x":1,"y":2,"type":"oar"},{"x":2,"y":0,"type":"oar"},{"x":2,"y":2,"type":"oar"},{"x":3,"y":1,"type":"rudder"}],"life":300,"shape":{"type":"rectangle","width":3.0,"height":4.0,"orientation":0.0}},"visibleEntities":[],"wind":{"orientation":0.0,"strength":0.0}}
Next round input: {"ship":{"type":"ship","position":{"x":1116.907226560965,"y":2414.8892356732135,"orientation":2.618119366587049},"name":"d3","deck":{"width":3,"length":4},"entities":[{"x":0,"y":0,"type":"oar"},{"x":0,"y":2,"type":"oar"},{"x":1,"y":0,"type":"oar"},{"x":1,"y":2,"type":"oar"},{"x":2,"y":0,"type":"oar"},{"x":2,"y":2,"type":"oar"},{"x":3,"y":1,"type":"rudder"}],"life":300,"shape":{"type":"rectangle","width":3.0,"height":4.0,"orientation":0.0}},"visibleEntities":[],"wind":{"orientation":0.0,"strength":0.0}}
Next round input: {"ship":{"type":"ship","position":{"x":1124.5878255174641,"y":2479.130820204367,"orientation":0.2619248763947044},"name":"d3","deck":{"width":3,"length":4},"entities":[{"x":0,"y":0,"type":"oar"},{"x":0,"y":2,"type":"oar"},{"x":1,"y":0,"type":"oar"},{"x":1,"y":2,"type":"oar"},{"x":2,"y":0,"type":"oar"},{"x":2,"y":2,"type":"oar"},{"x":3,"y":1,"type":"rudder"}],"life":300,"shape":{"type":"rectangle","width":3.0,"height":4.0,"orientation":0.0}},"visibleEntities":[],"wind":{"orientation":0.0,"strength":0.0}}
Next round input: {"ship":{"type":"ship","position":{"x":1200.6837011922703,"y":2421.8554653874417,"orientation":-1.5706708381993402},"name":"d3","deck":{"width":3,"length":4},"entities":[{"x":0,"y":0,"type":"oar"},{"x":0,"y":2,"type":"oar"},{"x":1,"y":0,"type":"oar"},{"x":1,"y":2,"type":"oar"},{"x":2,"y":0,"type":"oar"},{"x":2,"y":2,"type":"oar"},{"x":3,"y":1,"type":"rudder"}],"life":300,"shape":{"type":"rectangle","width":3.0,"height":4.0,"orientation":0.0}},"visibleEntities":[],"wind":{"orientation":0.0,"strength":0.0}}
Next round input: {"ship":{"type":"ship","position":{"x":1145.25581107656,"y":2270.080606019935,"orientation":-2.278297389124496},"name":"d3","deck":{"width":3,"length":4},"entities":[{"x":0,"y":0,"type":"oar"},{"x":0,"y":2,"type":"oar"},{"x":1,"y":0,"type":"oar"},{"x":1,"y":2,"type":"oar"},{"x":2,"y":0,"type":"oar"},{"x":2,"y":2,"type":"oar"},{"x":3,"y":1,"type":"rudder"}],"life":300,"shape":{"type":"rectangle","width":3.0,"height":4.0,"orientation":0.0}},"visibleEntities":[],"wind":{"orientation":0.0,"strength":0.0}}
Next round input: {"ship":{"type":"ship","position":{"x":1173.9101445594865,"y":2212.0728310578374,"orientation":0.07789710106785054},"name":"d3","deck":{"width":3,"length":4},"entities":[{"x":0,"y":0,"type":"oar"},{"x":0,"y":2,"type":"oar"},{"x":1,"y":0,"type":"oar"},{"x":1,"y":2,"type":"oar"},{"x":2,"y":0,"type":"oar"},{"x":2,"y":2,"type":"oar"},{"x":3,"y":1,"type":"rudder"}],"life":300,"shape":{"type":"rectangle","width":3.0,"height":4.0,"orientation":0.0}},"visibleEntities":[],"wind":{"orientation":0.0,"strength":0.0}}
Next round input: {"ship":{"type":"ship","position":{"x":1226.5634243056766,"y":2291.4370591211773,"orientation":1.9104928156618939},"name":"d3","deck":{"width":3,"length":4},"entities":[{"x":0,"y":0,"type":"oar"},{"x":0,"y":2,"type":"oar"},{"x":1,"y":0,"type":"oar"},{"x":1,"y":2,"type":"oar"},{"x":2,"y":0,"type":"oar"},{"x":2,"y":2,"type":"oar"},{"x":3,"y":1,"type":"rudder"}],"life":300,"shape":{"type":"rectangle","width":3.0,"height":4.0,"orientation":0.0}},"visibleEntities":[],"wind":{"orientation":0.0,"strength":0.0}}
Next round input: {"ship":{"type":"ship","position":{"x":1122.1826759588503,"y":2414.4182987857043,"orientation":2.6459946922117425},"name":"d3","deck":{"width":3,"length":4},"entities":[{"x":0,"y":0,"type":"oar"},{"x":0,"y":2,"type":"oar"},{"x":1,"y":0,"type":"oar"},{"x":1,"y":2,"type":"oar"},{"x":2,"y":0,"type":"oar"},{"x":2,"y":2,"type":"oar"},{"x":3,"y":1,"type":"rudder"}],"life":300,"shape":{"type":"rectangle","width":3.0,"height":4.0,"orientation":0.0}},"visibleEntities":[],"wind":{"orientation":0.0,"strength":0.0}}
Next round input: {"ship":{"type":"ship","position":{"x":1128.0697678825582,"y":2478.848997463322,"orientation":0.28980020201939827},"name":"d3","deck":{"width":3,"length":4},"entities":[{"x":0,"y":0,"type":"oar"},{"x":0,"y":2,"type":"oar"},{"x":1,"y":0,"type":"oar"},{"x":1,"y":2,"type":"oar"},{"x":2,"y":0,"type":"oar"},{"x":2,"y":2,"type":"oar"},{"x":3,"y":1,"type":"rudder"}],"life":300,"shape":{"type":"rectangle","width":3.0,"height":4.0,"orientation":0.0}},"visibleEntities":[],"wind":{"orientation":0.0,"strength":0.0}}
Next round input: {"ship":{"type":"ship","position":{"x":1205.7324433479218,"y":2423.7168162650223,"orientation":-1.5427955125746464},"name":"d3","deck":{"width":3,"length":4},"entities":[{"x":0,"y":0,"type":"oar"},{"x":0,"y":2,"type":"oar"},{"x":1,"y":0,"type":"oar"},{"x":1,"y":2,"type":"oar"},{"x":2,"y":0,"type":"oar"},{"x":2,"y":2,"type":"oar"},{"x":3,"y":1,"type":"rudder"}],"life":300,"shape":{"type":"rectangle","width":3.0,"height":4.0,"orientation":0.0}},"visibleEntities":[],"wind":{"orientation":0.0,"strength":0.0}}
Next round input: {"ship":{"type":"ship","position":{"x":1150.8143375908962,"y":2272.3056904225277,"orientation":-2.3022946916894},"name":"d3","deck":{"width":3,"length":4},"entities":[{"x":0,"y":0,"type":"oar"},{"x":0,"y":2,"type":"oar"},{"x":1,"y":0,"type":"oar"},{"x":1,"y":2,"type":"oar"},{"x":2,"y":0,"type":"oar"},{"x":2,"y":2,"type":"oar"},{"x":3,"y":1,"type":"rudder"}],"life":300,"shape":{"type":"rectangle","width":3.0,"height":4.0,"orientation":0.0}},"visibleEntities":[],"wind":{"orientation":0.0,"strength":0.0}}
Next round input: {"ship":{"type":"ship","position":{"x":1178.0685243507694,"y":2213.627056428013,"orientation":0.053899798502946565},"name":"d3","deck":{"width":3,"length":4},"entities":[{"x":0,"y":0,"type":"oar"},{"x":0,"y":2,"type":"oar"},{"x":1,"y":0,"type":"oar"},{"x":1,"y":2,"type":"oar"},{"x":2,"y":0,"type":"oar"},{"x":2,"y":2,"type":"oar"},{"x":3,"y":1,"type":"rudder"}],"life":300,"shape":{"type":"rectangle","width":3.0,"height":4.0,"orientation":0.0}},"visibleEntities":[],"wind":{"orientation":0.0,"strength":0.0}}
Next round input: {"ship":{"type":"ship","position":{"x":1232.6109886938264,"y":2291.705018411577,"orientation":1.88649551309699},"name":"d3","deck":{"width":3,"length":4},"entities":[{"x":0,"y":0,"type":"oar"},{"x":0,"y":2,"type":"oar"},{"x":1,"y":0,"type":"oar"},{"x":1,"y":2,"type":"oar"},{"x":2,"y":0,"type":"oar"},{"x":2,"y":2,"type":"oar"},{"x":3,"y":1,"type":"rudder"}],"life":300,"shape":{"type":"rectangle","width":3.0,"height":4.0,"orientation":0.0}},"visibleEntities":[],"wind":{"orientation":0.0,"strength":0.0}}
Next round input: {"ship":{"type":"ship","position":{"x":1181.381594117746,"y":2448.5506403822374,"orientation":1.88649551309699},"name":"d3","deck":{"width":3,"length":4},"entities":[{"x":0,"y":0,"type":"oar"},{"x":0,"y":2,"type":"oar"},{"x":1,"y":0,"type":"oar"},{"x":1,"y":2,"type":"oar"},{"x":2,"y":0,"type":"oar"},{"x":2,"y":2,"type":"oar"},{"x":3,"y":1,"type":"rudder"}],"life":300,"shape":{"type":"rectangle","width":3.0,"height":4.0,"orientation":0.0}},"visibleEntities":[],"wind":{"orientation":0.0,"strength":0.0}}
Next round input: {"ship":{"type":"ship","position":{"x":1230.015096303315,"y":2491.2209491293047,"orientation":-0.46969897709535724},"name":"d3","deck":{"width":3,"length":4},"entities":[{"x":0,"y":0,"type":"oar"},{"x":0,"y":2,"type":"oar"},{"x":1,"y":0,"type":"oar"},{"x":1,"y":2,"type":"oar"},{"x":2,"y":0,"type":"oar"},{"x":2,"y":2,"type":"oar"},{"x":3,"y":1,"type":"rudder"}],"life":300,"shape":{"type":"rectangle","width":3.0,"height":4.0,"orientation":0.0}},"visibleEntities":[],"wind":{"orientation":0.0,"strength":0.0}}
Next round input: {"ship":{"type":"ship","position":{"x":1248.3728652902287,"y":2397.7648584666654,"orientation":-2.3022946916894043},"name":"d3","deck":{"width":3,"length":4},"entities":[{"x":0,"y":0,"type":"oar"},{"x":0,"y":2,"type":"oar"},{"x":1,"y":0,"type":"oar"},{"x":1,"y":2,"type":"oar"},{"x":2,"y":0,"type":"oar"},{"x":2,"y":2,"type":"oar"},{"x":3,"y":1,"type":"rudder"}],"life":300,"shape":{"type":"rectangle","width":3.0,"height":4.0,"orientation":0.0}},"visibleEntities":[],"wind":{"orientation":0.0,"strength":0.0}}
Next round input: {"ship":{"type":"ship","position":{"x":1117.3849648786186,"y":2299.173848240631,"orientation":-2.6943927720767196},"name":"d3","deck":{"width":3,"length":4},"entities":[{"x":0,"y":0,"type":"oar"},{"x":0,"y":2,"type":"oar"},{"x":1,"y":0,"type":"oar"},{"x":1,"y":2,"type":"oar"},{"x":2,"y":0,"type":"oar"},{"x":2,"y":2,"type":"oar"},{"x":3,"y":1,"type":"rudder"}],"life":300,"shape":{"type":"rectangle","width":3.0,"height":4.0,"orientation":0.0}},"visibleEntities":[],"wind":{"orientation":0.0,"strength":0.0}}
Next round input: {"ship":{"type":"ship","position":{"x":1120.1480583987418,"y":2234.53378251044,"orientation":-0.3381982818843755},"name":"d3","deck":{"width":3,"length":4},"entities":[{"x":0,"y":0,"type":"oar"},{"x":0,"y":2,"type":"oar"},{"x":1,"y":0,"type":"oar"},{"x":1,"y":2,"type":"oar"},{"x":2,"y":0,"type":"oar"},{"x":2,"y":2,"type":"oar"},{"x":3,"y":1,"type":"rudder"}],"life":300,"shape":{"type":"rectangle","width":3.0,"height":4.0,"orientation":0.0}},"visibleEntities":[],"wind":{"orientation":0.0,"strength":0.0}}
Next round input: {"ship":{"type":"ship","position":{"x":1200.3870442374941,"y":2285.8441490623272,"orientation":1.4943974327096683},"name":"d3","deck":{"width":3,"length":4},"entities":[{"x":0,"y":0,"type":"oar"},{"x":0,"y":2,"type":"oar"},{"x":1,"y":0,"type":"oar"},{"x":1,"y":2,"type":"oar"},{"x":2,"y":0,"type":"oar"},{"x":2,"y":2,"type":"oar"},{"x":3,"y":1,"type":"rudder"}],"life":300,"shape":{"type":"rectangle","width":3.0,"height":4.0,"orientation":0.0}},"visibleEntities":[],"wind":{"orientation":0.0,"strength":0.0}}
Next round input: {"ship":{"type":"ship","position":{"x":1212.9806024194418,"y":2450.3628479762165,"orientation":1.4943974327096683},"name":"d3","deck":{"width":3,"length":4},"entities":[{"x":0,"y":0,"type":"oar"},{"x":0,"y":2,"type":"oar"},{"x":1,"y":0,"type":"oar"},{"x":1,"y":2,"type":"oar"},{"x":2,"y":0,"type":"oar"},{"x":2,"y":2,"type":"oar"},{"x":3,"y":1,"type":"rudder"}],"life":300,"shape":{"type":"rectangle","width":3.0,"height":4.0,"orientation":0.0}},"visibleEntities":[],"wind":{"orientation":0.0,"strength":0.0}}
Next round input: {"ship":{"type":"ship","position":{"x":1274.2288013995358,"y":2471.2106513400945,"orientation":-0.8617970574826771},"name":"d3","deck":{"width":3,"length":4},"entities":[{"x":0,"y":0,"type":"oar"},{"x":0,"y":2,"type":"oar"},{"x":1,"y":0,"type":"oar"},{"x":1,"y":2,"type":"oar"},{"x":2,"y":0,"type":"oar"},{"x":2,"y":2,"type":"oar"},{"x":3,"y":1,"type":"rudder"}],"life":300,"shape":{"type":"rectangle","width":3.0,"height":4.0,"orientation":0.0}},"visibleEntities":[],"wind":{"orientation":0.0,"strength":0.0}}
Next round input: {"ship":{"type":"ship","position":{"x":1282.0312370878955,"y":2343.55660956913,"orientation":-2.17079399647843},"name":"d3","deck":{"width":3,"length":4},"entities":[{"x":0,"y":0,"type":"oar"},{"x":0,"y":2,"type":"oar"},{"x":1,"y":0,"type":"oar"},{"x":1,"y":2,"type":"oar"},{"x":2,"y":0,"type":"oar"},{"x":2,"y":2,"type":"oar"},{"x":3,"y":1,"type":"rudder"}],"life":300,"shape":{"type":"rectangle","width":3.0,"height":4.0,"orientation":0.0}},"visibleEntities":[],"wind":{"orientation":0.0,"strength":0.0}}
Next round input: {"ship":{"type":"ship","position":{"x":1188.86554632135,"y":2207.3760160031343,"orientation":-2.17079399647843},"name":"d3","deck":{"width":3,"length":4},"entities":[{"x":0,"y":0,"type":"oar"},{"x":0,"y":2,"type":"oar"},{"x":1,"y":0,"type":"oar"},{"x":1,"y":2,"type":"oar"},{"x":2,"y":0,"type":"oar"},{"x":2,"y":2,"type":"oar"},{"x":3,"y":1,"type":"rudder"}],"life":300,"shape":{"type":"rectangle","width":3.0,"height":4.0,"orientation":0.0}},"visibleEntities":[],"wind":{"orientation":0.0,"strength":0.0}}
Next round input: {"ship":{"type":"ship","position":{"x":1223.5784883679032,"y":2152.777623738555,"orientation":0.1854004937139168},"name":"d3","deck":{"width":3,"length":4},"entities":[{"x":0,"y":0,"type":"oar"},{"x":0,"y":2,"type":"oar"},{"x":1,"y":0,"type":"oar"},{"x":1,"y":2,"type":"oar"},{"x":2,"y":0,"type":"oar"},{"x":2,"y":2,"type":"oar"},{"x":3,"y":1,"type":"rudder"}],"life":300,"shape":{"type":"rectangle","width":3.0,"height":4.0,"orientation":0.0}},"visibleEntities":[],"wind":{"orientation":0.0,"strength":0.0}}
Next round input: {"ship":{"type":"ship","position":{"x":1267.4123052022178,"y":2237.333197569355,"orientation":2.01799620830796},"name":"d3","deck":{"width":3,"length":4},"entities":[{"x":0,"y":0,"type":"oar"},{"x":0,"y":2,"type":"oar"},{"x":1,"y":0,"type":"oar"},{"x":1,"y":2,"type":"oar"},{"x":2,"y":0,"type":"oar"},{"x":2,"y":2,"type":"oar"},{"x":3,"y":1,"type":"rudder"}],"life":300,"shape":{"type":"rectangle","width":3.0,"height":4.0,"orientation":0.0}},"visibleEntities":[],"wind":{"orientation":0.0,"strength":0.0}}
Next round input: {"ship":{"type":"ship","position":{"x":1165.0847349340415,"y":2364.8972396810677,"orientation":2.4803407626829537},"name":"d3","deck":{"width":3,"length":4},"entities":[{"x":0,"y":0,"type":"oar"},{"x":0,"y":2,"type":"oar"},{"x":1,"y":0,"type":"oar"},{"x":1,"y":2,"type":"oar"},{"x":2,"y":0,"type":"oar"},{"x":2,"y":2,"type":"oar"},{"x":3,"y":1,"type":"rudder"}],"life":300,"shape":{"type":"rectangle","width":3.0,"height":4.0,"orientation":0.0}},"visibleEntities":[],"wind":{"orientation":0.0,"strength":0.0}}
Next round input: {"ship":{"type":"ship","position":{"x":1181.5156879748777,"y":2427.4751636285237,"orientation":0.12414627249060844},"name":"d3","deck":{"width":3,"length":4},"entities":[{"x":0,"y":0,"type":"oar"},{"x":0,"y":2,"type":"oar"},{"x":1,"y":0,"type":"oar"},{"x":1,"y":2,"type":"oar"},{"x":2,"y":0,"type":"oar"},{"x":2,"y":2,"type":"oar"},{"x":3,"y":1,"type":"rudder"}],"life":300,"shape":{"type":"rectangle","width":3.0,"height":4.0,"orientation":0.0}},"visibleEntities":[],"wind":{"orientation":0.0,"strength":0.0}}
Next round input: {"ship":{"type":"ship","position":{"x":1214.146524034168,"y":2371.607450936168,"orientation":-2.2320482177017382},"name":"d3","deck":{"width":3,"length":4},"entities":[{"x":0,"y":0,"type":"oar"},{"x":0,"y":2,"type":"oar"},{"x":1,"y":0,"type":"oar"},{"x":1,"y":2,"type":"oar"},{"x":2,"y":0,"type":"oar"},{"x":2,"y":2,"type":"oar"},{"x":3,"y":1,"type":"rudder"}],"life":300,"shape":{"type":"rectangle","width":3.0,"height":4.0,"orientation":0.0}},"visibleEntities":[],"wind":{"orientation":0.0,"strength":0.0}}
Next round input: {"ship":{"type":"ship","position":{"x":1082.6226451496166,"y":2275.624016712359,"orientation":-2.7959078553856216},"name":"d3","deck":{"width":3,"length":4},"entities":[{"x":0,"y":0,"type":"oar"},{"x":0,"y":2,"type":"oar"},{"x":1,"y":0,"type":"oar"},{"x":1,"y":2,"type":"oar"},{"x":2,"y":0,"type":"oar"},{"x":2,"y":2,"type":"oar"},{"x":3,"y":1,"type":"rudder"}],"life":300,"shape":{"type":"rectangle","width":3.0,"height":4.0,"orientation":0.0}},"visibleEntities":[],"wind":{"orientation":0.0,"strength":0.0}}
Next round input: {"ship":{"type":"ship","position":{"x":1078.8208366341833,"y":2211.036718925442,"orientation":-0.43971336519327786},"name":"d3","deck":{"width":3,"length":4},"entities":[{"x":0,"y":0,"type":"oar"},{"x":0,"y":2,"type":"oar"},{"x":1,"y":0,"type":"oar"},{"x":1,"y":2,"type":"oar"},{"x":2,"y":0,"type":"oar"},{"x":2,"y":2,"type":"oar"},{"x":3,"y":1,"type":"rudder"}],"life":300,"shape":{"type":"rectangle","width":3.0,"height":4.0,"orientation":0.0}},"visibleEntities":[],"wind":{"orientation":0.0,"strength":0.0}}
Next round input: {"ship":{"type":"ship","position":{"x":1163.8465679090398,"y":2253.9514434998373,"orientation":1.392882349400766},"name":"d3","deck":{"width":3,"length":4},"entities":[{"x":0,"y":0,"type":"oar"},{"x":0,"y":2,"type":"oar"},{"x":1,"y":0,"type":"oar"},{"x":1,"y":2,"type":"oar"},{"x":2,"y":0,"type":"oar"},{"x":2,"y":2,"type":"oar"},{"x":3,"y":1,"type":"rudder"}],"life":300,"shape":{"type":"rectangle","width":3.0,"height":4.0,"orientation":0.0}},"visibleEntities":[],"wind":{"orientation":0.0,"strength":0.0}}
Next round input: {"ship":{"type":"ship","position":{"x":1151.0409999379578,"y":2416.60879185077,"orientation":1.911022133894942},"name":"d3","deck":{"width":3,"length":4},"entities":[{"x":0,"y":0,"type":"oar"},{"x":0,"y":2,"type":"oar"},{"x":1,"y":0,"type":"oar"},{"x":1,"y":2,"type":"oar"},{"x":2,"y":0,"type":"oar"},{"x":2,"y":2,"type":"oar"},{"x":3,"y":1,"type":"rudder"}],"life":300,"shape":{"type":"rectangle","width":3.0,"height":4.0,"orientation":0.0}},"visibleEntities":[],"wind":{"orientation":0.0,"strength":0.0}}
Next round input: {"ship":{"type":"ship","position":{"x":1198.6134214324682,"y":2460.4589628487565,"orientation":-0.44517235629740537},"name":"d3","deck":{"width":3,"length":4},"entities":[{"x":0,"y":0,"type":"oar"},{"x":0,"y":2,"type":"oar"},{"x":1,"y":0,"type":"oar"},{"x":1,"y":2,"type":"oar"},{"x":2,"y":0,"type":"oar"},{"x":2,"y":2,"type":"oar"},{"x":3,"y":1,"type":"rudder"}],"life":300,"shape":{"type":"rectangle","width":3.0,"height":4.0,"orientation":0.0}},"visibleEntities":[],"wind":{"orientation":0.0,"strength":0.0}}
Next round input: {"ship":{"type":"ship","position":{"x":1219.2576013846813,"y":2367.4811891702007,"orientation":-2.277768070891452},"name":"d3","deck":{"width":3,"length":4},"entities":[{"x":0,"y":0,"type":"oar"},{"x":0,"y":2,"type":"oar"},{"x":1,"y":0,"type":"oar"},{"x":1,"y":2,"type":"oar"},{"x":2,"y":0,"type":"oar"},{"x":2,"y":2,"type":"oar"},{"x":3,"y":1,"type":"rudder"}],"life":300,"shape":{"type":"rectangle","width":3.0,"height":4.0,"orientation":0.0}},"visibleEntities":[],"wind":{"orientation":0.0,"strength":0.0}}
Next round input: {"ship":{"type":"ship","position":{"x":1082.862207884885,"y":2278.792373286464,"orientation":-2.8581426747614005},"name":"d3","deck":{"width":3,"length":4},"entities":[{"x":0,"y":0,"type":"oar"},{"x":0,"y":2,"type":"oar"},{"x":1,"y":0,"type":"oar"},{"x":1,"y":2,"type":"oar"},{"x":2,"y":0,"type":"oar"},{"x":2,"y":2,"type":"oar"},{"x":3,"y":1,"type":"rudder"}],"life":300,"shape":{"type":"rectangle","width":3.0,"height":4.0,"orientation":0.0}},"visibleEntities":[],"wind":{"orientation":0.0,"strength":0.0}}
Next round input: {"ship":{"type":"ship","position":{"x":1075.050774963613,"y":2214.566566174988,"orientation":-0.5019481845690572},"name":"d3","deck":{"width":3,"length":4},"entities":[{"x":0,"y":0,"type":"oar"},{"x":0,"y":2,"type":"oar"},{"x":1,"y":0,"type":"oar"},{"x":1,"y":2,"type":"oar"},{"x":2,"y":0,"type":"oar"},{"x":2,"y":2,"type":"oar"},{"x":3,"y":1,"type":"rudder"}],"life":300,"shape":{"type":"rectangle","width":3.0,"height":4.0,"orientation":0.0}},"visibleEntities":[],"wind":{"orientation":0.0,"strength":0.0}}
Next round input: {"ship":{"type":"ship","position":{"x":1162.5809660998627,"y":2252.1100636648607,"orientation":1.3306475300249867},"name":"d3","deck":{"width":3,"length":4},"entities":[{"x":0,"y":0,"type":"oar"},{"x":0,"y":2,"type":"oar"},{"x":1,"y":0,"type":"oar"},{"x":1,"y":2,"type":"oar"},{"x":2,"y":0,"type":"oar"},{"x":2,"y":2,"type":"oar"},{"x":3,"y":1,"type":"rudder"}],"life":300,"shape":{"type":"rectangle","width":3.0,"height":4.0,"orientation":0.0}},"visibleEntities":[],"wind":{"orientation":0.0,"strength":0.0}}
Next round input: {"ship":{"type":"ship","position":{"x":1156.4406021016184,"y":2414.836625464465,"orientation":1.8919912628556859},"name":"d3","deck":{"width":3,"length":4},"entities":[{"x":0,"y":0,"type":"oar"},{"x":0,"y":2,"type":"oar"},{"x":1,"y":0,"type":"oar"},{"x":1,"y":2,"type":"oar"},{"x":2,"y":0,"type":"oar"},{"x":2,"y":2,"type":"oar"},{"x":3,"y":1,"type":"rudder"}],"life":300,"shape":{"type":"rectangle","width":3.0,"height":4.0,"orientation":0.0}},"visibleEntities":[],"wind":{"orientation":0.0,"strength":0.0}}
Next round input: {"ship":{"type":"ship","position":{"x":1204.8388656852187,"y":2457.7735660342896,"orientation":-0.4642032273366614},"name":"d3","deck":{"width":3,"length":4},"entities":[{"x":0,"y":0,"type":"oar"},{"x":0,"y":2,"type":"oar"},{"x":1,"y":0,"type":"oar"},{"x":1,"y":2,"type":"oar"},{"x":2,"y":0,"type":"oar"},{"x":2,"y":2,"type":"oar"},{"x":3,"y":1,"type":"rudder"}],"life":300,"shape":{"type":"rectangle","width":3.0,"height":4.0,"orientation":0.0}},"visibleEntities":[],"wind":{"orientation":0.0,"strength":0.0}}
Next round input: {"ship":{"type":"ship","position":{"x":1223.7099661428,"y":2364.419775904267,"orientation":-2.2967989419307084},"name":"d3","deck":{"width":3,"length":4},"entities":[{"x":0,"y":0,"type":"oar"},{"x":0,"y":2,"type":"oar"},{"x":1,"y":0,"type":"oar"},{"x":1,"y":2,"type":"oar"},{"x":2,"y":0,"type":"oar"},{"x":2,"y":2,"type":"oar"},{"x":3,"y":1,"type":"rudder"}],"life":300,"shape":{"type":"rectangle","width":3.0,"height":4.0,"orientation":0.0}},"visibleEntities":[],"wind":{"orientation":0.0,"strength":0.0}}
Next round input: {"ship":{"type":"ship","position":{"x":1084.748696362939,"y":2280.2065562105613,"orientation":-2.9027786652691763},"name":"d3","deck":{"width":3,"length":4},"entities":[{"x":0,"y":0,"type":"oar"},{"x":0,"y":2,"type":"oar"},{"x":1,"y":0,"type":"oar"},{"x":1,"y":2,"type":"oar"},{"x":2,"y":0,"type":"oar"},{"x":2,"y":2,"type":"oar"},{"x":3,"y":1,"type":"rudder"}],"life":300,"shape":{"type":"rectangle","width":3.0,"height":4.0,"orientation":0.0}},"visibleEntities":[],"wind":{"orientation":0.0,"strength":0.0}}
Next round input: {"ship":{"type":"ship","position":{"x":1074.0792131264623,"y":2216.3932745924612,"orientation":-0.5465841750768332},"name":"d3","deck":{"width":3,"length":4},"entities":[{"x":0,"y":0,"type":"oar"},{"x":0,"y":2,"type":"oar"},{"x":1,"y":0,"type":"oar"},{"x":1,"y":2,"type":"oar"},{"x":2,"y":0,"type":"oar"},{"x":2,"y":2,"type":"oar"},{"x":3,"y":1,"type":"rudder"}],"life":300,"shape":{"type":"rectangle","width":3.0,"height":4.0,"orientation":0.0}},"visibleEntities":[],"wind":{"orientation":0.0,"strength":0.0}}
Next round input: {"ship":{"type":"ship","position":{"x":1163.1974571899718,"y":2249.9936784465363,"orientation":1.2860115395172107},"name":"d3","deck":{"width":3,"length":4},"entities":[{"x":0,"y":0,"type":"oar"},{"x":0,"y":2,"type":"oar"},{"x":1,"y":0,"type":"oar"},{"x":1,"y":2,"type":"oar"},{"x":2,"y":0,"type":"oar"},{"x":2,"y":2,"type":"oar"},{"x":3,"y":1,"type":"rudder"}],"life":300,"shape":{"type":"rectangle","width":3.0,"height":4.0,"orientation":0.0}},"visibleEntities":[],"wind":{"orientation":0.0,"strength":0.0}}
Next round input: {"ship":{"type":"ship","position":{"x":1160.800507561665,"y":2412.4702923415753,"orientation":1.891135376961099},"name":"d3","deck":{"width":3,"length":4},"entities":[{"x":0,"y":0,"type":"oar"},{"x":0,"y":2,"type":"oar"},{"x":1,"y":0,"type":"oar"},{"x":1,"y":2,"type":"oar"},{"x":2,"y":0,"type":"oar"},{"x":2,"y":2,"type":"oar"},{"x":3,"y":1,"type":"rudder"}],"life":300,"shape":{"type":"rectangle","width":3.0,"height":4.0,"orientation":0.0}},"visibleEntities":[],"wind":{"orientation":0.0,"strength":0.0}}
Next round input: {"ship":{"type":"ship","position":{"x":1209.2355025357224,"y":2455.3657937988055,"orientation":-0.46505911323124827},"name":"d3","deck":{"width":3,"length":4},"entities":[{"x":0,"y":0,"type":"oar"},{"x":0,"y":2,"type":"oar"},{"x":1,"y":0,"type":"oar"},{"x":1,"y":2,"type":"oar"},{"x":2,"y":0,"type":"oar"},{"x":2,"y":2,"type":"oar"},{"x":3,"y":1,"type":"rudder"}],"life":300,"shape":{"type":"rectangle","width":3.0,"height":4.0,"orientation":0.0}},"visibleEntities":[],"wind":{"orientation":0.0,"strength":0.0}}
Next round input: {"ship":{"type":"ship","position":{"x":1228.0266958989582,"y":2361.9958863547795,"orientation":-2.297654827825295},"name":"d3","deck":{"width":3,"length":4},"entities":[{"x":0,"y":0,"type":"oar"},{"x":0,"y":2,"type":"oar"},{"x":1,"y":0,"type":"oar"},{"x":1,"y":2,"type":"oar"},{"x":2,"y":0,"type":"oar"},{"x":2,"y":2,"type":"oar"},{"x":3,"y":1,"type":"rudder"}],"life":300,"shape":{"type":"rectangle","width":3.0,"height":4.0,"orientation":0.0}},"visibleEntities":[],"wind":{"orientation":0.0,"strength":0.0}}
Next round input: {"ship":{"type":"ship","position":{"x":1087.8538524390292,"y":2280.3832827787037,"orientation":-2.93742900201313},"name":"d3","deck":{"width":3,"length":4},"entities":[{"x":0,"y":0,"type":"oar"},{"x":0,"y":2,"type":"oar"},{"x":1,"y":0,"type":"oar"},{"x":1,"y":2,"type":"oar"},{"x":2,"y":0,"type":"oar"},{"x":2,"y":2,"type":"oar"},{"x":3,"y":1,"type":"rudder"}],"life":300,"shape":{"type":"rectangle","width":3.0,"height":4.0,"orientation":0.0}},"visibleEntities":[],"wind":{"orientation":0.0,"strength":0.0}}
Next round input: {"ship":{"type":"ship","position":{"x":1074.9800644420145,"y":2216.977933114719,"orientation":-0.5812345118207869},"name":"d3","deck":{"width":3,"length":4},"entities":[{"x":0,"y":0,"type":"oar"},{"x":0,"y":2,"type":"oar"},{"x":1,"y":0,"type":"oar"},{"x":1,"y":2,"type":"oar"},{"x":2,"y":0,"type":"oar"},{"x":2,"y":2,"type":"oar"},{"x":3,"y":1,"type":"rudder"}],"life":300,"shape":{"type":"rectangle","width":3.0,"height":4.0,"orientation":0.0}},"visibleEntities":[],"wind":{"orientation":0.0,"strength":0.0}}
Next round input: {"ship":{"type":"ship","position":{"x":1165.2088464776994,"y":2247.470808618308,"orientation":1.251361202773257},"name":"d3","deck":{"width":3,"length":4},"entities":[{"x":0,"y":0,"type":"oar"},{"x":0,"y":2,"type":"oar"},{"x":1,"y":0,"type":"oar"},{"x":1,"y":2,"type":"oar"},{"x":2,"y":0,"type":"oar"},{"x":2,"y":2,"type":"oar"},{"x":3,"y":1,"type":"rudder"}],"life":300,"shape":{"type":"rectangle","width":3.0,"height":4.0,"orientation":0.0}},"visibleEntities":[],"wind":{"orientation":0.0,"strength":0.0}}
Next round input: {"ship":{"type":"ship","position":{"x":1164.761682833983,"y":2409.5731610872404,"orientation":1.9022574524267446},"name":"d3","deck":{"width":3,"length":4},"entities":[{"x":0,"y":0,"type":"oar"},{"x":0,"y":2,"type":"oar"},{"x":1,"y":0,"type":"oar"},{"x":1,"y":2,"type":"oar"},{"x":2,"y":0,"type":"oar"},{"x":2,"y":2,"type":"oar"},{"x":3,"y":1,"type":"rudder"}],"life":300,"shape":{"type":"rectangle","width":3.0,"height":4.0,"orientation":0.0}},"visibleEntities":[],"wind":{"orientation":0.0,"strength":0.0}}
Next round input: {"ship":{"type":"ship","position":{"x":1212.7166049524376,"y":2453.004696036133,"orientation":-0.4539370377656028},"name":"d3","deck":{"width":3,"length":4},"entities":[{"x":0,"y":0,"type":"oar"},{"x":0,"y":2,"type":"oar"},{"x":1,"y":0,"type":"oar"},{"x":1,"y":2,"type":"oar"},{"x":2,"y":0,"type":"oar"},{"x":2,"y":2,"type":"oar"},{"x":3,"y":1,"type":"rudder"}],"life":300,"shape":{"type":"rectangle","width":3.0,"height":4.0,"orientation":0.0}},"visibleEntities":[],"wind":{"orientation":0.0,"strength":0.0}}
Next round input: {"ship":{"type":"ship","position":{"x":1232.5450818341747,"y":2359.849556249479,"orientation":-2.2865327523596495},"name":"d3","deck":{"width":3,"length":4},"entities":[{"x":0,"y":0,"type":"oar"},{"x":0,"y":2,"type":"oar"},{"x":1,"y":0,"type":"oar"},{"x":1,"y":2,"type":"oar"},{"x":2,"y":0,"type":"oar"},{"x":2,"y":2,"type":"oar"},{"x":3,"y":1,"type":"rudder"}],"life":300,"shape":{"type":"rectangle","width":3.0,"height":4.0,"orientation":0.0}},"visibleEntities":[],"wind":{"orientation":0.0,"strength":0.0}}
Next round input: {"ship":{"type":"ship","position":{"x":1091.9537333546352,"y":2279.6982141001304,"orientation":-2.967168606514104},"name":"d3","deck":{"width":3,"length":4},"entities":[{"x":0,"y":0,"type":"oar"},{"x":0,"y":2,"type":"oar"},{"x":1,"y":0,"type":"oar"},{"x":1,"y":2,"type":"oar"},{"x":2,"y":0,"type":"oar"},{"x":2,"y":2,"type":"oar"},{"x":3,"y":1,"type":"rudder"}],"life":300,"shape":{"type":"rectangle","width":3.0,"height":4.0,"orientation":0.0}},"visibleEntities":[],"wind":{"orientation":0.0,"strength":0.0}}
Next round input: {"ship":{"type":"ship","position":{"x":1077.200265934916,"y":2216.7037065419354,"orientation":-0.6109741163217611},"name":"d3","deck":{"width":3,"length":4},"entities":[{"x":0,"y":0,"type":"oar"},{"x":0,"y":2,"type":"oar"},{"x":1,"y":0,"type":"oar"},{"x":1,"y":2,"type":"oar"},{"x":2,"y":0,"type":"oar"},{"x":2,"y":2,"type":"oar"},{"x":3,"y":1,"type":"rudder"}],"life":300,"shape":{"type":"rectangle","width":3.0,"height":4.0,"orientation":0.0}},"visibleEntities":[],"wind":{"orientation":0.0,"strength":0.0}}
Next round input: {"ship":{"type":"ship","position":{"x":1168.2958621432188,"y":2244.500125656174,"orientation":1.2216215982722827},"name":"d3","deck":{"width":3,"length":4},"entities":[{"x":0,"y":0,"type":"oar"},{"x":0,"y":2,"type":"oar"},{"x":1,"y":0,"type":"oar"},{"x":1,"y":2,"type":"oar"},{"x":2,"y":0,"type":"oar"},{"x":2,"y":2,"type":"oar"},{"x":3,"y":1,"type":"rudder"}],"life":300,"shape":{"type":"rectangle","width":3.0,"height":4.0,"orientation":0.0}},"visibleEntities":[],"wind":{"orientation":0.0,"strength":0.0}}
Next round input: {"ship":{"type":"ship","position":{"x":1168.7763452086374,"y":2406.157276338014,"orientation":1.9210205924652617},"name":"d3","deck":{"width":3,"length":4},"entities":[{"x":0,"y":0,"type":"oar"},{"x":0,"y":2,"type":"oar"},{"x":1,"y":0,"type":"oar"},{"x":1,"y":2,"type":"oar"},{"x":2,"y":0,"type":"oar"},{"x":2,"y":2,"type":"oar"},{"x":3,"y":1,"type":"rudder"}],"life":300,"shape":{"type":"rectangle","width":3.0,"height":4.0,"orientation":0.0}},"visibleEntities":[],"wind":{"orientation":0.0,"strength":0.0}}
Next round input: {"ship":{"type":"ship","position":{"x":1215.907962022042,"y":2450.480898481951,"orientation":-0.4351738977270858},"name":"d3","deck":{"width":3,"length":4},"entities":[{"x":0,"y":0,"type":"oar"},{"x":0,"y":2,"type":"oar"},{"x":1,"y":0,"type":"oar"},{"x":1,"y":2,"type":"oar"},{"x":2,"y":0,"type":"oar"},{"x":2,"y":2,"type":"oar"},{"x":3,"y":1,"type":"rudder"}],"life":300,"shape":{"type":"rectangle","width":3.0,"height":4.0,"orientation":0.0}},"visibleEntities":[],"wind":{"orientation":0.0,"strength":0.0}}
Next round input: {"ship":{"type":"ship","position":{"x":1237.4807290210756,"y":2357.714178759165,"orientation":-2.2677696123211324},"name":"d3","deck":{"width":3,"length":4},"entities":[{"x":0,"y":0,"type":"oar"},{"x":0,"y":2,"type":"oar"},{"x":1,"y":0,"type":"oar"},{"x":1,"y":2,"type":"oar"},{"x":2,"y":0,"type":"oar"},{"x":2,"y":2,"type":"oar"},{"x":3,"y":1,"type":"rudder"}],"life":300,"shape":{"type":"rectangle","width":3.0,"height":4.0,"orientation":0.0}},"visibleEntities":[],"wind":{"orientation":0.0,"strength":0.0}}
Next round input: {"ship":{"type":"ship","position":{"x":1096.9311556681446,"y":2278.3936235890123,"orientation":-2.9950863342148772},"name":"d3","deck":{"width":3,"length":4},"entities":[{"x":0,"y":0,"type":"oar"},{"x":0,"y":2,"type":"oar"},{"x":1,"y":0,"type":"oar"},{"x":1,"y":2,"type":"oar"},{"x":2,"y":0,"type":"oar"},{"x":2,"y":2,"type":"oar"},{"x":3,"y":1,"type":"rudder"}],"life":300,"shape":{"type":"rectangle","width":3.0,"height":4.0,"orientation":0.0}},"visibleEntities":[],"wind":{"orientation":0.0,"strength":0.0}}
Next round input: {"ship":{"type":"ship","position":{"x":1080.4250022304154,"y":2215.8354931654276,"orientation":-0.6388918440225346},"name":"d3","deck":{"width":3,"length":4},"entities":[{"x":0,"y":0,"type":"oar"},{"x":0,"y":2,"type":"oar"},{"x":1,"y":0,"type":"oar"},{"x":1,"y":2,"type":"oar"},{"x":2,"y":0,"type":"oar"},{"x":2,"y":2,"type":"oar"},{"x":3,"y":1,"type":"rudder"}],"life":300,"shape":{"type":"rectangle","width":3.0,"height":4.0,"orientation":0.0}},"visibleEntities":[],"wind":{"orientation":0.0,"strength":0.0}}
Next round input: {"ship":{"type":"ship","position":{"x":1172.261012872206,"y":2241.0782290219354,"orientation":1.1937038705715093},"name":"d3","deck":{"width":3,"length":4},"entities":[{"x":0,"y":0,"type":"oar"},{"x":0,"y":2,"type":"oar"},{"x":1,"y":0,"type":"oar"},{"x":1,"y":2,"type":"oar"},{"x":2,"y":0,"type":"oar"},{"x":2,"y":2,"type":"oar"},{"x":3,"y":1,"type":"rudder"}],"life":300,"shape":{"type":"rectangle","width":3.0,"height":4.0,"orientation":0.0}},"visibleEntities":[],"wind":{"orientation":0.0,"strength":0.0}}
Next round input: {"ship":{"type":"ship","position":{"x":1173.139478366672,"y":2402.2280843182975,"orientation":1.9444943285293155},"name":"d3","deck":{"width":3,"length":4},"entities":[{"x":0,"y":0,"type":"oar"},{"x":0,"y":2,"type":"oar"},{"x":1,"y":0,"type":"oar"},{"x":1,"y":2,"type":"oar"},{"x":2,"y":0,"type":"oar"},{"x":2,"y":2,"type":"oar"},{"x":3,"y":1,"type":"rudder"}],"life":300,"shape":{"type":"rectangle","width":3.0,"height":4.0,"orientation":0.0}},"visibleEntities":[],"wind":{"orientation":0.0,"strength":0.0}}
Next round input: {"ship":{"type":"ship","position":{"x":1219.2177651718694,"y":2447.645749037018,"orientation":-0.41170016166303214},"name":"d3","deck":{"width":3,"length":4},"entities":[{"x":0,"y":0,"type":"oar"},{"x":0,"y":2,"type":"oar"},{"x":1,"y":0,"type":"oar"},{"x":1,"y":2,"type":"oar"},{"x":2,"y":0,"type":"oar"},{"x":2,"y":2,"type":"oar"},{"x":3,"y":1,"type":"rudder"}],"life":300,"shape":{"type":"rectangle","width":3.0,"height":4.0,"orientation":0.0}},"visibleEntities":[],"wind":{"orientation":0.0,"strength":0.0}}
Next round input: {"ship":{"type":"ship","position":{"x":1242.961970490182,"y":2355.410933062127,"orientation":-2.2442958762570786},"name":"d3","deck":{"width":3,"length":4},"entities":[{"x":0,"y":0,"type":"oar"},{"x":0,"y":2,"type":"oar"},{"x":1,"y":0,"type":"oar"},{"x":1,"y":2,"type":"oar"},{"x":2,"y":0,"type":"oar"},{"x":2,"y":2,"type":"oar"},{"x":3,"y":1,"type":"rudder"}],"life":300,"shape":{"type":"rectangle","width":3.0,"height":4.0,"orientation":0.0}},"visibleEntities":[],"wind":{"orientation":0.0,"strength":0.0}}
Next round input: {"ship":{"type":"ship","position":{"x":1102.7205429402425,"y":2276.607550366958,"orientation":-3.022788551227489},"name":"d3","deck":{"width":3,"length":4},"entities":[{"x":0,"y":0,"type":"oar"},{"x":0,"y":2,"type":"oar"},{"x":1,"y":0,"type":"oar"},{"x":1,"y":2,"type":"oar"},{"x":2,"y":0,"type":"oar"},{"x":2,"y":2,"type":"oar"},{"x":3,"y":1,"type":"rudder"}],"life":300,"shape":{"type":"rectangle","width":3.0,"height":4.0,"orientation":0.0}},"visibleEntities":[],"wind":{"orientation":0.0,"strength":0.0}}
Next round input: {"ship":{"type":"ship","position":{"x":1084.4879453552908,"y":2214.530620926872,"orientation":-0.6665940610351463},"name":"d3","deck":{"width":3,"length":4},"entities":[{"x":0,"y":0,"type":"oar"},{"x":0,"y":2,"type":"oar"},{"x":1,"y":0,"type":"oar"},{"x":1,"y":2,"type":"oar"},{"x":2,"y":0,"type":"oar"},{"x":2,"y":2,"type":"oar"},{"x":3,"y":1,"type":"rudder"}],"life":300,"shape":{"type":"rectangle","width":3.0,"height":4.0,"orientation":0.0}},"visibleEntities":[],"wind":{"orientation":0.0,"strength":0.0}}
Next round input: {"ship":{"type":"ship","position":{"x":1176.9879104949896,"y":2237.219935885129,"orientation":1.1660016535588975},"name":"d3","deck":{"width":3,"length":4},"entities":[{"x":0,"y":0,"type":"oar"},{"x":0,"y":2,"type":"oar"},{"x":1,"y":0,"type":"oar"},{"x":1,"y":2,"type":"oar"},{"x":2,"y":0,"type":"oar"},{"x":2,"y":2,"type":"oar"},{"x":3,"y":1,"type":"rudder"}],"life":300,"shape":{"type":"rectangle","width":3.0,"height":4.0,"orientation":0.0}},"visibleEntities":[],"wind":{"orientation":0.0,"strength":0.0}}
Next round input: {"ship":{"type":"ship","position":{"x":1241.9698663929867,"y":2388.885177149156,"orientation":1.1660016535588975},"name":"d3","deck":{"width":3,"length":4},"entities":[{"x":0,"y":0,"type":"oar"},{"x":0,"y":2,"type":"oar"},{"x":1,"y":0,"type":"oar"},{"x":1,"y":2,"type":"oar"},{"x":2,"y":0,"type":"oar"},{"x":2,"y":2,"type":"oar"},{"x":3,"y":1,"type":"rudder"}],"life":300,"shape":{"type":"rectangle","width":3.0,"height":4.0,"orientation":0.0}},"visibleEntities":[],"wind":{"orientation":0.0,"strength":0.0}}
Next round input: {"ship":{"type":"ship","position":{"x":1306.6689573375647,"y":2388.8648215796056,"orientation":-1.1901928366334473},"name":"d3","deck":{"width":3,"length":4},"entities":[{"x":0,"y":0,"type":"oar"},{"x":0,"y":2,"type":"oar"},{"x":1,"y":0,"type":"oar"},{"x":1,"y":2,"type":"oar"},{"x":2,"y":0,"type":"oar"},{"x":2,"y":2,"type":"oar"},{"x":3,"y":1,"type":"rudder"}],"life":300,"shape":{"type":"rectangle","width":3.0,"height":4.0,"orientation":0.0}},"visibleEntities":[],"wind":{"orientation":0.0,"strength":0.0}}
Next round input: {"ship":{"type":"ship","position":{"x":1258.806248319575,"y":2306.5227931276686,"orientation":-3.0227885512275026},"name":"d3","deck":{"width":3,"length":4},"entities":[{"x":0,"y":0,"type":"oar"},{"x":0,"y":2,"type":"oar"},{"x":1,"y":0,"type":"oar"},{"x":1,"y":2,"type":"oar"},{"x":2,"y":0,"type":"oar"},{"x":2,"y":2,"type":"oar"},{"x":3,"y":1,"type":"rudder"}],"life":300,"shape":{"type":"rectangle","width":3.0,"height":4.0,"orientation":0.0}},"visibleEntities":[],"wind":{"orientation":0.0,"strength":0.0}}
Next round input: {"ship":{"type":"ship","position":{"x":1240.573650734622,"y":2244.445863687582,"orientation":-0.6665940610351601},"name":"d3","deck":{"width":3,"length":4},"entities":[{"x":0,"y":0,"type":"oar"},{"x":0,"y":2,"type":"oar"},{"x":1,"y":0,"type":"oar"},{"x":1,"y":2,"type":"oar"},{"x":2,"y":0,"type":"oar"},{"x":2,"y":2,"type":"oar"},{"x":3,"y":1,"type":"rudder"}],"life":300,"shape":{"type":"rectangle","width":3.0,"height":4.0,"orientation":0.0}},"visibleEntities":[],"wind":{"orientation":0.0,"strength":0.0}}
Next round input: {"ship":{"type":"ship","position":{"x":1297.3610618879102,"y":2275.4484880589375,"orientation":1.6896004291571864},"name":"d3","deck":{"width":3,"length":4},"entities":[{"x":0,"y":0,"type":"oar"},{"x":0,"y":2,"type":"oar"},{"x":1,"y":0,"type":"oar"},{"x":1,"y":2,"type":"oar"},{"x":2,"y":0,"type":"oar"},{"x":2,"y":2,"type":"oar"},{"x":3,"y":1,"type":"rudder"}],"life":300,"shape":{"type":"rectangle","width":3.0,"height":4.0,"orientation":0.0}},"visibleEntities":[],"wind":{"orientation":0.0,"strength":0.0}}
Next round input: {"ship":{"type":"ship","position":{"x":1208.6289172633396,"y":2367.551902183813,"orientation":2.9985973681529408},"name":"d3","deck":{"width":3,"length":4},"entities":[{"x":0,"y":0,"type":"oar"},{"x":0,"y":2,"type":"oar"},{"x":1,"y":0,"type":"oar"},{"x":1,"y":2,"type":"oar"},{"x":2,"y":0,"type":"oar"},{"x":2,"y":2,"type":"oar"},{"x":3,"y":1,"type":"rudder"}],"life":300,"shape":{"type":"rectangle","width":3.0,"height":4.0,"orientation":0.0}},"visibleEntities":[],"wind":{"orientation":0.0,"strength":0.0}}
Next round input: {"ship":{"type":"ship","position":{"x":1191.903222296399,"y":2430.0516934736806,"orientation":0.6424028779605981},"name":"d3","deck":{"width":3,"length":4},"entities":[{"x":0,"y":0,"type":"oar"},{"x":0,"y":2,"type":"oar"},{"x":1,"y":0,"type":"oar"},{"x":1,"y":2,"type":"oar"},{"x":2,"y":0,"type":"oar"},{"x":2,"y":2,"type":"oar"},{"x":3,"y":1,"type":"rudder"}],"life":300,"shape":{"type":"rectangle","width":3.0,"height":4.0,"orientation":0.0}},"visibleEntities":[],"wind":{"orientation":0.0,"strength":0.0}}
Next round input: {"ship":{"type":"ship","position":{"x":1247.9241008713893,"y":2397.684519561052,"orientation":-1.7137916122317485},"name":"d3","deck":{"width":3,"length":4},"entities":[{"x":0,"y":0,"type":"oar"},{"x":0,"y":2,"type":"oar"},{"x":1,"y":0,"type":"oar"},{"x":1,"y":2,"type":"oar"},{"x":2,"y":0,"type":"oar"},{"x":2,"y":2,"type":"oar"},{"x":3,"y":1,"type":"rudder"}],"life":300,"shape":{"type":"rectangle","width":3.0,"height":4.0,"orientation":0.0}},"visibleEntities":[],"wind":{"orientation":0.0,"strength":0.0}}
Next round input: {"ship":{"type":"ship","position":{"x":1224.410204345943,"y":2234.3685782993716,"orientation":-1.7137916122317485},"name":"d3","deck":{"width":3,"length":4},"entities":[{"x":0,"y":0,"type":"oar"},{"x":0,"y":2,"type":"oar"},{"x":1,"y":0,"type":"oar"},{"x":1,"y":2,"type":"oar"},{"x":2,"y":0,"type":"oar"},{"x":2,"y":2,"type":"oar"},{"x":3,"y":1,"type":"rudder"}],"life":300,"shape":{"type":"rectangle","width":3.0,"height":4.0,"orientation":0.0}},"visibleEntities":[],"wind":{"orientation":0.0,"strength":0.0}}
Next round input: {"ship":{"type":"ship","position":{"x":1279.6529702121697,"y":2200.690549811151,"orientation":0.642402877960598},"name":"d3","deck":{"width":3,"length":4},"entities":[{"x":0,"y":0,"type":"oar"},{"x":0,"y":2,"type":"oar"},{"x":1,"y":0,"type":"oar"},{"x":1,"y":2,"type":"oar"},{"x":2,"y":0,"type":"oar"},{"x":2,"y":2,"type":"oar"},{"x":3,"y":1,"type":"rudder"}],"life":300,"shape":{"type":"rectangle","width":3.0,"height":4.0,"orientation":0.0}},"visibleEntities":[],"wind":{"orientation":0.0,"strength":0.0}}
Next round input: {"ship":{"type":"ship","position":{"x":1281.6775275626558,"y":2295.9110819019534,"orientation":2.474998592554647},"name":"d3","deck":{"width":3,"length":4},"entities":[{"x":0,"y":0,"type":"oar"},{"x":0,"y":2,"type":"oar"},{"x":1,"y":0,"type":"oar"},{"x":1,"y":2,"type":"oar"},{"x":2,"y":0,"type":"oar"},{"x":2,"y":2,"type":"oar"},{"x":3,"y":1,"type":"rudder"}],"life":300,"shape":{"type":"rectangle","width":3.0,"height":4.0,"orientation":0.0}},"visibleEntities":[],"wind":{"orientation":0.0,"strength":0.0}}
Next round input: {"ship":{"type":"ship","position":{"x":1136.574807528189,"y":2372.519152964929,"orientation":2.8403145550646625},"name":"d3","deck":{"width":3,"length":4},"entities":[{"x":0,"y":0,"type":"oar"},{"x":0,"y":2,"type":"oar"},{"x":1,"y":0,"type":"oar"},{"x":1,"y":2,"type":"oar"},{"x":2,"y":0,"type":"oar"},{"x":2,"y":2,"type":"oar"},{"x":3,"y":1,"type":"rudder"}],"life":300,"shape":{"type":"rectangle","width":3.0,"height":4.0,"orientation":0.0}},"visibleEntities":[],"wind":{"orientation":0.0,"strength":0.0}}
Next round input: {"ship":{"type":"ship","position":{"x":1129.9095806957919,"y":2436.8740093059755,"orientation":0.48412006487231896},"name":"d3","deck":{"width":3,"length":4},"entities":[{"x":0,"y":0,"type":"oar"},{"x":0,"y":2,"type":"oar"},{"x":1,"y":0,"type":"oar"},{"x":1,"y":2,"type":"oar"},{"x":2,"y":0,"type":"oar"},{"x":2,"y":2,"type":"oar"},{"x":3,"y":1,"type":"rudder"}],"life":300,"shape":{"type":"rectangle","width":3.0,"height":4.0,"orientation":0.0}},"visibleEntities":[],"wind":{"orientation":0.0,"strength":0.0}}
Next round input: {"ship":{"type":"ship","position":{"x":1216.7565673106521,"y":2397.776062044788,"orientation":-1.3484756497217263},"name":"d3","deck":{"width":3,"length":4},"entities":[{"x":0,"y":0,"type":"oar"},{"x":0,"y":2,"type":"oar"},{"x":1,"y":0,"type":"oar"},{"x":1,"y":2,"type":"oar"},{"x":2,"y":0,"type":"oar"},{"x":2,"y":2,"type":"oar"},{"x":3,"y":1,"type":"rudder"}],"life":300,"shape":{"type":"rectangle","width":3.0,"height":4.0,"orientation":0.0}},"visibleEntities":[],"wind":{"orientation":0.0,"strength":0.0}}
Next round input: {"ship":{"type":"ship","position":{"x":1163.9502062081592,"y":2281.2946445987113,"orientation":-2.657472588717481},"name":"d3","deck":{"width":3,"length":4},"entities":[{"x":0,"y":0,"type":"oar"},{"x":0,"y":2,"type":"oar"},{"x":1,"y":0,"type":"oar"},{"x":1,"y":2,"type":"oar"},{"x":2,"y":0,"type":"oar"},{"x":2,"y":2,"type":"oar"},{"x":3,"y":1,"type":"rudder"}],"life":300,"shape":{"type":"rectangle","width":3.0,"height":4.0,"orientation":0.0}},"visibleEntities":[],"wind":{"orientation":0.0,"strength":0.0}}
Next round input: {"ship":{"type":"ship","position":{"x":1169.0973976937014,"y":2216.8006200443774,"orientation":-0.30127809852513643},"name":"d3","deck":{"width":3,"length":4},"entities":[{"x":0,"y":0,"type":"oar"},{"x":0,"y":2,"type":"oar"},{"x":1,"y":0,"type":"oar"},{"x":1,"y":2,"type":"oar"},{"x":2,"y":0,"type":"oar"},{"x":2,"y":2,"type":"oar"},{"x":3,"y":1,"type":"rudder"}],"life":300,"shape":{"type":"rectangle","width":3.0,"height":4.0,"orientation":0.0}},"visibleEntities":[],"wind":{"orientation":0.0,"strength":0.0}}
Next round input: {"ship":{"type":"ship","position":{"x":1211.061945798592,"y":2266.0443961562523,"orientation":2.054916391667211},"name":"d3","deck":{"width":3,"length":4},"entities":[{"x":0,"y":0,"type":"oar"},{"x":0,"y":2,"type":"oar"},{"x":1,"y":0,"type":"oar"},{"x":1,"y":2,"type":"oar"},{"x":2,"y":0,"type":"oar"},{"x":2,"y":2,"type":"oar"},{"x":3,"y":1,"type":"rudder"}],"life":300,"shape":{"type":"rectangle","width":3.0,"height":4.0,"orientation":0.0}},"visibleEntities":[],"wind":{"orientation":0.0,"strength":0.0}}
Next round input: {"ship":{"type":"ship","position":{"x":1112.8637073201135,"y":2397.78789618356,"orientation":2.370904495320353},"name":"d3","deck":{"width":3,"length":4},"entities":[{"x":0,"y":0,"type":"oar"},{"x":0,"y":2,"type":"oar"},{"x":1,"y":0,"type":"oar"},{"x":1,"y":2,"type":"oar"},{"x":2,"y":0,"type":"oar"},{"x":2,"y":2,"type":"oar"},{"x":3,"y":1,"type":"rudder"}],"life":300,"shape":{"type":"rectangle","width":3.0,"height":4.0,"orientation":0.0}},"visibleEntities":[],"wind":{"orientation":0.0,"strength":0.0}}
Next round input: {"ship":{"type":"ship","position":{"x":1136.0310005998474,"y":2458.1969129401245,"orientation":0.014710005128007096},"name":"d3","deck":{"width":3,"length":4},"entities":[{"x":0,"y":0,"type":"oar"},{"x":0,"y":2,"type":"oar"},{"x":1,"y":0,"type":"oar"},{"x":1,"y":2,"type":"oar"},{"x":2,"y":0,"type":"oar"},{"x":2,"y":2,"type":"oar"},{"x":3,"y":1,"type":"rudder"}],"life":300,"shape":{"type":"rectangle","width":3.0,"height":4.0,"orientation":0.0}},"visibleEntities":[],"wind":{"orientation":0.0,"strength":0.0}}
Next round input: {"ship":{"type":"ship","position":{"x":1195.7978531386825,"y":2384.041859830299,"orientation":-1.8178857094660372},"name":"d3","deck":{"width":3,"length":4},"entities":[{"x":0,"y":0,"type":"oar"},{"x":0,"y":2,"type":"oar"},{"x":1,"y":0,"type":"oar"},{"x":1,"y":2,"type":"oar"},{"x":2,"y":0,"type":"oar"},{"x":2,"y":2,"type":"oar"},{"x":3,"y":1,"type":"rudder"}],"life":300,"shape":{"type":"rectangle","width":3.0,"height":4.0,"orientation":0.0}},"visibleEntities":[],"wind":{"orientation":0.0,"strength":0.0}}
Next round input: {"ship":{"type":"ship","position":{"x":1103.0086622086335,"y":2252.1421676810746,"orientation":-2.5572197328766078},"name":"d3","deck":{"width":3,"length":4},"entities":[{"x":0,"y":0,"type":"oar"},{"x":0,"y":2,"type":"oar"},{"x":1,"y":0,"type":"oar"},{"x":1,"y":2,"type":"oar"},{"x":2,"y":0,"type":"oar"},{"x":2,"y":2,"type":"oar"},{"x":3,"y":1,"type":"rudder"}],"life":300,"shape":{"type":"rectangle","width":3.0,"height":4.0,"orientation":0.0}},"visibleEntities":[],"wind":{"orientation":0.0,"strength":0.0}}
Next round input: {"ship":{"type":"ship","position":{"x":1114.5848939184157,"y":2188.4871314089496,"orientation":-0.20102524268426283},"name":"d3","deck":{"width":3,"length":4},"entities":[{"x":0,"y":0,"type":"oar"},{"x":0,"y":2,"type":"oar"},{"x":1,"y":0,"type":"oar"},{"x":1,"y":2,"type":"oar"},{"x":2,"y":0,"type":"oar"},{"x":2,"y":2,"type":"oar"},{"x":3,"y":1,"type":"rudder"}],"life":300,"shape":{"type":"rectangle","width":3.0,"height":4.0,"orientation":0.0}},"visibleEntities":[],"wind":{"orientation":0.0,"strength":0.0}}
Next round input: {"ship":{"type":"ship","position":{"x":1187.0538098551556,"y":2250.287655573993,"orientation":1.631570471909781},"name":"d3","deck":{"width":3,"length":4},"entities":[{"x":0,"y":0,"type":"oar"},{"x":0,"y":2,"type":"oar"},{"x":1,"y":0,"type":"oar"},{"x":1,"y":2,"type":"oar"},{"x":2,"y":0,"type":"oar"},{"x":2,"y":2,"type":"oar"},{"x":3,"y":1,"type":"rudder"}],"life":300,"shape":{"type":"rectangle","width":3.0,"height":4.0,"orientation":0.0}},"visibleEntities":[],"wind":{"orientation":0.0,"strength":0.0}}
Next round input: {"ship":{"type":"ship","position":{"x":1139.4702318445616,"y":2406.6687013631517,"orientation":2.105518637527542},"name":"d3","deck":{"width":3,"length":4},"entities":[{"x":0,"y":0,"type":"oar"},{"x":0,"y":2,"type":"oar"},{"x":1,"y":0,"type":"oar"},{"x":1,"y":2,"type":"oar"},{"x":2,"y":0,"type":"oar"},{"x":2,"y":2,"type":"oar"},{"x":3,"y":1,"type":"rudder"}],"life":300,"shape":{"type":"rectangle","width":3.0,"height":4.0,"orientation":0.0}},"visibleEntities":[],"wind":{"orientation":0.0,"strength":0.0}}
Next round input: {"ship":{"type":"ship","position":{"x":1177.6706457205403,"y":2458.886525552867,"orientation":-0.2506758526648055},"name":"d3","deck":{"width":3,"length":4},"entities":[{"x":0,"y":0,"type":"oar"},{"x":0,"y":2,"type":"oar"},{"x":1,"y":0,"type":"oar"},{"x":1,"y":2,"type":"oar"},{"x":2,"y":0,"type":"oar"},{"x":2,"y":2,"type":"oar"},{"x":3,"y":1,"type":"rudder"}],"life":300,"shape":{"type":"rectangle","width":3.0,"height":4.0,"orientation":0.0}},"visibleEntities":[],"wind":{"orientation":0.0,"strength":0.0}}
Next round input: {"ship":{"type":"ship","position":{"x":1215.8956338619064,"y":2371.6517913828566,"orientation":-2.0832715672588504},"name":"d3","deck":{"width":3,"length":4},"entities":[{"x":0,"y":0,"type":"oar"},{"x":0,"y":2,"type":"oar"},{"x":1,"y":0,"type":"oar"},{"x":1,"y":2,"type":"oar"},{"x":2,"y":0,"type":"oar"},{"x":2,"y":2,"type":"oar"},{"x":3,"y":1,"type":"rudder"}],"life":300,"shape":{"type":"rectangle","width":3.0,"height":4.0,"orientation":0.0}},"visibleEntities":[],"wind":{"orientation":0.0,"strength":0.0}}
Next round input: {"ship":{"type":"ship","position":{"x":1092.6545272463509,"y":2267.323883567921,"orientation":-2.8021444704833494},"name":"d3","deck":{"width":3,"length":4},"entities":[{"x":0,"y":0,"type":"oar"},{"x":0,"y":2,"type":"oar"},{"x":1,"y":0,"type":"oar"},{"x":1,"y":2,"type":"oar"},{"x":2,"y":0,"type":"oar"},{"x":2,"y":2,"type":"oar"},{"x":3,"y":1,"type":"rudder"}],"life":300,"shape":{"type":"rectangle","width":3.0,"height":4.0,"orientation":0.0}},"visibleEntities":[],"wind":{"orientation":0.0,"strength":0.0}}
Next round input: {"ship":{"type":"ship","position":{"x":1088.449989161759,"y":2202.7615521129655,"orientation":-0.44594998029100585},"name":"d3","deck":{"width":3,"length":4},"entities":[{"x":0,"y":0,"type":"oar"},{"x":0,"y":2,"type":"oar"},{"x":1,"y":0,"type":"oar"},{"x":1,"y":2,"type":"oar"},{"x":2,"y":0,"type":"oar"},{"x":2,"y":2,"type":"oar"},{"x":3,"y":1,"type":"rudder"}],"life":300,"shape":{"type":"rectangle","width":3.0,"height":4.0,"orientation":0.0}},"visibleEntities":[],"wind":{"orientation":0.0,"strength":0.0}}
Next round input: {"ship":{"type":"ship","position":{"x":1173.741707772616,"y":2245.1451727762196,"orientation":1.386645734303038},"name":"d3","deck":{"width":3,"length":4},"entities":[{"x":0,"y":0,"type":"oar"},{"x":0,"y":2,"type":"oar"},{"x":1,"y":0,"type":"oar"},{"x":1,"y":2,"type":"oar"},{"x":2,"y":0,"type":"oar"},{"x":2,"y":2,"type":"oar"},{"x":3,"y":1,"type":"rudder"}],"life":300,"shape":{"type":"rectangle","width":3.0,"height":4.0,"orientation":0.0}},"visibleEntities":[],"wind":{"orientation":0.0,"strength":0.0}}
Next round input: {"ship":{"type":"ship","position":{"x":1156.6250880773177,"y":2406.899514806275,"orientation":1.9716495014284852},"name":"d3","deck":{"width":3,"length":4},"entities":[{"x":0,"y":0,"type":"oar"},{"x":0,"y":2,"type":"oar"},{"x":1,"y":0,"type":"oar"},{"x":1,"y":2,"type":"oar"},{"x":2,"y":0,"type":"oar"},{"x":2,"y":2,"type":"oar"},{"x":3,"y":1,"type":"rudder"}],"life":300,"shape":{"type":"rectangle","width":3.0,"height":4.0,"orientation":0.0}},"visibleEntities":[],"wind":{"orientation":0.0,"strength":0.0}}
Next round input: {"ship":{"type":"ship","position":{"x":1201.4532138160341,"y":2453.5515450531757,"orientation":-0.38454498876386256},"name":"d3","deck":{"width":3,"length":4},"entities":[{"x":0,"y":0,"type":"oar"},{"x":0,"y":2,"type":"oar"},{"x":1,"y":0,"type":"oar"},{"x":1,"y":2,"type":"oar"},{"x":2,"y":0,"type":"oar"},{"x":2,"y":2,"type":"oar"},{"x":3,"y":1,"type":"rudder"}],"life":300,"shape":{"type":"rectangle","width":3.0,"height":4.0,"orientation":0.0}},"visibleEntities":[],"wind":{"orientation":0.0,"strength":0.0}}
Next round input: {"ship":{"type":"ship","position":{"x":1227.693009706525,"y":2361.995432882845,"orientation":-2.2171407033579085},"name":"d3","deck":{"width":3,"length":4},"entities":[{"x":0,"y":0,"type":"oar"},{"x":0,"y":2,"type":"oar"},{"x":1,"y":0,"type":"oar"},{"x":1,"y":2,"type":"oar"},{"x":2,"y":0,"type":"oar"},{"x":2,"y":2,"type":"oar"},{"x":3,"y":1,"type":"rudder"}],"life":300,"shape":{"type":"rectangle","width":3.0,"height":4.0,"orientation":0.0}},"visibleEntities":[],"wind":{"orientation":0.0,"strength":0.0}}
Next round input: {"ship":{"type":"ship","position":{"x":1091.6047695574928,"y":2275.102434411683,"orientation":-2.936737037369727},"name":"d3","deck":{"width":3,"length":4},"entities":[{"x":0,"y":0,"type":"oar"},{"x":0,"y":2,"type":"oar"},{"x":1,"y":0,"type":"oar"},{"x":1,"y":2,"type":"oar"},{"x":2,"y":0,"type":"oar"},{"x":2,"y":2,"type":"oar"},{"x":3,"y":1,"type":"rudder"}],"life":300,"shape":{"type":"rectangle","width":3.0,"height":4.0,"orientation":0.0}},"visibleEntities":[],"wind":{"orientation":0.0,"strength":0.0}}
Next round input: {"ship":{"type":"ship","position":{"x":1078.7748588992272,"y":2211.6881917220085,"orientation":-0.5805425471773837},"name":"d3","deck":{"width":3,"length":4},"entities":[{"x":0,"y":0,"type":"oar"},{"x":0,"y":2,"type":"oar"},{"x":1,"y":0,"type":"oar"},{"x":1,"y":2,"type":"oar"},{"x":2,"y":0,"type":"oar"},{"x":2,"y":2,"type":"oar"},{"x":3,"y":1,"type":"rudder"}],"life":300,"shape":{"type":"rectangle","width":3.0,"height":4.0,"orientation":0.0}},"visibleEntities":[],"wind":{"orientation":0.0,"strength":0.0}}
Next round input: {"ship":{"type":"ship","position":{"x":1168.9825193434222,"y":2242.2434950473767,"orientation":1.2520531674166602},"name":"d3","deck":{"width":3,"length":4},"entities":[{"x":0,"y":0,"type":"oar"},{"x":0,"y":2,"type":"oar"},{"x":1,"y":0,"type":"oar"},{"x":1,"y":2,"type":"oar"},{"x":2,"y":0,"type":"oar"},{"x":2,"y":2,"type":"oar"},{"x":3,"y":1,"type":"rudder"}],"life":300,"shape":{"type":"rectangle","width":3.0,"height":4.0,"orientation":0.0}},"visibleEntities":[],"wind":{"orientation":0.0,"strength":0.0}}
Next round input: {"ship":{"type":"ship","position":{"x":1167.0724631763017,"y":2404.184057143895,"orientation":1.9198055111678203},"name":"d3","deck":{"width":3,"length":4},"entities":[{"x":0,"y":0,"type":"oar"},{"x":0,"y":2,"type":"oar"},{"x":1,"y":0,"type":"oar"},{"x":1,"y":2,"type":"oar"},{"x":2,"y":0,"type":"oar"},{"x":2,"y":2,"type":"oar"},{"x":3,"y":1,"type":"rudder"}],"life":300,"shape":{"type":"rectangle","width":3.0,"height":4.0,"orientation":0.0}},"visibleEntities":[],"wind":{"orientation":0.0,"strength":0.0}}
Next round input: {"ship":{"type":"ship","position":{"x":1214.2579019876707,"y":2448.4503778356234,"orientation":-0.4363889790245272},"name":"d3","deck":{"width":3,"length":4},"entities":[{"x":0,"y":0,"type":"oar"},{"x":0,"y":2,"type":"oar"},{"x":1,"y":0,"type":"oar"},{"x":1,"y":2,"type":"oar"},{"x":2,"y":0,"type":"oar"},{"x":2,"y":2,"type":"oar"},{"x":3,"y":1,"type":"rudder"}],"life":300,"shape":{"type":"rectangle","width":3.0,"height":4.0,"orientation":0.0}},"visibleEntities":[],"wind":{"orientation":0.0,"strength":0.0}}
Next round input: {"ship":{"type":"ship","position":{"x":1235.7179339830236,"y":2355.657513935004,"orientation":-2.268984693618574},"name":"d3","deck":{"width":3,"length":4},"entities":[{"x":0,"y":0,"type":"oar"},{"x":0,"y":2,"type":"oar"},{"x":1,"y":0,"type":"oar"},{"x":1,"y":2,"type":"oar"},{"x":2,"y":0,"type":"oar"},{"x":2,"y":2,"type":"oar"},{"x":3,"y":1,"type":"rudder"}],"life":300,"shape":{"type":"rectangle","width":3.0,"height":4.0,"orientation":0.0}},"visibleEntities":[],"wind":{"orientation":0.0,"strength":0.0}}
Next round input: {"ship":{"type":"ship","position":{"x":1094.5930038854824,"y":2277.692091535655,"orientation":-3.0121776506780424},"name":"d3","deck":{"width":3,"length":4},"entities":[{"x":0,"y":0,"type":"oar"},{"x":0,"y":2,"type":"oar"},{"x":1,"y":0,"type":"oar"},{"x":1,"y":2,"type":"oar"},{"x":2,"y":0,"type":"oar"},{"x":2,"y":2,"type":"oar"},{"x":3,"y":1,"type":"rudder"}],"life":300,"shape":{"type":"rectangle","width":3.0,"height":4.0,"orientation":0.0}},"visibleEntities":[],"wind":{"orientation":0.0,"strength":0.0}}
Next round input: {"ship":{"type":"ship","position":{"x":1077.0201124702985,"y":2215.425196071738,"orientation":-0.6559831604856997},"name":"d3","deck":{"width":3,"length":4},"entities":[{"x":0,"y":0,"type":"oar"},{"x":0,"y":2,"type":"oar"},{"x":1,"y":0,"type":"oar"},{"x":1,"y":2,"type":"oar"},{"x":2,"y":0,"type":"oar"},{"x":2,"y":2,"type":"oar"},{"x":3,"y":1,"type":"rudder"}],"life":300,"shape":{"type":"rectangle","width":3.0,"height":4.0,"orientation":0.0}},"visibleEntities":[],"wind":{"orientation":0.0,"strength":0.0}}
Next round input: {"ship":{"type":"ship","position":{"x":1169.274120770549,"y":2239.0947232460944,"orientation":1.176612554108344},"name":"d3","deck":{"width":3,"length":4},"entities":[{"x":0,"y":0,"type":"oar"},{"x":0,"y":2,"type":"oar"},{"x":1,"y":0,"type":"oar"},{"x":1,"y":2,"type":"oar"},{"x":2,"y":0,"type":"oar"},{"x":2,"y":2,"type":"oar"},{"x":3,"y":1,"type":"rudder"}],"life":300,"shape":{"type":"rectangle","width":3.0,"height":4.0,"orientation":0.0}},"visibleEntities":[],"wind":{"orientation":0.0,"strength":0.0}}
Next round input: {"ship":{"type":"ship","position":{"x":1174.1017028605863,"y":2400.325204863066,"orientation":1.9124723480083285},"name":"d3","deck":{"width":3,"length":4},"entities":[{"x":0,"y":0,"type":"oar"},{"x":0,"y":2,"type":"oar"},{"x":1,"y":0,"type":"oar"},{"x":1,"y":2,"type":"oar"},{"x":2,"y":0,"type":"oar"},{"x":2,"y":2,"type":"oar"},{"x":3,"y":1,"type":"rudder"}],"life":300,"shape":{"type":"rectangle","width":3.0,"height":4.0,"orientation":0.0}},"visibleEntities":[],"wind":{"orientation":0.0,"strength":0.0}}
Next round input: {"ship":{"type":"ship","position":{"x":1221.610482215261,"y":2444.244319922833,"orientation":-0.44372214218401884},"name":"d3","deck":{"width":3,"length":4},"entities":[{"x":0,"y":0,"type":"oar"},{"x":0,"y":2,"type":"oar"},{"x":1,"y":0,"type":"oar"},{"x":1,"y":2,"type":"oar"},{"x":2,"y":0,"type":"oar"},{"x":2,"y":2,"type":"oar"},{"x":3,"y":1,"type":"rudder"}],"life":300,"shape":{"type":"rectangle","width":3.0,"height":4.0,"orientation":0.0}},"visibleEntities":[],"wind":{"orientation":0.0,"strength":0.0}}
Next round input: {"ship":{"type":"ship","position":{"x":1242.3894780912308,"y":2351.2965824866396,"orientation":-2.2763178567780655},"name":"d3","deck":{"width":3,"length":4},"entities":[{"x":0,"y":0,"type":"oar"},{"x":0,"y":2,"type":"oar"},{"x":1,"y":0,"type":"oar"},{"x":1,"y":2,"type":"oar"},{"x":2,"y":0,"type":"oar"},{"x":2,"y":2,"type":"oar"},{"x":3,"y":1,"type":"rudder"}],"life":300,"shape":{"type":"rectangle","width":3.0,"height":4.0,"orientation":0.0}},"visibleEntities":[],"wind":{"orientation":0.0,"strength":0.0}}
Next round input: {"ship":{"type":"ship","position":{"x":1099.5753727927756,"y":2277.3599899779488,"orientation":-3.059263529471479},"name":"d3","deck":{"width":3,"length":4},"entities":[{"x":0,"y":0,"type":"oar"},{"x":0,"y":2,"type":"oar"},{"x":1,"y":0,"type":"oar"},{"x":1,"y":2,"type":"oar"},{"x":2,"y":0,"type":"oar"},{"x":2,"y":2,"type":"oar"},{"x":3,"y":1,"type":"rudder"}],"life":300,"shape":{"type":"rectangle","width":3.0,"height":4.0,"orientation":0.0}},"visibleEntities":[],"wind":{"orientation":0.0,"strength":0.0}}
Next round input: {"ship":{"type":"ship","position":{"x":1079.091149791882,"y":2215.989236426654,"orientation":-0.7030690392791367},"name":"d3","deck":{"width":3,"length":4},"entities":[{"x":0,"y":0,"type":"oar"},{"x":0,"y":2,"type":"oar"},{"x":1,"y":0,"type":"oar"},{"x":1,"y":2,"type":"oar"},{"x":2,"y":0,"type":"oar"},{"x":2,"y":2,"type":"oar"},{"x":3,"y":1,"type":"rudder"}],"life":300,"shape":{"type":"rectangle","width":3.0,"height":4.0,"orientation":0.0}},"visibleEntities":[],"wind":{"orientation":0.0,"strength":0.0}}
Next round input: {"ship":{"type":"ship","position":{"x":1172.3569984382684,"y":2235.2902737145764,"orientation":1.1295266753149071},"name":"d3","deck":{"width":3,"length":4},"entities":[{"x":0,"y":0,"type":"oar"},{"x":0,"y":2,"type":"oar"},{"x":1,"y":0,"type":"oar"},{"x":1,"y":2,"type":"oar"},{"x":2,"y":0,"type":"oar"},{"x":2,"y":2,"type":"oar"},{"x":3,"y":1,"type":"rudder"}],"life":300,"shape":{"type":"rectangle","width":3.0,"height":4.0,"orientation":0.0}},"visibleEntities":[],"wind":{"orientation":0.0,"strength":0.0}}
Next round input: {"ship":{"type":"ship","position":{"x":1242.8264921595846,"y":2384.48494672491,"orientation":1.1295266753149071},"name":"d3","deck":{"width":3,"length":4},"entities":[{"x":0,"y":0,"type":"oar"},{"x":0,"y":2,"type":"oar"},{"x":1,"y":0,"type":"oar"},{"x":1,"y":2,"type":"oar"},{"x":2,"y":0,"type":"oar"},{"x":2,"y":2,"type":"oar"},{"x":3,"y":1,"type":"rudder"}],"life":300,"shape":{"type":"rectangle","width":3.0,"height":4.0,"orientation":0.0}},"visibleEntities":[],"wind":{"orientation":0.0,"strength":0.0}}
Next round input: {"ship":{"type":"ship","position":{"x":1307.4818069583403,"y":2382.1052300027004,"orientation":-1.2266678148774377},"name":"d3","deck":{"width":3,"length":4},"entities":[{"x":0,"y":0,"type":"oar"},{"x":0,"y":2,"type":"oar"},{"x":1,"y":0,"type":"oar"},{"x":1,"y":2,"type":"oar"},{"x":2,"y":0,"type":"oar"},{"x":2,"y":2,"type":"oar"},{"x":3,"y":1,"type":"rudder"}],"life":300,"shape":{"type":"rectangle","width":3.0,"height":4.0,"orientation":0.0}},"visibleEntities":[],"wind":{"orientation":0.0,"strength":0.0}}
