Init game input: {"goal":{"mode":"REGATTA","checkpoints":[{"position":{"x":2279.6317218053687,"y":2879.047015765768,"orientation":0.0},"shape":{"type":"circle","radius":100.0}},{"position":{"x":2256.4589017735334,"y":1352.1959459459492,"orientation":0.0},"shape":{"type":"circle","radius":100.0}},{"position":{"x":3590.3073840382,"y":2221.734234234234,"orientation":0.0},"shape":{"type":"circle","radius":80.0}},{"position":{"x":2241.8126847430635,"y":1345.6855292792793,"orientation":0.0},"shape":{"type":"circle","radius":100.0}},{"position":{"x":1132.5943610732181,"y":2342.236768018018,"orientation":0.0},"shape":{"type":"circle","radius":80.0}}]},"ship":{"type":"ship","position":{"x":2185.3061761027725,"y":-227.86458333333408,"orientation":1.5882496193148399},"name":"les_gros_q","deck":{"width":3,"length":4},"entities":[{"x":0,"y":0,"type":"oar"},{"x":0,"y":2,"type":"oar"},{"x":1,"y":0,"type":"oar"},{"x":1,"y":2,"type":"oar"},{"x":2,"y":0,"type":"oar"},{"x":2,"y":2,"type":"oar"},{"x":3,"y":1,"type":"rudder"}],"life":300,"shape":{"type":"rectangle","width":3.0,"height":4.0,"orientation":0.0}},"sailors":[{"x":0,"y":0,"id":0,"name":"Edward Teach"},{"x":0,"y":1,"id":1,"name":"Tom Pouce"},{"x":0,"y":2,"id":2,"name":"Luffy Pouce"},{"x":1,"y":0,"id":3,"name":"Luffy Pouce"},{"x":1,"y":1,"id":4,"name":"Tom Teach"}],"shipCount":1}
Game initialised : GameData{goal=fr.unice.polytech.si3.qgl.les_gros_q.objects.RegattaGoal@205c93d2, ship=Ship{type='ship', life=300, position=Position{x=2185.3061761027725, y=-227.86458333333408, orientation=1.5882496193148399}, name='les_gros_q', deck=fr.unice.polytech.si3.qgl.les_gros_q.objects.Deck@569af23f, entities=[oar[0,0], oar[0,2], oar[1,0], oar[1,2], oar[2,0], oar[2,2], rudder[3,1]], shape=fr.unice.polytech.si3.qgl.les_gros_q.objects.shapes.Rectangle@5486ddc4}, sailors=[fr.unice.polytech.si3.qgl.les_gros_q.objects.Sailor@6c3c8e8c, fr.unice.polytech.si3.qgl.les_gros_q.objects.Sailor@1e684609, fr.unice.polytech.si3.qgl.les_gros_q.objects.Sailor@7bab0a8, fr.unice.polytech.si3.qgl.les_gros_q.objects.Sailor@23285877, fr.unice.polytech.si3.qgl.les_gros_q.objects.Sailor@2be8ea70], shipCount=1}
Next round input: {"ship":{"type":"ship","position":{"x":2185.3061761027725,"y":-227.86458333333408,"orientation":1.5882496193148399},"name":"les_gros_q","deck":{"width":3,"length":4},"entities":[{"x":0,"y":0,"type":"oar"},{"x":0,"y":2,"type":"oar"},{"x":1,"y":0,"type":"oar"},{"x":1,"y":2,"type":"oar"},{"x":2,"y":0,"type":"oar"},{"x":2,"y":2,"type":"oar"},{"x":3,"y":1,"type":"rudder"}],"life":300,"shape":{"type":"rectangle","width":3.0,"height":4.0,"orientation":0.0}},"visibleEntities":[],"wind":{"orientation":0.0,"strength":0.0}}
Next round input: {"ship":{"type":"ship","position":{"x":2185.3061761027725,"y":-227.86458333333408,"orientation":1.5882496193148399},"name":"les_gros_q","deck":{"width":3,"length":4},"entities":[{"x":0,"y":0,"type":"oar"},{"x":0,"y":2,"type":"oar"},{"x":1,"y":0,"type":"oar"},{"x":1,"y":2,"type":"oar"},{"x":2,"y":0,"type":"oar"},{"x":2,"y":2,"type":"oar"},{"x":3,"y":1,"type":"rudder"}],"life":300,"shape":{"type":"rectangle","width":3.0,"height":4.0,"orientation":0.0}},"visibleEntities":[],"wind":{"orientation":0.0,"strength":0.0}}
Next round input: {"ship":{"type":"ship","position":{"x":2185.3061761027725,"y":-227.86458333333408,"orientation":1.5882496193148399},"name":"les_gros_q","deck":{"width":3,"length":4},"entities":[{"x":0,"y":0,"type":"oar"},{"x":0,"y":2,"type":"oar"},{"x":1,"y":0,"type":"oar"},{"x":1,"y":2,"type":"oar"},{"x":2,"y":0,"type":"oar"},{"x":2,"y":2,"type":"oar"},{"x":3,"y":1,"type":"rudder"}],"life":300,"shape":{"type":"rectangle","width":3.0,"height":4.0,"orientation":0.0}},"visibleEntities":[],"wind":{"orientation":0.0,"strength":0.0}}
Next round input: {"ship":{"type":"ship","position":{"x":2185.3061761027725,"y":-227.86458333333408,"orientation":1.5882496193148399},"name":"les_gros_q","deck":{"width":3,"length":4},"entities":[{"x":0,"y":0,"type":"oar"},{"x":0,"y":2,"type":"oar"},{"x":1,"y":0,"type":"oar"},{"x":1,"y":2,"type":"oar"},{"x":2,"y":0,"type":"oar"},{"x":2,"y":2,"type":"oar"},{"x":3,"y":1,"type":"rudder"}],"life":300,"shape":{"type":"rectangle","width":3.0,"height":4.0,"orientation":0.0}},"visibleEntities":[],"wind":{"orientation":0.0,"strength":0.0}}
Next round input: {"ship":{"type":"ship","position":{"x":2185.3061761027725,"y":-227.86458333333408,"orientation":1.5882496193148399},"name":"les_gros_q","deck":{"width":3,"length":4},"entities":[{"x":0,"y":0,"type":"oar"},{"x":0,"y":2,"type":"oar"},{"x":1,"y":0,"type":"oar"},{"x":1,"y":2,"type":"oar"},{"x":2,"y":0,"type":"oar"},{"x":2,"y":2,"type":"oar"},{"x":3,"y":1,"type":"rudder"}],"life":300,"shape":{"type":"rectangle","width":3.0,"height":4.0,"orientation":0.0}},"visibleEntities":[],"wind":{"orientation":0.0,"strength":0.0}}
Next round input: {"ship":{"type":"ship","position":{"x":2185.3061761027725,"y":-227.86458333333408,"orientation":1.5882496193148399},"name":"les_gros_q","deck":{"width":3,"length":4},"entities":[{"x":0,"y":0,"type":"oar"},{"x":0,"y":2,"type":"oar"},{"x":1,"y":0,"type":"oar"},{"x":1,"y":2,"type":"oar"},{"x":2,"y":0,"type":"oar"},{"x":2,"y":2,"type":"oar"},{"x":3,"y":1,"type":"rudder"}],"life":300,"shape":{"type":"rectangle","width":3.0,"height":4.0,"orientation":0.0}},"visibleEntities":[],"wind":{"orientation":0.0,"strength":0.0}}
Next round input: {"ship":{"type":"ship","position":{"x":2185.3061761027725,"y":-227.86458333333408,"orientation":1.5882496193148399},"name":"les_gros_q","deck":{"width":3,"length":4},"entities":[{"x":0,"y":0,"type":"oar"},{"x":0,"y":2,"type":"oar"},{"x":1,"y":0,"type":"oar"},{"x":1,"y":2,"type":"oar"},{"x":2,"y":0,"type":"oar"},{"x":2,"y":2,"type":"oar"},{"x":3,"y":1,"type":"rudder"}],"life":300,"shape":{"type":"rectangle","width":3.0,"height":4.0,"orientation":0.0}},"visibleEntities":[],"wind":{"orientation":0.0,"strength":0.0}}
Next round input: {"ship":{"type":"ship","position":{"x":2185.3061761027725,"y":-227.86458333333408,"orientation":1.5882496193148399},"name":"les_gros_q","deck":{"width":3,"length":4},"entities":[{"x":0,"y":0,"type":"oar"},{"x":0,"y":2,"type":"oar"},{"x":1,"y":0,"type":"oar"},{"x":1,"y":2,"type":"oar"},{"x":2,"y":0,"type":"oar"},{"x":2,"y":2,"type":"oar"},{"x":3,"y":1,"type":"rudder"}],"life":300,"shape":{"type":"rectangle","width":3.0,"height":4.0,"orientation":0.0}},"visibleEntities":[],"wind":{"orientation":0.0,"strength":0.0}}
Next round input: {"ship":{"type":"ship","position":{"x":2185.3061761027725,"y":-227.86458333333408,"orientation":1.5882496193148399},"name":"les_gros_q","deck":{"width":3,"length":4},"entities":[{"x":0,"y":0,"type":"oar"},{"x":0,"y":2,"type":"oar"},{"x":1,"y":0,"type":"oar"},{"x":1,"y":2,"type":"oar"},{"x":2,"y":0,"type":"oar"},{"x":2,"y":2,"type":"oar"},{"x":3,"y":1,"type":"rudder"}],"life":300,"shape":{"type":"rectangle","width":3.0,"height":4.0,"orientation":0.0}},"visibleEntities":[],"wind":{"orientation":0.0,"strength":0.0}}
Next round input: {"ship":{"type":"ship","position":{"x":2185.3061761027725,"y":-227.86458333333408,"orientation":1.5882496193148399},"name":"les_gros_q","deck":{"width":3,"length":4},"entities":[{"x":0,"y":0,"type":"oar"},{"x":0,"y":2,"type":"oar"},{"x":1,"y":0,"type":"oar"},{"x":1,"y":2,"type":"oar"},{"x":2,"y":0,"type":"oar"},{"x":2,"y":2,"type":"oar"},{"x":3,"y":1,"type":"rudder"}],"life":300,"shape":{"type":"rectangle","width":3.0,"height":4.0,"orientation":0.0}},"visibleEntities":[],"wind":{"orientation":0.0,"strength":0.0}}
Next round input: {"ship":{"type":"ship","position":{"x":2185.3061761027725,"y":-227.86458333333408,"orientation":1.5882496193148399},"name":"les_gros_q","deck":{"width":3,"length":4},"entities":[{"x":0,"y":0,"type":"oar"},{"x":0,"y":2,"type":"oar"},{"x":1,"y":0,"type":"oar"},{"x":1,"y":2,"type":"oar"},{"x":2,"y":0,"type":"oar"},{"x":2,"y":2,"type":"oar"},{"x":3,"y":1,"type":"rudder"}],"life":300,"shape":{"type":"rectangle","width":3.0,"height":4.0,"orientation":0.0}},"visibleEntities":[],"wind":{"orientation":0.0,"strength":0.0}}
Next round input: {"ship":{"type":"ship","position":{"x":2185.3061761027725,"y":-227.86458333333408,"orientation":1.5882496193148399},"name":"les_gros_q","deck":{"width":3,"length":4},"entities":[{"x":0,"y":0,"type":"oar"},{"x":0,"y":2,"type":"oar"},{"x":1,"y":0,"type":"oar"},{"x":1,"y":2,"type":"oar"},{"x":2,"y":0,"type":"oar"},{"x":2,"y":2,"type":"oar"},{"x":3,"y":1,"type":"rudder"}],"life":300,"shape":{"type":"rectangle","width":3.0,"height":4.0,"orientation":0.0}},"visibleEntities":[],"wind":{"orientation":0.0,"strength":0.0}}
Next round input: {"ship":{"type":"ship","position":{"x":2185.3061761027725,"y":-227.86458333333408,"orientation":1.5882496193148399},"name":"les_gros_q","deck":{"width":3,"length":4},"entities":[{"x":0,"y":0,"type":"oar"},{"x":0,"y":2,"type":"oar"},{"x":1,"y":0,"type":"oar"},{"x":1,"y":2,"type":"oar"},{"x":2,"y":0,"type":"oar"},{"x":2,"y":2,"type":"oar"},{"x":3,"y":1,"type":"rudder"}],"life":300,"shape":{"type":"rectangle","width":3.0,"height":4.0,"orientation":0.0}},"visibleEntities":[],"wind":{"orientation":0.0,"strength":0.0}}
Next round input: {"ship":{"type":"ship","position":{"x":2185.3061761027725,"y":-227.86458333333408,"orientation":1.5882496193148399},"name":"les_gros_q","deck":{"width":3,"length":4},"entities":[{"x":0,"y":0,"type":"oar"},{"x":0,"y":2,"type":"oar"},{"x":1,"y":0,"type":"oar"},{"x":1,"y":2,"type":"oar"},{"x":2,"y":0,"type":"oar"},{"x":2,"y":2,"type":"oar"},{"x":3,"y":1,"type":"rudder"}],"life":300,"shape":{"type":"rectangle","width":3.0,"height":4.0,"orientation":0.0}},"visibleEntities":[],"wind":{"orientation":0.0,"strength":0.0}}
Next round input: {"ship":{"type":"ship","position":{"x":2185.3061761027725,"y":-227.86458333333408,"orientation":1.5882496193148399},"name":"les_gros_q","deck":{"width":3,"length":4},"entities":[{"x":0,"y":0,"type":"oar"},{"x":0,"y":2,"type":"oar"},{"x":1,"y":0,"type":"oar"},{"x":1,"y":2,"type":"oar"},{"x":2,"y":0,"type":"oar"},{"x":2,"y":2,"type":"oar"},{"x":3,"y":1,"type":"rudder"}],"life":300,"shape":{"type":"rectangle","width":3.0,"height":4.0,"orientation":0.0}},"visibleEntities":[],"wind":{"orientation":0.0,"strength":0.0}}
Next round input: {"ship":{"type":"ship","position":{"x":2185.3061761027725,"y":-227.86458333333408,"orientation":1.5882496193148399},"name":"les_gros_q","deck":{"width":3,"length":4},"entities":[{"x":0,"y":0,"type":"oar"},{"x":0,"y":2,"type":"oar"},{"x":1,"y":0,"type":"oar"},{"x":1,"y":2,"type":"oar"},{"x":2,"y":0,"type":"oar"},{"x":2,"y":2,"type":"oar"},{"x":3,"y":1,"type":"rudder"}],"life":300,"shape":{"type":"rectangle","width":3.0,"height":4.0,"orientation":0.0}},"visibleEntities":[],"wind":{"orientation":0.0,"strength":0.0}}
Next round input: {"ship":{"type":"ship","position":{"x":2185.3061761027725,"y":-227.86458333333408,"orientation":1.5882496193148399},"name":"les_gros_q","deck":{"width":3,"length":4},"entities":[{"x":0,"y":0,"type":"oar"},{"x":0,"y":2,"type":"oar"},{"x":1,"y":0,"type":"oar"},{"x":1,"y":2,"type":"oar"},{"x":2,"y":0,"type":"oar"},{"x":2,"y":2,"type":"oar"},{"x":3,"y":1,"type":"rudder"}],"life":300,"shape":{"type":"rectangle","width":3.0,"height":4.0,"orientation":0.0}},"visibleEntities":[],"wind":{"orientation":0.0,"strength":0.0}}
Next round input: {"ship":{"type":"ship","position":{"x":2185.3061761027725,"y":-227.86458333333408,"orientation":1.5882496193148399},"name":"les_gros_q","deck":{"width":3,"length":4},"entities":[{"x":0,"y":0,"type":"oar"},{"x":0,"y":2,"type":"oar"},{"x":1,"y":0,"type":"oar"},{"x":1,"y":2,"type":"oar"},{"x":2,"y":0,"type":"oar"},{"x":2,"y":2,"type":"oar"},{"x":3,"y":1,"type":"rudder"}],"life":300,"shape":{"type":"rectangle","width":3.0,"height":4.0,"orientation":0.0}},"visibleEntities":[],"wind":{"orientation":0.0,"strength":0.0}}
Next round input: {"ship":{"type":"ship","position":{"x":2185.3061761027725,"y":-227.86458333333408,"orientation":1.5882496193148399},"name":"les_gros_q","deck":{"width":3,"length":4},"entities":[{"x":0,"y":0,"type":"oar"},{"x":0,"y":2,"type":"oar"},{"x":1,"y":0,"type":"oar"},{"x":1,"y":2,"type":"oar"},{"x":2,"y":0,"type":"oar"},{"x":2,"y":2,"type":"oar"},{"x":3,"y":1,"type":"rudder"}],"life":300,"shape":{"type":"rectangle","width":3.0,"height":4.0,"orientation":0.0}},"visibleEntities":[],"wind":{"orientation":0.0,"strength":0.0}}
Next round input: {"ship":{"type":"ship","position":{"x":2185.3061761027725,"y":-227.86458333333408,"orientation":1.5882496193148399},"name":"les_gros_q","deck":{"width":3,"length":4},"entities":[{"x":0,"y":0,"type":"oar"},{"x":0,"y":2,"type":"oar"},{"x":1,"y":0,"type":"oar"},{"x":1,"y":2,"type":"oar"},{"x":2,"y":0,"type":"oar"},{"x":2,"y":2,"type":"oar"},{"x":3,"y":1,"type":"rudder"}],"life":300,"shape":{"type":"rectangle","width":3.0,"height":4.0,"orientation":0.0}},"visibleEntities":[],"wind":{"orientation":0.0,"strength":0.0}}
Next round input: {"ship":{"type":"ship","position":{"x":2185.3061761027725,"y":-227.86458333333408,"orientation":1.5882496193148399},"name":"les_gros_q","deck":{"width":3,"length":4},"entities":[{"x":0,"y":0,"type":"oar"},{"x":0,"y":2,"type":"oar"},{"x":1,"y":0,"type":"oar"},{"x":1,"y":2,"type":"oar"},{"x":2,"y":0,"type":"oar"},{"x":2,"y":2,"type":"oar"},{"x":3,"y":1,"type":"rudder"}],"life":300,"shape":{"type":"rectangle","width":3.0,"height":4.0,"orientation":0.0}},"visibleEntities":[],"wind":{"orientation":0.0,"strength":0.0}}
Next round input: {"ship":{"type":"ship","position":{"x":2185.3061761027725,"y":-227.86458333333408,"orientation":1.5882496193148399},"name":"les_gros_q","deck":{"width":3,"length":4},"entities":[{"x":0,"y":0,"type":"oar"},{"x":0,"y":2,"type":"oar"},{"x":1,"y":0,"type":"oar"},{"x":1,"y":2,"type":"oar"},{"x":2,"y":0,"type":"oar"},{"x":2,"y":2,"type":"oar"},{"x":3,"y":1,"type":"rudder"}],"life":300,"shape":{"type":"rectangle","width":3.0,"height":4.0,"orientation":0.0}},"visibleEntities":[],"wind":{"orientation":0.0,"strength":0.0}}
Next round input: {"ship":{"type":"ship","position":{"x":2185.3061761027725,"y":-227.86458333333408,"orientation":1.5882496193148399},"name":"les_gros_q","deck":{"width":3,"length":4},"entities":[{"x":0,"y":0,"type":"oar"},{"x":0,"y":2,"type":"oar"},{"x":1,"y":0,"type":"oar"},{"x":1,"y":2,"type":"oar"},{"x":2,"y":0,"type":"oar"},{"x":2,"y":2,"type":"oar"},{"x":3,"y":1,"type":"rudder"}],"life":300,"shape":{"type":"rectangle","width":3.0,"height":4.0,"orientation":0.0}},"visibleEntities":[],"wind":{"orientation":0.0,"strength":0.0}}
Next round input: {"ship":{"type":"ship","position":{"x":2185.3061761027725,"y":-227.86458333333408,"orientation":1.5882496193148399},"name":"les_gros_q","deck":{"width":3,"length":4},"entities":[{"x":0,"y":0,"type":"oar"},{"x":0,"y":2,"type":"oar"},{"x":1,"y":0,"type":"oar"},{"x":1,"y":2,"type":"oar"},{"x":2,"y":0,"type":"oar"},{"x":2,"y":2,"type":"oar"},{"x":3,"y":1,"type":"rudder"}],"life":300,"shape":{"type":"rectangle","width":3.0,"height":4.0,"orientation":0.0}},"visibleEntities":[],"wind":{"orientation":0.0,"strength":0.0}}
Next round input: {"ship":{"type":"ship","position":{"x":2185.3061761027725,"y":-227.86458333333408,"orientation":1.5882496193148399},"name":"les_gros_q","deck":{"width":3,"length":4},"entities":[{"x":0,"y":0,"type":"oar"},{"x":0,"y":2,"type":"oar"},{"x":1,"y":0,"type":"oar"},{"x":1,"y":2,"type":"oar"},{"x":2,"y":0,"type":"oar"},{"x":2,"y":2,"type":"oar"},{"x":3,"y":1,"type":"rudder"}],"life":300,"shape":{"type":"rectangle","width":3.0,"height":4.0,"orientation":0.0}},"visibleEntities":[],"wind":{"orientation":0.0,"strength":0.0}}
Next round input: {"ship":{"type":"ship","position":{"x":2185.3061761027725,"y":-227.86458333333408,"orientation":1.5882496193148399},"name":"les_gros_q","deck":{"width":3,"length":4},"entities":[{"x":0,"y":0,"type":"oar"},{"x":0,"y":2,"type":"oar"},{"x":1,"y":0,"type":"oar"},{"x":1,"y":2,"type":"oar"},{"x":2,"y":0,"type":"oar"},{"x":2,"y":2,"type":"oar"},{"x":3,"y":1,"type":"rudder"}],"life":300,"shape":{"type":"rectangle","width":3.0,"height":4.0,"orientation":0.0}},"visibleEntities":[],"wind":{"orientation":0.0,"strength":0.0}}
Next round input: {"ship":{"type":"ship","position":{"x":2185.3061761027725,"y":-227.86458333333408,"orientation":1.5882496193148399},"name":"les_gros_q","deck":{"width":3,"length":4},"entities":[{"x":0,"y":0,"type":"oar"},{"x":0,"y":2,"type":"oar"},{"x":1,"y":0,"type":"oar"},{"x":1,"y":2,"type":"oar"},{"x":2,"y":0,"type":"oar"},{"x":2,"y":2,"type":"oar"},{"x":3,"y":1,"type":"rudder"}],"life":300,"shape":{"type":"rectangle","width":3.0,"height":4.0,"orientation":0.0}},"visibleEntities":[],"wind":{"orientation":0.0,"strength":0.0}}
Next round input: {"ship":{"type":"ship","position":{"x":2185.3061761027725,"y":-227.86458333333408,"orientation":1.5882496193148399},"name":"les_gros_q","deck":{"width":3,"length":4},"entities":[{"x":0,"y":0,"type":"oar"},{"x":0,"y":2,"type":"oar"},{"x":1,"y":0,"type":"oar"},{"x":1,"y":2,"type":"oar"},{"x":2,"y":0,"type":"oar"},{"x":2,"y":2,"type":"oar"},{"x":3,"y":1,"type":"rudder"}],"life":300,"shape":{"type":"rectangle","width":3.0,"height":4.0,"orientation":0.0}},"visibleEntities":[],"wind":{"orientation":0.0,"strength":0.0}}
Next round input: {"ship":{"type":"ship","position":{"x":2185.3061761027725,"y":-227.86458333333408,"orientation":1.5882496193148399},"name":"les_gros_q","deck":{"width":3,"length":4},"entities":[{"x":0,"y":0,"type":"oar"},{"x":0,"y":2,"type":"oar"},{"x":1,"y":0,"type":"oar"},{"x":1,"y":2,"type":"oar"},{"x":2,"y":0,"type":"oar"},{"x":2,"y":2,"type":"oar"},{"x":3,"y":1,"type":"rudder"}],"life":300,"shape":{"type":"rectangle","width":3.0,"height":4.0,"orientation":0.0}},"visibleEntities":[],"wind":{"orientation":0.0,"strength":0.0}}
Next round input: {"ship":{"type":"ship","position":{"x":2185.3061761027725,"y":-227.86458333333408,"orientation":1.5882496193148399},"name":"les_gros_q","deck":{"width":3,"length":4},"entities":[{"x":0,"y":0,"type":"oar"},{"x":0,"y":2,"type":"oar"},{"x":1,"y":0,"type":"oar"},{"x":1,"y":2,"type":"oar"},{"x":2,"y":0,"type":"oar"},{"x":2,"y":2,"type":"oar"},{"x":3,"y":1,"type":"rudder"}],"life":300,"shape":{"type":"rectangle","width":3.0,"height":4.0,"orientation":0.0}},"visibleEntities":[],"wind":{"orientation":0.0,"strength":0.0}}
Next round input: {"ship":{"type":"ship","position":{"x":2185.3061761027725,"y":-227.86458333333408,"orientation":1.5882496193148399},"name":"les_gros_q","deck":{"width":3,"length":4},"entities":[{"x":0,"y":0,"type":"oar"},{"x":0,"y":2,"type":"oar"},{"x":1,"y":0,"type":"oar"},{"x":1,"y":2,"type":"oar"},{"x":2,"y":0,"type":"oar"},{"x":2,"y":2,"type":"oar"},{"x":3,"y":1,"type":"rudder"}],"life":300,"shape":{"type":"rectangle","width":3.0,"height":4.0,"orientation":0.0}},"visibleEntities":[],"wind":{"orientation":0.0,"strength":0.0}}
Next round input: {"ship":{"type":"ship","position":{"x":2185.3061761027725,"y":-227.86458333333408,"orientation":1.5882496193148399},"name":"les_gros_q","deck":{"width":3,"length":4},"entities":[{"x":0,"y":0,"type":"oar"},{"x":0,"y":2,"type":"oar"},{"x":1,"y":0,"type":"oar"},{"x":1,"y":2,"type":"oar"},{"x":2,"y":0,"type":"oar"},{"x":2,"y":2,"type":"oar"},{"x":3,"y":1,"type":"rudder"}],"life":300,"shape":{"type":"rectangle","width":3.0,"height":4.0,"orientation":0.0}},"visibleEntities":[],"wind":{"orientation":0.0,"strength":0.0}}
Next round input: {"ship":{"type":"ship","position":{"x":2185.3061761027725,"y":-227.86458333333408,"orientation":1.5882496193148399},"name":"les_gros_q","deck":{"width":3,"length":4},"entities":[{"x":0,"y":0,"type":"oar"},{"x":0,"y":2,"type":"oar"},{"x":1,"y":0,"type":"oar"},{"x":1,"y":2,"type":"oar"},{"x":2,"y":0,"type":"oar"},{"x":2,"y":2,"type":"oar"},{"x":3,"y":1,"type":"rudder"}],"life":300,"shape":{"type":"rectangle","width":3.0,"height":4.0,"orientation":0.0}},"visibleEntities":[],"wind":{"orientation":0.0,"strength":0.0}}
Next round input: {"ship":{"type":"ship","position":{"x":2185.3061761027725,"y":-227.86458333333408,"orientation":1.5882496193148399},"name":"les_gros_q","deck":{"width":3,"length":4},"entities":[{"x":0,"y":0,"type":"oar"},{"x":0,"y":2,"type":"oar"},{"x":1,"y":0,"type":"oar"},{"x":1,"y":2,"type":"oar"},{"x":2,"y":0,"type":"oar"},{"x":2,"y":2,"type":"oar"},{"x":3,"y":1,"type":"rudder"}],"life":300,"shape":{"type":"rectangle","width":3.0,"height":4.0,"orientation":0.0}},"visibleEntities":[],"wind":{"orientation":0.0,"strength":0.0}}
Next round input: {"ship":{"type":"ship","position":{"x":2185.3061761027725,"y":-227.86458333333408,"orientation":1.5882496193148399},"name":"les_gros_q","deck":{"width":3,"length":4},"entities":[{"x":0,"y":0,"type":"oar"},{"x":0,"y":2,"type":"oar"},{"x":1,"y":0,"type":"oar"},{"x":1,"y":2,"type":"oar"},{"x":2,"y":0,"type":"oar"},{"x":2,"y":2,"type":"oar"},{"x":3,"y":1,"type":"rudder"}],"life":300,"shape":{"type":"rectangle","width":3.0,"height":4.0,"orientation":0.0}},"visibleEntities":[],"wind":{"orientation":0.0,"strength":0.0}}
Next round input: {"ship":{"type":"ship","position":{"x":2185.3061761027725,"y":-227.86458333333408,"orientation":1.5882496193148399},"name":"les_gros_q","deck":{"width":3,"length":4},"entities":[{"x":0,"y":0,"type":"oar"},{"x":0,"y":2,"type":"oar"},{"x":1,"y":0,"type":"oar"},{"x":1,"y":2,"type":"oar"},{"x":2,"y":0,"type":"oar"},{"x":2,"y":2,"type":"oar"},{"x":3,"y":1,"type":"rudder"}],"life":300,"shape":{"type":"rectangle","width":3.0,"height":4.0,"orientation":0.0}},"visibleEntities":[],"wind":{"orientation":0.0,"strength":0.0}}
Next round input: {"ship":{"type":"ship","position":{"x":2185.3061761027725,"y":-227.86458333333408,"orientation":1.5882496193148399},"name":"les_gros_q","deck":{"width":3,"length":4},"entities":[{"x":0,"y":0,"type":"oar"},{"x":0,"y":2,"type":"oar"},{"x":1,"y":0,"type":"oar"},{"x":1,"y":2,"type":"oar"},{"x":2,"y":0,"type":"oar"},{"x":2,"y":2,"type":"oar"},{"x":3,"y":1,"type":"rudder"}],"life":300,"shape":{"type":"rectangle","width":3.0,"height":4.0,"orientation":0.0}},"visibleEntities":[],"wind":{"orientation":0.0,"strength":0.0}}
Next round input: {"ship":{"type":"ship","position":{"x":2185.3061761027725,"y":-227.86458333333408,"orientation":1.5882496193148399},"name":"les_gros_q","deck":{"width":3,"length":4},"entities":[{"x":0,"y":0,"type":"oar"},{"x":0,"y":2,"type":"oar"},{"x":1,"y":0,"type":"oar"},{"x":1,"y":2,"type":"oar"},{"x":2,"y":0,"type":"oar"},{"x":2,"y":2,"type":"oar"},{"x":3,"y":1,"type":"rudder"}],"life":300,"shape":{"type":"rectangle","width":3.0,"height":4.0,"orientation":0.0}},"visibleEntities":[],"wind":{"orientation":0.0,"strength":0.0}}
Next round input: {"ship":{"type":"ship","position":{"x":2185.3061761027725,"y":-227.86458333333408,"orientation":1.5882496193148399},"name":"les_gros_q","deck":{"width":3,"length":4},"entities":[{"x":0,"y":0,"type":"oar"},{"x":0,"y":2,"type":"oar"},{"x":1,"y":0,"type":"oar"},{"x":1,"y":2,"type":"oar"},{"x":2,"y":0,"type":"oar"},{"x":2,"y":2,"type":"oar"},{"x":3,"y":1,"type":"rudder"}],"life":300,"shape":{"type":"rectangle","width":3.0,"height":4.0,"orientation":0.0}},"visibleEntities":[],"wind":{"orientation":0.0,"strength":0.0}}
Next round input: {"ship":{"type":"ship","position":{"x":2185.3061761027725,"y":-227.86458333333408,"orientation":1.5882496193148399},"name":"les_gros_q","deck":{"width":3,"length":4},"entities":[{"x":0,"y":0,"type":"oar"},{"x":0,"y":2,"type":"oar"},{"x":1,"y":0,"type":"oar"},{"x":1,"y":2,"type":"oar"},{"x":2,"y":0,"type":"oar"},{"x":2,"y":2,"type":"oar"},{"x":3,"y":1,"type":"rudder"}],"life":300,"shape":{"type":"rectangle","width":3.0,"height":4.0,"orientation":0.0}},"visibleEntities":[],"wind":{"orientation":0.0,"strength":0.0}}
Next round input: {"ship":{"type":"ship","position":{"x":2185.3061761027725,"y":-227.86458333333408,"orientation":1.5882496193148399},"name":"les_gros_q","deck":{"width":3,"length":4},"entities":[{"x":0,"y":0,"type":"oar"},{"x":0,"y":2,"type":"oar"},{"x":1,"y":0,"type":"oar"},{"x":1,"y":2,"type":"oar"},{"x":2,"y":0,"type":"oar"},{"x":2,"y":2,"type":"oar"},{"x":3,"y":1,"type":"rudder"}],"life":300,"shape":{"type":"rectangle","width":3.0,"height":4.0,"orientation":0.0}},"visibleEntities":[],"wind":{"orientation":0.0,"strength":0.0}}
Next round input: {"ship":{"type":"ship","position":{"x":2185.3061761027725,"y":-227.86458333333408,"orientation":1.5882496193148399},"name":"les_gros_q","deck":{"width":3,"length":4},"entities":[{"x":0,"y":0,"type":"oar"},{"x":0,"y":2,"type":"oar"},{"x":1,"y":0,"type":"oar"},{"x":1,"y":2,"type":"oar"},{"x":2,"y":0,"type":"oar"},{"x":2,"y":2,"type":"oar"},{"x":3,"y":1,"type":"rudder"}],"life":300,"shape":{"type":"rectangle","width":3.0,"height":4.0,"orientation":0.0}},"visibleEntities":[],"wind":{"orientation":0.0,"strength":0.0}}
Next round input: {"ship":{"type":"ship","position":{"x":2185.3061761027725,"y":-227.86458333333408,"orientation":1.5882496193148399},"name":"les_gros_q","deck":{"width":3,"length":4},"entities":[{"x":0,"y":0,"type":"oar"},{"x":0,"y":2,"type":"oar"},{"x":1,"y":0,"type":"oar"},{"x":1,"y":2,"type":"oar"},{"x":2,"y":0,"type":"oar"},{"x":2,"y":2,"type":"oar"},{"x":3,"y":1,"type":"rudder"}],"life":300,"shape":{"type":"rectangle","width":3.0,"height":4.0,"orientation":0.0}},"visibleEntities":[],"wind":{"orientation":0.0,"strength":0.0}}
Next round input: {"ship":{"type":"ship","position":{"x":2185.3061761027725,"y":-227.86458333333408,"orientation":1.5882496193148399},"name":"les_gros_q","deck":{"width":3,"length":4},"entities":[{"x":0,"y":0,"type":"oar"},{"x":0,"y":2,"type":"oar"},{"x":1,"y":0,"type":"oar"},{"x":1,"y":2,"type":"oar"},{"x":2,"y":0,"type":"oar"},{"x":2,"y":2,"type":"oar"},{"x":3,"y":1,"type":"rudder"}],"life":300,"shape":{"type":"rectangle","width":3.0,"height":4.0,"orientation":0.0}},"visibleEntities":[],"wind":{"orientation":0.0,"strength":0.0}}
Next round input: {"ship":{"type":"ship","position":{"x":2185.3061761027725,"y":-227.86458333333408,"orientation":1.5882496193148399},"name":"les_gros_q","deck":{"width":3,"length":4},"entities":[{"x":0,"y":0,"type":"oar"},{"x":0,"y":2,"type":"oar"},{"x":1,"y":0,"type":"oar"},{"x":1,"y":2,"type":"oar"},{"x":2,"y":0,"type":"oar"},{"x":2,"y":2,"type":"oar"},{"x":3,"y":1,"type":"rudder"}],"life":300,"shape":{"type":"rectangle","width":3.0,"height":4.0,"orientation":0.0}},"visibleEntities":[],"wind":{"orientation":0.0,"strength":0.0}}
Next round input: {"ship":{"type":"ship","position":{"x":2185.3061761027725,"y":-227.86458333333408,"orientation":1.5882496193148399},"name":"les_gros_q","deck":{"width":3,"length":4},"entities":[{"x":0,"y":0,"type":"oar"},{"x":0,"y":2,"type":"oar"},{"x":1,"y":0,"type":"oar"},{"x":1,"y":2,"type":"oar"},{"x":2,"y":0,"type":"oar"},{"x":2,"y":2,"type":"oar"},{"x":3,"y":1,"type":"rudder"}],"life":300,"shape":{"type":"rectangle","width":3.0,"height":4.0,"orientation":0.0}},"visibleEntities":[],"wind":{"orientation":0.0,"strength":0.0}}
Next round input: {"ship":{"type":"ship","position":{"x":2185.3061761027725,"y":-227.86458333333408,"orientation":1.5882496193148399},"name":"les_gros_q","deck":{"width":3,"length":4},"entities":[{"x":0,"y":0,"type":"oar"},{"x":0,"y":2,"type":"oar"},{"x":1,"y":0,"type":"oar"},{"x":1,"y":2,"type":"oar"},{"x":2,"y":0,"type":"oar"},{"x":2,"y":2,"type":"oar"},{"x":3,"y":1,"type":"rudder"}],"life":300,"shape":{"type":"rectangle","width":3.0,"height":4.0,"orientation":0.0}},"visibleEntities":[],"wind":{"orientation":0.0,"strength":0.0}}
Next round input: {"ship":{"type":"ship","position":{"x":2185.3061761027725,"y":-227.86458333333408,"orientation":1.5882496193148399},"name":"les_gros_q","deck":{"width":3,"length":4},"entities":[{"x":0,"y":0,"type":"oar"},{"x":0,"y":2,"type":"oar"},{"x":1,"y":0,"type":"oar"},{"x":1,"y":2,"type":"oar"},{"x":2,"y":0,"type":"oar"},{"x":2,"y":2,"type":"oar"},{"x":3,"y":1,"type":"rudder"}],"life":300,"shape":{"type":"rectangle","width":3.0,"height":4.0,"orientation":0.0}},"visibleEntities":[],"wind":{"orientation":0.0,"strength":0.0}}
Next round input: {"ship":{"type":"ship","position":{"x":2185.3061761027725,"y":-227.86458333333408,"orientation":1.5882496193148399},"name":"les_gros_q","deck":{"width":3,"length":4},"entities":[{"x":0,"y":0,"type":"oar"},{"x":0,"y":2,"type":"oar"},{"x":1,"y":0,"type":"oar"},{"x":1,"y":2,"type":"oar"},{"x":2,"y":0,"type":"oar"},{"x":2,"y":2,"type":"oar"},{"x":3,"y":1,"type":"rudder"}],"life":300,"shape":{"type":"rectangle","width":3.0,"height":4.0,"orientation":0.0}},"visibleEntities":[],"wind":{"orientation":0.0,"strength":0.0}}
Next round input: {"ship":{"type":"ship","position":{"x":2185.3061761027725,"y":-227.86458333333408,"orientation":1.5882496193148399},"name":"les_gros_q","deck":{"width":3,"length":4},"entities":[{"x":0,"y":0,"type":"oar"},{"x":0,"y":2,"type":"oar"},{"x":1,"y":0,"type":"oar"},{"x":1,"y":2,"type":"oar"},{"x":2,"y":0,"type":"oar"},{"x":2,"y":2,"type":"oar"},{"x":3,"y":1,"type":"rudder"}],"life":300,"shape":{"type":"rectangle","width":3.0,"height":4.0,"orientation":0.0}},"visibleEntities":[],"wind":{"orientation":0.0,"strength":0.0}}
Next round input: {"ship":{"type":"ship","position":{"x":2185.3061761027725,"y":-227.86458333333408,"orientation":1.5882496193148399},"name":"les_gros_q","deck":{"width":3,"length":4},"entities":[{"x":0,"y":0,"type":"oar"},{"x":0,"y":2,"type":"oar"},{"x":1,"y":0,"type":"oar"},{"x":1,"y":2,"type":"oar"},{"x":2,"y":0,"type":"oar"},{"x":2,"y":2,"type":"oar"},{"x":3,"y":1,"type":"rudder"}],"life":300,"shape":{"type":"rectangle","width":3.0,"height":4.0,"orientation":0.0}},"visibleEntities":[],"wind":{"orientation":0.0,"strength":0.0}}
Next round input: {"ship":{"type":"ship","position":{"x":2185.3061761027725,"y":-227.86458333333408,"orientation":1.5882496193148399},"name":"les_gros_q","deck":{"width":3,"length":4},"entities":[{"x":0,"y":0,"type":"oar"},{"x":0,"y":2,"type":"oar"},{"x":1,"y":0,"type":"oar"},{"x":1,"y":2,"type":"oar"},{"x":2,"y":0,"type":"oar"},{"x":2,"y":2,"type":"oar"},{"x":3,"y":1,"type":"rudder"}],"life":300,"shape":{"type":"rectangle","width":3.0,"height":4.0,"orientation":0.0}},"visibleEntities":[],"wind":{"orientation":0.0,"strength":0.0}}
Next round input: {"ship":{"type":"ship","position":{"x":2185.3061761027725,"y":-227.86458333333408,"orientation":1.5882496193148399},"name":"les_gros_q","deck":{"width":3,"length":4},"entities":[{"x":0,"y":0,"type":"oar"},{"x":0,"y":2,"type":"oar"},{"x":1,"y":0,"type":"oar"},{"x":1,"y":2,"type":"oar"},{"x":2,"y":0,"type":"oar"},{"x":2,"y":2,"type":"oar"},{"x":3,"y":1,"type":"rudder"}],"life":300,"shape":{"type":"rectangle","width":3.0,"height":4.0,"orientation":0.0}},"visibleEntities":[],"wind":{"orientation":0.0,"strength":0.0}}
Next round input: {"ship":{"type":"ship","position":{"x":2185.3061761027725,"y":-227.86458333333408,"orientation":1.5882496193148399},"name":"les_gros_q","deck":{"width":3,"length":4},"entities":[{"x":0,"y":0,"type":"oar"},{"x":0,"y":2,"type":"oar"},{"x":1,"y":0,"type":"oar"},{"x":1,"y":2,"type":"oar"},{"x":2,"y":0,"type":"oar"},{"x":2,"y":2,"type":"oar"},{"x":3,"y":1,"type":"rudder"}],"life":300,"shape":{"type":"rectangle","width":3.0,"height":4.0,"orientation":0.0}},"visibleEntities":[],"wind":{"orientation":0.0,"strength":0.0}}
Next round input: {"ship":{"type":"ship","position":{"x":2185.3061761027725,"y":-227.86458333333408,"orientation":1.5882496193148399},"name":"les_gros_q","deck":{"width":3,"length":4},"entities":[{"x":0,"y":0,"type":"oar"},{"x":0,"y":2,"type":"oar"},{"x":1,"y":0,"type":"oar"},{"x":1,"y":2,"type":"oar"},{"x":2,"y":0,"type":"oar"},{"x":2,"y":2,"type":"oar"},{"x":3,"y":1,"type":"rudder"}],"life":300,"shape":{"type":"rectangle","width":3.0,"height":4.0,"orientation":0.0}},"visibleEntities":[],"wind":{"orientation":0.0,"strength":0.0}}
Next round input: {"ship":{"type":"ship","position":{"x":2185.3061761027725,"y":-227.86458333333408,"orientation":1.5882496193148399},"name":"les_gros_q","deck":{"width":3,"length":4},"entities":[{"x":0,"y":0,"type":"oar"},{"x":0,"y":2,"type":"oar"},{"x":1,"y":0,"type":"oar"},{"x":1,"y":2,"type":"oar"},{"x":2,"y":0,"type":"oar"},{"x":2,"y":2,"type":"oar"},{"x":3,"y":1,"type":"rudder"}],"life":300,"shape":{"type":"rectangle","width":3.0,"height":4.0,"orientation":0.0}},"visibleEntities":[],"wind":{"orientation":0.0,"strength":0.0}}
Next round input: {"ship":{"type":"ship","position":{"x":2185.3061761027725,"y":-227.86458333333408,"orientation":1.5882496193148399},"name":"les_gros_q","deck":{"width":3,"length":4},"entities":[{"x":0,"y":0,"type":"oar"},{"x":0,"y":2,"type":"oar"},{"x":1,"y":0,"type":"oar"},{"x":1,"y":2,"type":"oar"},{"x":2,"y":0,"type":"oar"},{"x":2,"y":2,"type":"oar"},{"x":3,"y":1,"type":"rudder"}],"life":300,"shape":{"type":"rectangle","width":3.0,"height":4.0,"orientation":0.0}},"visibleEntities":[],"wind":{"orientation":0.0,"strength":0.0}}
Next round input: {"ship":{"type":"ship","position":{"x":2185.3061761027725,"y":-227.86458333333408,"orientation":1.5882496193148399},"name":"les_gros_q","deck":{"width":3,"length":4},"entities":[{"x":0,"y":0,"type":"oar"},{"x":0,"y":2,"type":"oar"},{"x":1,"y":0,"type":"oar"},{"x":1,"y":2,"type":"oar"},{"x":2,"y":0,"type":"oar"},{"x":2,"y":2,"type":"oar"},{"x":3,"y":1,"type":"rudder"}],"life":300,"shape":{"type":"rectangle","width":3.0,"height":4.0,"orientation":0.0}},"visibleEntities":[],"wind":{"orientation":0.0,"strength":0.0}}
Next round input: {"ship":{"type":"ship","position":{"x":2185.3061761027725,"y":-227.86458333333408,"orientation":1.5882496193148399},"name":"les_gros_q","deck":{"width":3,"length":4},"entities":[{"x":0,"y":0,"type":"oar"},{"x":0,"y":2,"type":"oar"},{"x":1,"y":0,"type":"oar"},{"x":1,"y":2,"type":"oar"},{"x":2,"y":0,"type":"oar"},{"x":2,"y":2,"type":"oar"},{"x":3,"y":1,"type":"rudder"}],"life":300,"shape":{"type":"rectangle","width":3.0,"height":4.0,"orientation":0.0}},"visibleEntities":[],"wind":{"orientation":0.0,"strength":0.0}}
Next round input: {"ship":{"type":"ship","position":{"x":2185.3061761027725,"y":-227.86458333333408,"orientation":1.5882496193148399},"name":"les_gros_q","deck":{"width":3,"length":4},"entities":[{"x":0,"y":0,"type":"oar"},{"x":0,"y":2,"type":"oar"},{"x":1,"y":0,"type":"oar"},{"x":1,"y":2,"type":"oar"},{"x":2,"y":0,"type":"oar"},{"x":2,"y":2,"type":"oar"},{"x":3,"y":1,"type":"rudder"}],"life":300,"shape":{"type":"rectangle","width":3.0,"height":4.0,"orientation":0.0}},"visibleEntities":[],"wind":{"orientation":0.0,"strength":0.0}}
Next round input: {"ship":{"type":"ship","position":{"x":2185.3061761027725,"y":-227.86458333333408,"orientation":1.5882496193148399},"name":"les_gros_q","deck":{"width":3,"length":4},"entities":[{"x":0,"y":0,"type":"oar"},{"x":0,"y":2,"type":"oar"},{"x":1,"y":0,"type":"oar"},{"x":1,"y":2,"type":"oar"},{"x":2,"y":0,"type":"oar"},{"x":2,"y":2,"type":"oar"},{"x":3,"y":1,"type":"rudder"}],"life":300,"shape":{"type":"rectangle","width":3.0,"height":4.0,"orientation":0.0}},"visibleEntities":[],"wind":{"orientation":0.0,"strength":0.0}}
Next round input: {"ship":{"type":"ship","position":{"x":2185.3061761027725,"y":-227.86458333333408,"orientation":1.5882496193148399},"name":"les_gros_q","deck":{"width":3,"length":4},"entities":[{"x":0,"y":0,"type":"oar"},{"x":0,"y":2,"type":"oar"},{"x":1,"y":0,"type":"oar"},{"x":1,"y":2,"type":"oar"},{"x":2,"y":0,"type":"oar"},{"x":2,"y":2,"type":"oar"},{"x":3,"y":1,"type":"rudder"}],"life":300,"shape":{"type":"rectangle","width":3.0,"height":4.0,"orientation":0.0}},"visibleEntities":[],"wind":{"orientation":0.0,"strength":0.0}}
Next round input: {"ship":{"type":"ship","position":{"x":2185.3061761027725,"y":-227.86458333333408,"orientation":1.5882496193148399},"name":"les_gros_q","deck":{"width":3,"length":4},"entities":[{"x":0,"y":0,"type":"oar"},{"x":0,"y":2,"type":"oar"},{"x":1,"y":0,"type":"oar"},{"x":1,"y":2,"type":"oar"},{"x":2,"y":0,"type":"oar"},{"x":2,"y":2,"type":"oar"},{"x":3,"y":1,"type":"rudder"}],"life":300,"shape":{"type":"rectangle","width":3.0,"height":4.0,"orientation":0.0}},"visibleEntities":[],"wind":{"orientation":0.0,"strength":0.0}}
Next round input: {"ship":{"type":"ship","position":{"x":2185.3061761027725,"y":-227.86458333333408,"orientation":1.5882496193148399},"name":"les_gros_q","deck":{"width":3,"length":4},"entities":[{"x":0,"y":0,"type":"oar"},{"x":0,"y":2,"type":"oar"},{"x":1,"y":0,"type":"oar"},{"x":1,"y":2,"type":"oar"},{"x":2,"y":0,"type":"oar"},{"x":2,"y":2,"type":"oar"},{"x":3,"y":1,"type":"rudder"}],"life":300,"shape":{"type":"rectangle","width":3.0,"height":4.0,"orientation":0.0}},"visibleEntities":[],"wind":{"orientation":0.0,"strength":0.0}}
Next round input: {"ship":{"type":"ship","position":{"x":2185.3061761027725,"y":-227.86458333333408,"orientation":1.5882496193148399},"name":"les_gros_q","deck":{"width":3,"length":4},"entities":[{"x":0,"y":0,"type":"oar"},{"x":0,"y":2,"type":"oar"},{"x":1,"y":0,"type":"oar"},{"x":1,"y":2,"type":"oar"},{"x":2,"y":0,"type":"oar"},{"x":2,"y":2,"type":"oar"},{"x":3,"y":1,"type":"rudder"}],"life":300,"shape":{"type":"rectangle","width":3.0,"height":4.0,"orientation":0.0}},"visibleEntities":[],"wind":{"orientation":0.0,"strength":0.0}}
Next round input: {"ship":{"type":"ship","position":{"x":2185.3061761027725,"y":-227.86458333333408,"orientation":1.5882496193148399},"name":"les_gros_q","deck":{"width":3,"length":4},"entities":[{"x":0,"y":0,"type":"oar"},{"x":0,"y":2,"type":"oar"},{"x":1,"y":0,"type":"oar"},{"x":1,"y":2,"type":"oar"},{"x":2,"y":0,"type":"oar"},{"x":2,"y":2,"type":"oar"},{"x":3,"y":1,"type":"rudder"}],"life":300,"shape":{"type":"rectangle","width":3.0,"height":4.0,"orientation":0.0}},"visibleEntities":[],"wind":{"orientation":0.0,"strength":0.0}}
Next round input: {"ship":{"type":"ship","position":{"x":2185.3061761027725,"y":-227.86458333333408,"orientation":1.5882496193148399},"name":"les_gros_q","deck":{"width":3,"length":4},"entities":[{"x":0,"y":0,"type":"oar"},{"x":0,"y":2,"type":"oar"},{"x":1,"y":0,"type":"oar"},{"x":1,"y":2,"type":"oar"},{"x":2,"y":0,"type":"oar"},{"x":2,"y":2,"type":"oar"},{"x":3,"y":1,"type":"rudder"}],"life":300,"shape":{"type":"rectangle","width":3.0,"height":4.0,"orientation":0.0}},"visibleEntities":[],"wind":{"orientation":0.0,"strength":0.0}}
Next round input: {"ship":{"type":"ship","position":{"x":2185.3061761027725,"y":-227.86458333333408,"orientation":1.5882496193148399},"name":"les_gros_q","deck":{"width":3,"length":4},"entities":[{"x":0,"y":0,"type":"oar"},{"x":0,"y":2,"type":"oar"},{"x":1,"y":0,"type":"oar"},{"x":1,"y":2,"type":"oar"},{"x":2,"y":0,"type":"oar"},{"x":2,"y":2,"type":"oar"},{"x":3,"y":1,"type":"rudder"}],"life":300,"shape":{"type":"rectangle","width":3.0,"height":4.0,"orientation":0.0}},"visibleEntities":[],"wind":{"orientation":0.0,"strength":0.0}}
Next round input: {"ship":{"type":"ship","position":{"x":2185.3061761027725,"y":-227.86458333333408,"orientation":1.5882496193148399},"name":"les_gros_q","deck":{"width":3,"length":4},"entities":[{"x":0,"y":0,"type":"oar"},{"x":0,"y":2,"type":"oar"},{"x":1,"y":0,"type":"oar"},{"x":1,"y":2,"type":"oar"},{"x":2,"y":0,"type":"oar"},{"x":2,"y":2,"type":"oar"},{"x":3,"y":1,"type":"rudder"}],"life":300,"shape":{"type":"rectangle","width":3.0,"height":4.0,"orientation":0.0}},"visibleEntities":[],"wind":{"orientation":0.0,"strength":0.0}}
Next round input: {"ship":{"type":"ship","position":{"x":2185.3061761027725,"y":-227.86458333333408,"orientation":1.5882496193148399},"name":"les_gros_q","deck":{"width":3,"length":4},"entities":[{"x":0,"y":0,"type":"oar"},{"x":0,"y":2,"type":"oar"},{"x":1,"y":0,"type":"oar"},{"x":1,"y":2,"type":"oar"},{"x":2,"y":0,"type":"oar"},{"x":2,"y":2,"type":"oar"},{"x":3,"y":1,"type":"rudder"}],"life":300,"shape":{"type":"rectangle","width":3.0,"height":4.0,"orientation":0.0}},"visibleEntities":[],"wind":{"orientation":0.0,"strength":0.0}}
Next round input: {"ship":{"type":"ship","position":{"x":2185.3061761027725,"y":-227.86458333333408,"orientation":1.5882496193148399},"name":"les_gros_q","deck":{"width":3,"length":4},"entities":[{"x":0,"y":0,"type":"oar"},{"x":0,"y":2,"type":"oar"},{"x":1,"y":0,"type":"oar"},{"x":1,"y":2,"type":"oar"},{"x":2,"y":0,"type":"oar"},{"x":2,"y":2,"type":"oar"},{"x":3,"y":1,"type":"rudder"}],"life":300,"shape":{"type":"rectangle","width":3.0,"height":4.0,"orientation":0.0}},"visibleEntities":[],"wind":{"orientation":0.0,"strength":0.0}}
Next round input: {"ship":{"type":"ship","position":{"x":2185.3061761027725,"y":-227.86458333333408,"orientation":1.5882496193148399},"name":"les_gros_q","deck":{"width":3,"length":4},"entities":[{"x":0,"y":0,"type":"oar"},{"x":0,"y":2,"type":"oar"},{"x":1,"y":0,"type":"oar"},{"x":1,"y":2,"type":"oar"},{"x":2,"y":0,"type":"oar"},{"x":2,"y":2,"type":"oar"},{"x":3,"y":1,"type":"rudder"}],"life":300,"shape":{"type":"rectangle","width":3.0,"height":4.0,"orientation":0.0}},"visibleEntities":[],"wind":{"orientation":0.0,"strength":0.0}}
Next round input: {"ship":{"type":"ship","position":{"x":2185.3061761027725,"y":-227.86458333333408,"orientation":1.5882496193148399},"name":"les_gros_q","deck":{"width":3,"length":4},"entities":[{"x":0,"y":0,"type":"oar"},{"x":0,"y":2,"type":"oar"},{"x":1,"y":0,"type":"oar"},{"x":1,"y":2,"type":"oar"},{"x":2,"y":0,"type":"oar"},{"x":2,"y":2,"type":"oar"},{"x":3,"y":1,"type":"rudder"}],"life":300,"shape":{"type":"rectangle","width":3.0,"height":4.0,"orientation":0.0}},"visibleEntities":[],"wind":{"orientation":0.0,"strength":0.0}}
Next round input: {"ship":{"type":"ship","position":{"x":2185.3061761027725,"y":-227.86458333333408,"orientation":1.5882496193148399},"name":"les_gros_q","deck":{"width":3,"length":4},"entities":[{"x":0,"y":0,"type":"oar"},{"x":0,"y":2,"type":"oar"},{"x":1,"y":0,"type":"oar"},{"x":1,"y":2,"type":"oar"},{"x":2,"y":0,"type":"oar"},{"x":2,"y":2,"type":"oar"},{"x":3,"y":1,"type":"rudder"}],"life":300,"shape":{"type":"rectangle","width":3.0,"height":4.0,"orientation":0.0}},"visibleEntities":[],"wind":{"orientation":0.0,"strength":0.0}}
Next round input: {"ship":{"type":"ship","position":{"x":2185.3061761027725,"y":-227.86458333333408,"orientation":1.5882496193148399},"name":"les_gros_q","deck":{"width":3,"length":4},"entities":[{"x":0,"y":0,"type":"oar"},{"x":0,"y":2,"type":"oar"},{"x":1,"y":0,"type":"oar"},{"x":1,"y":2,"type":"oar"},{"x":2,"y":0,"type":"oar"},{"x":2,"y":2,"type":"oar"},{"x":3,"y":1,"type":"rudder"}],"life":300,"shape":{"type":"rectangle","width":3.0,"height":4.0,"orientation":0.0}},"visibleEntities":[],"wind":{"orientation":0.0,"strength":0.0}}
Next round input: {"ship":{"type":"ship","position":{"x":2185.3061761027725,"y":-227.86458333333408,"orientation":1.5882496193148399},"name":"les_gros_q","deck":{"width":3,"length":4},"entities":[{"x":0,"y":0,"type":"oar"},{"x":0,"y":2,"type":"oar"},{"x":1,"y":0,"type":"oar"},{"x":1,"y":2,"type":"oar"},{"x":2,"y":0,"type":"oar"},{"x":2,"y":2,"type":"oar"},{"x":3,"y":1,"type":"rudder"}],"life":300,"shape":{"type":"rectangle","width":3.0,"height":4.0,"orientation":0.0}},"visibleEntities":[],"wind":{"orientation":0.0,"strength":0.0}}
Next round input: {"ship":{"type":"ship","position":{"x":2185.3061761027725,"y":-227.86458333333408,"orientation":1.5882496193148399},"name":"les_gros_q","deck":{"width":3,"length":4},"entities":[{"x":0,"y":0,"type":"oar"},{"x":0,"y":2,"type":"oar"},{"x":1,"y":0,"type":"oar"},{"x":1,"y":2,"type":"oar"},{"x":2,"y":0,"type":"oar"},{"x":2,"y":2,"type":"oar"},{"x":3,"y":1,"type":"rudder"}],"life":300,"shape":{"type":"rectangle","width":3.0,"height":4.0,"orientation":0.0}},"visibleEntities":[],"wind":{"orientation":0.0,"strength":0.0}}
Next round input: {"ship":{"type":"ship","position":{"x":2185.3061761027725,"y":-227.86458333333408,"orientation":1.5882496193148399},"name":"les_gros_q","deck":{"width":3,"length":4},"entities":[{"x":0,"y":0,"type":"oar"},{"x":0,"y":2,"type":"oar"},{"x":1,"y":0,"type":"oar"},{"x":1,"y":2,"type":"oar"},{"x":2,"y":0,"type":"oar"},{"x":2,"y":2,"type":"oar"},{"x":3,"y":1,"type":"rudder"}],"life":300,"shape":{"type":"rectangle","width":3.0,"height":4.0,"orientation":0.0}},"visibleEntities":[],"wind":{"orientation":0.0,"strength":0.0}}
Next round input: {"ship":{"type":"ship","position":{"x":2185.3061761027725,"y":-227.86458333333408,"orientation":1.5882496193148399},"name":"les_gros_q","deck":{"width":3,"length":4},"entities":[{"x":0,"y":0,"type":"oar"},{"x":0,"y":2,"type":"oar"},{"x":1,"y":0,"type":"oar"},{"x":1,"y":2,"type":"oar"},{"x":2,"y":0,"type":"oar"},{"x":2,"y":2,"type":"oar"},{"x":3,"y":1,"type":"rudder"}],"life":300,"shape":{"type":"rectangle","width":3.0,"height":4.0,"orientation":0.0}},"visibleEntities":[],"wind":{"orientation":0.0,"strength":0.0}}
Next round input: {"ship":{"type":"ship","position":{"x":2185.3061761027725,"y":-227.86458333333408,"orientation":1.5882496193148399},"name":"les_gros_q","deck":{"width":3,"length":4},"entities":[{"x":0,"y":0,"type":"oar"},{"x":0,"y":2,"type":"oar"},{"x":1,"y":0,"type":"oar"},{"x":1,"y":2,"type":"oar"},{"x":2,"y":0,"type":"oar"},{"x":2,"y":2,"type":"oar"},{"x":3,"y":1,"type":"rudder"}],"life":300,"shape":{"type":"rectangle","width":3.0,"height":4.0,"orientation":0.0}},"visibleEntities":[],"wind":{"orientation":0.0,"strength":0.0}}
Next round input: {"ship":{"type":"ship","position":{"x":2185.3061761027725,"y":-227.86458333333408,"orientation":1.5882496193148399},"name":"les_gros_q","deck":{"width":3,"length":4},"entities":[{"x":0,"y":0,"type":"oar"},{"x":0,"y":2,"type":"oar"},{"x":1,"y":0,"type":"oar"},{"x":1,"y":2,"type":"oar"},{"x":2,"y":0,"type":"oar"},{"x":2,"y":2,"type":"oar"},{"x":3,"y":1,"type":"rudder"}],"life":300,"shape":{"type":"rectangle","width":3.0,"height":4.0,"orientation":0.0}},"visibleEntities":[],"wind":{"orientation":0.0,"strength":0.0}}
Next round input: {"ship":{"type":"ship","position":{"x":2185.3061761027725,"y":-227.86458333333408,"orientation":1.5882496193148399},"name":"les_gros_q","deck":{"width":3,"length":4},"entities":[{"x":0,"y":0,"type":"oar"},{"x":0,"y":2,"type":"oar"},{"x":1,"y":0,"type":"oar"},{"x":1,"y":2,"type":"oar"},{"x":2,"y":0,"type":"oar"},{"x":2,"y":2,"type":"oar"},{"x":3,"y":1,"type":"rudder"}],"life":300,"shape":{"type":"rectangle","width":3.0,"height":4.0,"orientation":0.0}},"visibleEntities":[],"wind":{"orientation":0.0,"strength":0.0}}
Next round input: {"ship":{"type":"ship","position":{"x":2185.3061761027725,"y":-227.86458333333408,"orientation":1.5882496193148399},"name":"les_gros_q","deck":{"width":3,"length":4},"entities":[{"x":0,"y":0,"type":"oar"},{"x":0,"y":2,"type":"oar"},{"x":1,"y":0,"type":"oar"},{"x":1,"y":2,"type":"oar"},{"x":2,"y":0,"type":"oar"},{"x":2,"y":2,"type":"oar"},{"x":3,"y":1,"type":"rudder"}],"life":300,"shape":{"type":"rectangle","width":3.0,"height":4.0,"orientation":0.0}},"visibleEntities":[],"wind":{"orientation":0.0,"strength":0.0}}
Next round input: {"ship":{"type":"ship","position":{"x":2185.3061761027725,"y":-227.86458333333408,"orientation":1.5882496193148399},"name":"les_gros_q","deck":{"width":3,"length":4},"entities":[{"x":0,"y":0,"type":"oar"},{"x":0,"y":2,"type":"oar"},{"x":1,"y":0,"type":"oar"},{"x":1,"y":2,"type":"oar"},{"x":2,"y":0,"type":"oar"},{"x":2,"y":2,"type":"oar"},{"x":3,"y":1,"type":"rudder"}],"life":300,"shape":{"type":"rectangle","width":3.0,"height":4.0,"orientation":0.0}},"visibleEntities":[],"wind":{"orientation":0.0,"strength":0.0}}
Next round input: {"ship":{"type":"ship","position":{"x":2185.3061761027725,"y":-227.86458333333408,"orientation":1.5882496193148399},"name":"les_gros_q","deck":{"width":3,"length":4},"entities":[{"x":0,"y":0,"type":"oar"},{"x":0,"y":2,"type":"oar"},{"x":1,"y":0,"type":"oar"},{"x":1,"y":2,"type":"oar"},{"x":2,"y":0,"type":"oar"},{"x":2,"y":2,"type":"oar"},{"x":3,"y":1,"type":"rudder"}],"life":300,"shape":{"type":"rectangle","width":3.0,"height":4.0,"orientation":0.0}},"visibleEntities":[],"wind":{"orientation":0.0,"strength":0.0}}
Next round input: {"ship":{"type":"ship","position":{"x":2185.3061761027725,"y":-227.86458333333408,"orientation":1.5882496193148399},"name":"les_gros_q","deck":{"width":3,"length":4},"entities":[{"x":0,"y":0,"type":"oar"},{"x":0,"y":2,"type":"oar"},{"x":1,"y":0,"type":"oar"},{"x":1,"y":2,"type":"oar"},{"x":2,"y":0,"type":"oar"},{"x":2,"y":2,"type":"oar"},{"x":3,"y":1,"type":"rudder"}],"life":300,"shape":{"type":"rectangle","width":3.0,"height":4.0,"orientation":0.0}},"visibleEntities":[],"wind":{"orientation":0.0,"strength":0.0}}
Next round input: {"ship":{"type":"ship","position":{"x":2185.3061761027725,"y":-227.86458333333408,"orientation":1.5882496193148399},"name":"les_gros_q","deck":{"width":3,"length":4},"entities":[{"x":0,"y":0,"type":"oar"},{"x":0,"y":2,"type":"oar"},{"x":1,"y":0,"type":"oar"},{"x":1,"y":2,"type":"oar"},{"x":2,"y":0,"type":"oar"},{"x":2,"y":2,"type":"oar"},{"x":3,"y":1,"type":"rudder"}],"life":300,"shape":{"type":"rectangle","width":3.0,"height":4.0,"orientation":0.0}},"visibleEntities":[],"wind":{"orientation":0.0,"strength":0.0}}
Next round input: {"ship":{"type":"ship","position":{"x":2185.3061761027725,"y":-227.86458333333408,"orientation":1.5882496193148399},"name":"les_gros_q","deck":{"width":3,"length":4},"entities":[{"x":0,"y":0,"type":"oar"},{"x":0,"y":2,"type":"oar"},{"x":1,"y":0,"type":"oar"},{"x":1,"y":2,"type":"oar"},{"x":2,"y":0,"type":"oar"},{"x":2,"y":2,"type":"oar"},{"x":3,"y":1,"type":"rudder"}],"life":300,"shape":{"type":"rectangle","width":3.0,"height":4.0,"orientation":0.0}},"visibleEntities":[],"wind":{"orientation":0.0,"strength":0.0}}
Next round input: {"ship":{"type":"ship","position":{"x":2185.3061761027725,"y":-227.86458333333408,"orientation":1.5882496193148399},"name":"les_gros_q","deck":{"width":3,"length":4},"entities":[{"x":0,"y":0,"type":"oar"},{"x":0,"y":2,"type":"oar"},{"x":1,"y":0,"type":"oar"},{"x":1,"y":2,"type":"oar"},{"x":2,"y":0,"type":"oar"},{"x":2,"y":2,"type":"oar"},{"x":3,"y":1,"type":"rudder"}],"life":300,"shape":{"type":"rectangle","width":3.0,"height":4.0,"orientation":0.0}},"visibleEntities":[],"wind":{"orientation":0.0,"strength":0.0}}
Next round input: {"ship":{"type":"ship","position":{"x":2185.3061761027725,"y":-227.86458333333408,"orientation":1.5882496193148399},"name":"les_gros_q","deck":{"width":3,"length":4},"entities":[{"x":0,"y":0,"type":"oar"},{"x":0,"y":2,"type":"oar"},{"x":1,"y":0,"type":"oar"},{"x":1,"y":2,"type":"oar"},{"x":2,"y":0,"type":"oar"},{"x":2,"y":2,"type":"oar"},{"x":3,"y":1,"type":"rudder"}],"life":300,"shape":{"type":"rectangle","width":3.0,"height":4.0,"orientation":0.0}},"visibleEntities":[],"wind":{"orientation":0.0,"strength":0.0}}
Next round input: {"ship":{"type":"ship","position":{"x":2185.3061761027725,"y":-227.86458333333408,"orientation":1.5882496193148399},"name":"les_gros_q","deck":{"width":3,"length":4},"entities":[{"x":0,"y":0,"type":"oar"},{"x":0,"y":2,"type":"oar"},{"x":1,"y":0,"type":"oar"},{"x":1,"y":2,"type":"oar"},{"x":2,"y":0,"type":"oar"},{"x":2,"y":2,"type":"oar"},{"x":3,"y":1,"type":"rudder"}],"life":300,"shape":{"type":"rectangle","width":3.0,"height":4.0,"orientation":0.0}},"visibleEntities":[],"wind":{"orientation":0.0,"strength":0.0}}
Next round input: {"ship":{"type":"ship","position":{"x":2185.3061761027725,"y":-227.86458333333408,"orientation":1.5882496193148399},"name":"les_gros_q","deck":{"width":3,"length":4},"entities":[{"x":0,"y":0,"type":"oar"},{"x":0,"y":2,"type":"oar"},{"x":1,"y":0,"type":"oar"},{"x":1,"y":2,"type":"oar"},{"x":2,"y":0,"type":"oar"},{"x":2,"y":2,"type":"oar"},{"x":3,"y":1,"type":"rudder"}],"life":300,"shape":{"type":"rectangle","width":3.0,"height":4.0,"orientation":0.0}},"visibleEntities":[],"wind":{"orientation":0.0,"strength":0.0}}
Next round input: {"ship":{"type":"ship","position":{"x":2185.3061761027725,"y":-227.86458333333408,"orientation":1.5882496193148399},"name":"les_gros_q","deck":{"width":3,"length":4},"entities":[{"x":0,"y":0,"type":"oar"},{"x":0,"y":2,"type":"oar"},{"x":1,"y":0,"type":"oar"},{"x":1,"y":2,"type":"oar"},{"x":2,"y":0,"type":"oar"},{"x":2,"y":2,"type":"oar"},{"x":3,"y":1,"type":"rudder"}],"life":300,"shape":{"type":"rectangle","width":3.0,"height":4.0,"orientation":0.0}},"visibleEntities":[],"wind":{"orientation":0.0,"strength":0.0}}
Next round input: {"ship":{"type":"ship","position":{"x":2185.3061761027725,"y":-227.86458333333408,"orientation":1.5882496193148399},"name":"les_gros_q","deck":{"width":3,"length":4},"entities":[{"x":0,"y":0,"type":"oar"},{"x":0,"y":2,"type":"oar"},{"x":1,"y":0,"type":"oar"},{"x":1,"y":2,"type":"oar"},{"x":2,"y":0,"type":"oar"},{"x":2,"y":2,"type":"oar"},{"x":3,"y":1,"type":"rudder"}],"life":300,"shape":{"type":"rectangle","width":3.0,"height":4.0,"orientation":0.0}},"visibleEntities":[],"wind":{"orientation":0.0,"strength":0.0}}
Next round input: {"ship":{"type":"ship","position":{"x":2185.3061761027725,"y":-227.86458333333408,"orientation":1.5882496193148399},"name":"les_gros_q","deck":{"width":3,"length":4},"entities":[{"x":0,"y":0,"type":"oar"},{"x":0,"y":2,"type":"oar"},{"x":1,"y":0,"type":"oar"},{"x":1,"y":2,"type":"oar"},{"x":2,"y":0,"type":"oar"},{"x":2,"y":2,"type":"oar"},{"x":3,"y":1,"type":"rudder"}],"life":300,"shape":{"type":"rectangle","width":3.0,"height":4.0,"orientation":0.0}},"visibleEntities":[],"wind":{"orientation":0.0,"strength":0.0}}
Next round input: {"ship":{"type":"ship","position":{"x":2185.3061761027725,"y":-227.86458333333408,"orientation":1.5882496193148399},"name":"les_gros_q","deck":{"width":3,"length":4},"entities":[{"x":0,"y":0,"type":"oar"},{"x":0,"y":2,"type":"oar"},{"x":1,"y":0,"type":"oar"},{"x":1,"y":2,"type":"oar"},{"x":2,"y":0,"type":"oar"},{"x":2,"y":2,"type":"oar"},{"x":3,"y":1,"type":"rudder"}],"life":300,"shape":{"type":"rectangle","width":3.0,"height":4.0,"orientation":0.0}},"visibleEntities":[],"wind":{"orientation":0.0,"strength":0.0}}
Next round input: {"ship":{"type":"ship","position":{"x":2185.3061761027725,"y":-227.86458333333408,"orientation":1.5882496193148399},"name":"les_gros_q","deck":{"width":3,"length":4},"entities":[{"x":0,"y":0,"type":"oar"},{"x":0,"y":2,"type":"oar"},{"x":1,"y":0,"type":"oar"},{"x":1,"y":2,"type":"oar"},{"x":2,"y":0,"type":"oar"},{"x":2,"y":2,"type":"oar"},{"x":3,"y":1,"type":"rudder"}],"life":300,"shape":{"type":"rectangle","width":3.0,"height":4.0,"orientation":0.0}},"visibleEntities":[],"wind":{"orientation":0.0,"strength":0.0}}
Next round input: {"ship":{"type":"ship","position":{"x":2185.3061761027725,"y":-227.86458333333408,"orientation":1.5882496193148399},"name":"les_gros_q","deck":{"width":3,"length":4},"entities":[{"x":0,"y":0,"type":"oar"},{"x":0,"y":2,"type":"oar"},{"x":1,"y":0,"type":"oar"},{"x":1,"y":2,"type":"oar"},{"x":2,"y":0,"type":"oar"},{"x":2,"y":2,"type":"oar"},{"x":3,"y":1,"type":"rudder"}],"life":300,"shape":{"type":"rectangle","width":3.0,"height":4.0,"orientation":0.0}},"visibleEntities":[],"wind":{"orientation":0.0,"strength":0.0}}
Next round input: {"ship":{"type":"ship","position":{"x":2185.3061761027725,"y":-227.86458333333408,"orientation":1.5882496193148399},"name":"les_gros_q","deck":{"width":3,"length":4},"entities":[{"x":0,"y":0,"type":"oar"},{"x":0,"y":2,"type":"oar"},{"x":1,"y":0,"type":"oar"},{"x":1,"y":2,"type":"oar"},{"x":2,"y":0,"type":"oar"},{"x":2,"y":2,"type":"oar"},{"x":3,"y":1,"type":"rudder"}],"life":300,"shape":{"type":"rectangle","width":3.0,"height":4.0,"orientation":0.0}},"visibleEntities":[],"wind":{"orientation":0.0,"strength":0.0}}
Next round input: {"ship":{"type":"ship","position":{"x":2185.3061761027725,"y":-227.86458333333408,"orientation":1.5882496193148399},"name":"les_gros_q","deck":{"width":3,"length":4},"entities":[{"x":0,"y":0,"type":"oar"},{"x":0,"y":2,"type":"oar"},{"x":1,"y":0,"type":"oar"},{"x":1,"y":2,"type":"oar"},{"x":2,"y":0,"type":"oar"},{"x":2,"y":2,"type":"oar"},{"x":3,"y":1,"type":"rudder"}],"life":300,"shape":{"type":"rectangle","width":3.0,"height":4.0,"orientation":0.0}},"visibleEntities":[],"wind":{"orientation":0.0,"strength":0.0}}
Next round input: {"ship":{"type":"ship","position":{"x":2185.3061761027725,"y":-227.86458333333408,"orientation":1.5882496193148399},"name":"les_gros_q","deck":{"width":3,"length":4},"entities":[{"x":0,"y":0,"type":"oar"},{"x":0,"y":2,"type":"oar"},{"x":1,"y":0,"type":"oar"},{"x":1,"y":2,"type":"oar"},{"x":2,"y":0,"type":"oar"},{"x":2,"y":2,"type":"oar"},{"x":3,"y":1,"type":"rudder"}],"life":300,"shape":{"type":"rectangle","width":3.0,"height":4.0,"orientation":0.0}},"visibleEntities":[],"wind":{"orientation":0.0,"strength":0.0}}
Next round input: {"ship":{"type":"ship","position":{"x":2185.3061761027725,"y":-227.86458333333408,"orientation":1.5882496193148399},"name":"les_gros_q","deck":{"width":3,"length":4},"entities":[{"x":0,"y":0,"type":"oar"},{"x":0,"y":2,"type":"oar"},{"x":1,"y":0,"type":"oar"},{"x":1,"y":2,"type":"oar"},{"x":2,"y":0,"type":"oar"},{"x":2,"y":2,"type":"oar"},{"x":3,"y":1,"type":"rudder"}],"life":300,"shape":{"type":"rectangle","width":3.0,"height":4.0,"orientation":0.0}},"visibleEntities":[],"wind":{"orientation":0.0,"strength":0.0}}
Next round input: {"ship":{"type":"ship","position":{"x":2185.3061761027725,"y":-227.86458333333408,"orientation":1.5882496193148399},"name":"les_gros_q","deck":{"width":3,"length":4},"entities":[{"x":0,"y":0,"type":"oar"},{"x":0,"y":2,"type":"oar"},{"x":1,"y":0,"type":"oar"},{"x":1,"y":2,"type":"oar"},{"x":2,"y":0,"type":"oar"},{"x":2,"y":2,"type":"oar"},{"x":3,"y":1,"type":"rudder"}],"life":300,"shape":{"type":"rectangle","width":3.0,"height":4.0,"orientation":0.0}},"visibleEntities":[],"wind":{"orientation":0.0,"strength":0.0}}
Next round input: {"ship":{"type":"ship","position":{"x":2185.3061761027725,"y":-227.86458333333408,"orientation":1.5882496193148399},"name":"les_gros_q","deck":{"width":3,"length":4},"entities":[{"x":0,"y":0,"type":"oar"},{"x":0,"y":2,"type":"oar"},{"x":1,"y":0,"type":"oar"},{"x":1,"y":2,"type":"oar"},{"x":2,"y":0,"type":"oar"},{"x":2,"y":2,"type":"oar"},{"x":3,"y":1,"type":"rudder"}],"life":300,"shape":{"type":"rectangle","width":3.0,"height":4.0,"orientation":0.0}},"visibleEntities":[],"wind":{"orientation":0.0,"strength":0.0}}
Next round input: {"ship":{"type":"ship","position":{"x":2185.3061761027725,"y":-227.86458333333408,"orientation":1.5882496193148399},"name":"les_gros_q","deck":{"width":3,"length":4},"entities":[{"x":0,"y":0,"type":"oar"},{"x":0,"y":2,"type":"oar"},{"x":1,"y":0,"type":"oar"},{"x":1,"y":2,"type":"oar"},{"x":2,"y":0,"type":"oar"},{"x":2,"y":2,"type":"oar"},{"x":3,"y":1,"type":"rudder"}],"life":300,"shape":{"type":"rectangle","width":3.0,"height":4.0,"orientation":0.0}},"visibleEntities":[],"wind":{"orientation":0.0,"strength":0.0}}
Next round input: {"ship":{"type":"ship","position":{"x":2185.3061761027725,"y":-227.86458333333408,"orientation":1.5882496193148399},"name":"les_gros_q","deck":{"width":3,"length":4},"entities":[{"x":0,"y":0,"type":"oar"},{"x":0,"y":2,"type":"oar"},{"x":1,"y":0,"type":"oar"},{"x":1,"y":2,"type":"oar"},{"x":2,"y":0,"type":"oar"},{"x":2,"y":2,"type":"oar"},{"x":3,"y":1,"type":"rudder"}],"life":300,"shape":{"type":"rectangle","width":3.0,"height":4.0,"orientation":0.0}},"visibleEntities":[],"wind":{"orientation":0.0,"strength":0.0}}
Next round input: {"ship":{"type":"ship","position":{"x":2185.3061761027725,"y":-227.86458333333408,"orientation":1.5882496193148399},"name":"les_gros_q","deck":{"width":3,"length":4},"entities":[{"x":0,"y":0,"type":"oar"},{"x":0,"y":2,"type":"oar"},{"x":1,"y":0,"type":"oar"},{"x":1,"y":2,"type":"oar"},{"x":2,"y":0,"type":"oar"},{"x":2,"y":2,"type":"oar"},{"x":3,"y":1,"type":"rudder"}],"life":300,"shape":{"type":"rectangle","width":3.0,"height":4.0,"orientation":0.0}},"visibleEntities":[],"wind":{"orientation":0.0,"strength":0.0}}
Next round input: {"ship":{"type":"ship","position":{"x":2185.3061761027725,"y":-227.86458333333408,"orientation":1.5882496193148399},"name":"les_gros_q","deck":{"width":3,"length":4},"entities":[{"x":0,"y":0,"type":"oar"},{"x":0,"y":2,"type":"oar"},{"x":1,"y":0,"type":"oar"},{"x":1,"y":2,"type":"oar"},{"x":2,"y":0,"type":"oar"},{"x":2,"y":2,"type":"oar"},{"x":3,"y":1,"type":"rudder"}],"life":300,"shape":{"type":"rectangle","width":3.0,"height":4.0,"orientation":0.0}},"visibleEntities":[],"wind":{"orientation":0.0,"strength":0.0}}
Next round input: {"ship":{"type":"ship","position":{"x":2185.3061761027725,"y":-227.86458333333408,"orientation":1.5882496193148399},"name":"les_gros_q","deck":{"width":3,"length":4},"entities":[{"x":0,"y":0,"type":"oar"},{"x":0,"y":2,"type":"oar"},{"x":1,"y":0,"type":"oar"},{"x":1,"y":2,"type":"oar"},{"x":2,"y":0,"type":"oar"},{"x":2,"y":2,"type":"oar"},{"x":3,"y":1,"type":"rudder"}],"life":300,"shape":{"type":"rectangle","width":3.0,"height":4.0,"orientation":0.0}},"visibleEntities":[],"wind":{"orientation":0.0,"strength":0.0}}
Next round input: {"ship":{"type":"ship","position":{"x":2185.3061761027725,"y":-227.86458333333408,"orientation":1.5882496193148399},"name":"les_gros_q","deck":{"width":3,"length":4},"entities":[{"x":0,"y":0,"type":"oar"},{"x":0,"y":2,"type":"oar"},{"x":1,"y":0,"type":"oar"},{"x":1,"y":2,"type":"oar"},{"x":2,"y":0,"type":"oar"},{"x":2,"y":2,"type":"oar"},{"x":3,"y":1,"type":"rudder"}],"life":300,"shape":{"type":"rectangle","width":3.0,"height":4.0,"orientation":0.0}},"visibleEntities":[],"wind":{"orientation":0.0,"strength":0.0}}
Next round input: {"ship":{"type":"ship","position":{"x":2185.3061761027725,"y":-227.86458333333408,"orientation":1.5882496193148399},"name":"les_gros_q","deck":{"width":3,"length":4},"entities":[{"x":0,"y":0,"type":"oar"},{"x":0,"y":2,"type":"oar"},{"x":1,"y":0,"type":"oar"},{"x":1,"y":2,"type":"oar"},{"x":2,"y":0,"type":"oar"},{"x":2,"y":2,"type":"oar"},{"x":3,"y":1,"type":"rudder"}],"life":300,"shape":{"type":"rectangle","width":3.0,"height":4.0,"orientation":0.0}},"visibleEntities":[],"wind":{"orientation":0.0,"strength":0.0}}
Next round input: {"ship":{"type":"ship","position":{"x":2185.3061761027725,"y":-227.86458333333408,"orientation":1.5882496193148399},"name":"les_gros_q","deck":{"width":3,"length":4},"entities":[{"x":0,"y":0,"type":"oar"},{"x":0,"y":2,"type":"oar"},{"x":1,"y":0,"type":"oar"},{"x":1,"y":2,"type":"oar"},{"x":2,"y":0,"type":"oar"},{"x":2,"y":2,"type":"oar"},{"x":3,"y":1,"type":"rudder"}],"life":300,"shape":{"type":"rectangle","width":3.0,"height":4.0,"orientation":0.0}},"visibleEntities":[],"wind":{"orientation":0.0,"strength":0.0}}
Next round input: {"ship":{"type":"ship","position":{"x":2185.3061761027725,"y":-227.86458333333408,"orientation":1.5882496193148399},"name":"les_gros_q","deck":{"width":3,"length":4},"entities":[{"x":0,"y":0,"type":"oar"},{"x":0,"y":2,"type":"oar"},{"x":1,"y":0,"type":"oar"},{"x":1,"y":2,"type":"oar"},{"x":2,"y":0,"type":"oar"},{"x":2,"y":2,"type":"oar"},{"x":3,"y":1,"type":"rudder"}],"life":300,"shape":{"type":"rectangle","width":3.0,"height":4.0,"orientation":0.0}},"visibleEntities":[],"wind":{"orientation":0.0,"strength":0.0}}
Next round input: {"ship":{"type":"ship","position":{"x":2185.3061761027725,"y":-227.86458333333408,"orientation":1.5882496193148399},"name":"les_gros_q","deck":{"width":3,"length":4},"entities":[{"x":0,"y":0,"type":"oar"},{"x":0,"y":2,"type":"oar"},{"x":1,"y":0,"type":"oar"},{"x":1,"y":2,"type":"oar"},{"x":2,"y":0,"type":"oar"},{"x":2,"y":2,"type":"oar"},{"x":3,"y":1,"type":"rudder"}],"life":300,"shape":{"type":"rectangle","width":3.0,"height":4.0,"orientation":0.0}},"visibleEntities":[],"wind":{"orientation":0.0,"strength":0.0}}
Next round input: {"ship":{"type":"ship","position":{"x":2185.3061761027725,"y":-227.86458333333408,"orientation":1.5882496193148399},"name":"les_gros_q","deck":{"width":3,"length":4},"entities":[{"x":0,"y":0,"type":"oar"},{"x":0,"y":2,"type":"oar"},{"x":1,"y":0,"type":"oar"},{"x":1,"y":2,"type":"oar"},{"x":2,"y":0,"type":"oar"},{"x":2,"y":2,"type":"oar"},{"x":3,"y":1,"type":"rudder"}],"life":300,"shape":{"type":"rectangle","width":3.0,"height":4.0,"orientation":0.0}},"visibleEntities":[],"wind":{"orientation":0.0,"strength":0.0}}
Next round input: {"ship":{"type":"ship","position":{"x":2185.3061761027725,"y":-227.86458333333408,"orientation":1.5882496193148399},"name":"les_gros_q","deck":{"width":3,"length":4},"entities":[{"x":0,"y":0,"type":"oar"},{"x":0,"y":2,"type":"oar"},{"x":1,"y":0,"type":"oar"},{"x":1,"y":2,"type":"oar"},{"x":2,"y":0,"type":"oar"},{"x":2,"y":2,"type":"oar"},{"x":3,"y":1,"type":"rudder"}],"life":300,"shape":{"type":"rectangle","width":3.0,"height":4.0,"orientation":0.0}},"visibleEntities":[],"wind":{"orientation":0.0,"strength":0.0}}
Next round input: {"ship":{"type":"ship","position":{"x":2185.3061761027725,"y":-227.86458333333408,"orientation":1.5882496193148399},"name":"les_gros_q","deck":{"width":3,"length":4},"entities":[{"x":0,"y":0,"type":"oar"},{"x":0,"y":2,"type":"oar"},{"x":1,"y":0,"type":"oar"},{"x":1,"y":2,"type":"oar"},{"x":2,"y":0,"type":"oar"},{"x":2,"y":2,"type":"oar"},{"x":3,"y":1,"type":"rudder"}],"life":300,"shape":{"type":"rectangle","width":3.0,"height":4.0,"orientation":0.0}},"visibleEntities":[],"wind":{"orientation":0.0,"strength":0.0}}
Next round input: {"ship":{"type":"ship","position":{"x":2185.3061761027725,"y":-227.86458333333408,"orientation":1.5882496193148399},"name":"les_gros_q","deck":{"width":3,"length":4},"entities":[{"x":0,"y":0,"type":"oar"},{"x":0,"y":2,"type":"oar"},{"x":1,"y":0,"type":"oar"},{"x":1,"y":2,"type":"oar"},{"x":2,"y":0,"type":"oar"},{"x":2,"y":2,"type":"oar"},{"x":3,"y":1,"type":"rudder"}],"life":300,"shape":{"type":"rectangle","width":3.0,"height":4.0,"orientation":0.0}},"visibleEntities":[],"wind":{"orientation":0.0,"strength":0.0}}
Next round input: {"ship":{"type":"ship","position":{"x":2185.3061761027725,"y":-227.86458333333408,"orientation":1.5882496193148399},"name":"les_gros_q","deck":{"width":3,"length":4},"entities":[{"x":0,"y":0,"type":"oar"},{"x":0,"y":2,"type":"oar"},{"x":1,"y":0,"type":"oar"},{"x":1,"y":2,"type":"oar"},{"x":2,"y":0,"type":"oar"},{"x":2,"y":2,"type":"oar"},{"x":3,"y":1,"type":"rudder"}],"life":300,"shape":{"type":"rectangle","width":3.0,"height":4.0,"orientation":0.0}},"visibleEntities":[],"wind":{"orientation":0.0,"strength":0.0}}
Next round input: {"ship":{"type":"ship","position":{"x":2185.3061761027725,"y":-227.86458333333408,"orientation":1.5882496193148399},"name":"les_gros_q","deck":{"width":3,"length":4},"entities":[{"x":0,"y":0,"type":"oar"},{"x":0,"y":2,"type":"oar"},{"x":1,"y":0,"type":"oar"},{"x":1,"y":2,"type":"oar"},{"x":2,"y":0,"type":"oar"},{"x":2,"y":2,"type":"oar"},{"x":3,"y":1,"type":"rudder"}],"life":300,"shape":{"type":"rectangle","width":3.0,"height":4.0,"orientation":0.0}},"visibleEntities":[],"wind":{"orientation":0.0,"strength":0.0}}
Next round input: {"ship":{"type":"ship","position":{"x":2185.3061761027725,"y":-227.86458333333408,"orientation":1.5882496193148399},"name":"les_gros_q","deck":{"width":3,"length":4},"entities":[{"x":0,"y":0,"type":"oar"},{"x":0,"y":2,"type":"oar"},{"x":1,"y":0,"type":"oar"},{"x":1,"y":2,"type":"oar"},{"x":2,"y":0,"type":"oar"},{"x":2,"y":2,"type":"oar"},{"x":3,"y":1,"type":"rudder"}],"life":300,"shape":{"type":"rectangle","width":3.0,"height":4.0,"orientation":0.0}},"visibleEntities":[],"wind":{"orientation":0.0,"strength":0.0}}
Next round input: {"ship":{"type":"ship","position":{"x":2185.3061761027725,"y":-227.86458333333408,"orientation":1.5882496193148399},"name":"les_gros_q","deck":{"width":3,"length":4},"entities":[{"x":0,"y":0,"type":"oar"},{"x":0,"y":2,"type":"oar"},{"x":1,"y":0,"type":"oar"},{"x":1,"y":2,"type":"oar"},{"x":2,"y":0,"type":"oar"},{"x":2,"y":2,"type":"oar"},{"x":3,"y":1,"type":"rudder"}],"life":300,"shape":{"type":"rectangle","width":3.0,"height":4.0,"orientation":0.0}},"visibleEntities":[],"wind":{"orientation":0.0,"strength":0.0}}
Next round input: {"ship":{"type":"ship","position":{"x":2185.3061761027725,"y":-227.86458333333408,"orientation":1.5882496193148399},"name":"les_gros_q","deck":{"width":3,"length":4},"entities":[{"x":0,"y":0,"type":"oar"},{"x":0,"y":2,"type":"oar"},{"x":1,"y":0,"type":"oar"},{"x":1,"y":2,"type":"oar"},{"x":2,"y":0,"type":"oar"},{"x":2,"y":2,"type":"oar"},{"x":3,"y":1,"type":"rudder"}],"life":300,"shape":{"type":"rectangle","width":3.0,"height":4.0,"orientation":0.0}},"visibleEntities":[],"wind":{"orientation":0.0,"strength":0.0}}
Next round input: {"ship":{"type":"ship","position":{"x":2185.3061761027725,"y":-227.86458333333408,"orientation":1.5882496193148399},"name":"les_gros_q","deck":{"width":3,"length":4},"entities":[{"x":0,"y":0,"type":"oar"},{"x":0,"y":2,"type":"oar"},{"x":1,"y":0,"type":"oar"},{"x":1,"y":2,"type":"oar"},{"x":2,"y":0,"type":"oar"},{"x":2,"y":2,"type":"oar"},{"x":3,"y":1,"type":"rudder"}],"life":300,"shape":{"type":"rectangle","width":3.0,"height":4.0,"orientation":0.0}},"visibleEntities":[],"wind":{"orientation":0.0,"strength":0.0}}
Next round input: {"ship":{"type":"ship","position":{"x":2185.3061761027725,"y":-227.86458333333408,"orientation":1.5882496193148399},"name":"les_gros_q","deck":{"width":3,"length":4},"entities":[{"x":0,"y":0,"type":"oar"},{"x":0,"y":2,"type":"oar"},{"x":1,"y":0,"type":"oar"},{"x":1,"y":2,"type":"oar"},{"x":2,"y":0,"type":"oar"},{"x":2,"y":2,"type":"oar"},{"x":3,"y":1,"type":"rudder"}],"life":300,"shape":{"type":"rectangle","width":3.0,"height":4.0,"orientation":0.0}},"visibleEntities":[],"wind":{"orientation":0.0,"strength":0.0}}
Next round input: {"ship":{"type":"ship","position":{"x":2185.3061761027725,"y":-227.86458333333408,"orientation":1.5882496193148399},"name":"les_gros_q","deck":{"width":3,"length":4},"entities":[{"x":0,"y":0,"type":"oar"},{"x":0,"y":2,"type":"oar"},{"x":1,"y":0,"type":"oar"},{"x":1,"y":2,"type":"oar"},{"x":2,"y":0,"type":"oar"},{"x":2,"y":2,"type":"oar"},{"x":3,"y":1,"type":"rudder"}],"life":300,"shape":{"type":"rectangle","width":3.0,"height":4.0,"orientation":0.0}},"visibleEntities":[],"wind":{"orientation":0.0,"strength":0.0}}
Next round input: {"ship":{"type":"ship","position":{"x":2185.3061761027725,"y":-227.86458333333408,"orientation":1.5882496193148399},"name":"les_gros_q","deck":{"width":3,"length":4},"entities":[{"x":0,"y":0,"type":"oar"},{"x":0,"y":2,"type":"oar"},{"x":1,"y":0,"type":"oar"},{"x":1,"y":2,"type":"oar"},{"x":2,"y":0,"type":"oar"},{"x":2,"y":2,"type":"oar"},{"x":3,"y":1,"type":"rudder"}],"life":300,"shape":{"type":"rectangle","width":3.0,"height":4.0,"orientation":0.0}},"visibleEntities":[],"wind":{"orientation":0.0,"strength":0.0}}
Next round input: {"ship":{"type":"ship","position":{"x":2185.3061761027725,"y":-227.86458333333408,"orientation":1.5882496193148399},"name":"les_gros_q","deck":{"width":3,"length":4},"entities":[{"x":0,"y":0,"type":"oar"},{"x":0,"y":2,"type":"oar"},{"x":1,"y":0,"type":"oar"},{"x":1,"y":2,"type":"oar"},{"x":2,"y":0,"type":"oar"},{"x":2,"y":2,"type":"oar"},{"x":3,"y":1,"type":"rudder"}],"life":300,"shape":{"type":"rectangle","width":3.0,"height":4.0,"orientation":0.0}},"visibleEntities":[],"wind":{"orientation":0.0,"strength":0.0}}
Next round input: {"ship":{"type":"ship","position":{"x":2185.3061761027725,"y":-227.86458333333408,"orientation":1.5882496193148399},"name":"les_gros_q","deck":{"width":3,"length":4},"entities":[{"x":0,"y":0,"type":"oar"},{"x":0,"y":2,"type":"oar"},{"x":1,"y":0,"type":"oar"},{"x":1,"y":2,"type":"oar"},{"x":2,"y":0,"type":"oar"},{"x":2,"y":2,"type":"oar"},{"x":3,"y":1,"type":"rudder"}],"life":300,"shape":{"type":"rectangle","width":3.0,"height":4.0,"orientation":0.0}},"visibleEntities":[],"wind":{"orientation":0.0,"strength":0.0}}
Next round input: {"ship":{"type":"ship","position":{"x":2185.3061761027725,"y":-227.86458333333408,"orientation":1.5882496193148399},"name":"les_gros_q","deck":{"width":3,"length":4},"entities":[{"x":0,"y":0,"type":"oar"},{"x":0,"y":2,"type":"oar"},{"x":1,"y":0,"type":"oar"},{"x":1,"y":2,"type":"oar"},{"x":2,"y":0,"type":"oar"},{"x":2,"y":2,"type":"oar"},{"x":3,"y":1,"type":"rudder"}],"life":300,"shape":{"type":"rectangle","width":3.0,"height":4.0,"orientation":0.0}},"visibleEntities":[],"wind":{"orientation":0.0,"strength":0.0}}
Next round input: {"ship":{"type":"ship","position":{"x":2185.3061761027725,"y":-227.86458333333408,"orientation":1.5882496193148399},"name":"les_gros_q","deck":{"width":3,"length":4},"entities":[{"x":0,"y":0,"type":"oar"},{"x":0,"y":2,"type":"oar"},{"x":1,"y":0,"type":"oar"},{"x":1,"y":2,"type":"oar"},{"x":2,"y":0,"type":"oar"},{"x":2,"y":2,"type":"oar"},{"x":3,"y":1,"type":"rudder"}],"life":300,"shape":{"type":"rectangle","width":3.0,"height":4.0,"orientation":0.0}},"visibleEntities":[],"wind":{"orientation":0.0,"strength":0.0}}
Next round input: {"ship":{"type":"ship","position":{"x":2185.3061761027725,"y":-227.86458333333408,"orientation":1.5882496193148399},"name":"les_gros_q","deck":{"width":3,"length":4},"entities":[{"x":0,"y":0,"type":"oar"},{"x":0,"y":2,"type":"oar"},{"x":1,"y":0,"type":"oar"},{"x":1,"y":2,"type":"oar"},{"x":2,"y":0,"type":"oar"},{"x":2,"y":2,"type":"oar"},{"x":3,"y":1,"type":"rudder"}],"life":300,"shape":{"type":"rectangle","width":3.0,"height":4.0,"orientation":0.0}},"visibleEntities":[],"wind":{"orientation":0.0,"strength":0.0}}
Next round input: {"ship":{"type":"ship","position":{"x":2185.3061761027725,"y":-227.86458333333408,"orientation":1.5882496193148399},"name":"les_gros_q","deck":{"width":3,"length":4},"entities":[{"x":0,"y":0,"type":"oar"},{"x":0,"y":2,"type":"oar"},{"x":1,"y":0,"type":"oar"},{"x":1,"y":2,"type":"oar"},{"x":2,"y":0,"type":"oar"},{"x":2,"y":2,"type":"oar"},{"x":3,"y":1,"type":"rudder"}],"life":300,"shape":{"type":"rectangle","width":3.0,"height":4.0,"orientation":0.0}},"visibleEntities":[],"wind":{"orientation":0.0,"strength":0.0}}
Next round input: {"ship":{"type":"ship","position":{"x":2185.3061761027725,"y":-227.86458333333408,"orientation":1.5882496193148399},"name":"les_gros_q","deck":{"width":3,"length":4},"entities":[{"x":0,"y":0,"type":"oar"},{"x":0,"y":2,"type":"oar"},{"x":1,"y":0,"type":"oar"},{"x":1,"y":2,"type":"oar"},{"x":2,"y":0,"type":"oar"},{"x":2,"y":2,"type":"oar"},{"x":3,"y":1,"type":"rudder"}],"life":300,"shape":{"type":"rectangle","width":3.0,"height":4.0,"orientation":0.0}},"visibleEntities":[],"wind":{"orientation":0.0,"strength":0.0}}
Next round input: {"ship":{"type":"ship","position":{"x":2185.3061761027725,"y":-227.86458333333408,"orientation":1.5882496193148399},"name":"les_gros_q","deck":{"width":3,"length":4},"entities":[{"x":0,"y":0,"type":"oar"},{"x":0,"y":2,"type":"oar"},{"x":1,"y":0,"type":"oar"},{"x":1,"y":2,"type":"oar"},{"x":2,"y":0,"type":"oar"},{"x":2,"y":2,"type":"oar"},{"x":3,"y":1,"type":"rudder"}],"life":300,"shape":{"type":"rectangle","width":3.0,"height":4.0,"orientation":0.0}},"visibleEntities":[],"wind":{"orientation":0.0,"strength":0.0}}
Next round input: {"ship":{"type":"ship","position":{"x":2185.3061761027725,"y":-227.86458333333408,"orientation":1.5882496193148399},"name":"les_gros_q","deck":{"width":3,"length":4},"entities":[{"x":0,"y":0,"type":"oar"},{"x":0,"y":2,"type":"oar"},{"x":1,"y":0,"type":"oar"},{"x":1,"y":2,"type":"oar"},{"x":2,"y":0,"type":"oar"},{"x":2,"y":2,"type":"oar"},{"x":3,"y":1,"type":"rudder"}],"life":300,"shape":{"type":"rectangle","width":3.0,"height":4.0,"orientation":0.0}},"visibleEntities":[],"wind":{"orientation":0.0,"strength":0.0}}
Next round input: {"ship":{"type":"ship","position":{"x":2185.3061761027725,"y":-227.86458333333408,"orientation":1.5882496193148399},"name":"les_gros_q","deck":{"width":3,"length":4},"entities":[{"x":0,"y":0,"type":"oar"},{"x":0,"y":2,"type":"oar"},{"x":1,"y":0,"type":"oar"},{"x":1,"y":2,"type":"oar"},{"x":2,"y":0,"type":"oar"},{"x":2,"y":2,"type":"oar"},{"x":3,"y":1,"type":"rudder"}],"life":300,"shape":{"type":"rectangle","width":3.0,"height":4.0,"orientation":0.0}},"visibleEntities":[],"wind":{"orientation":0.0,"strength":0.0}}
Next round input: {"ship":{"type":"ship","position":{"x":2185.3061761027725,"y":-227.86458333333408,"orientation":1.5882496193148399},"name":"les_gros_q","deck":{"width":3,"length":4},"entities":[{"x":0,"y":0,"type":"oar"},{"x":0,"y":2,"type":"oar"},{"x":1,"y":0,"type":"oar"},{"x":1,"y":2,"type":"oar"},{"x":2,"y":0,"type":"oar"},{"x":2,"y":2,"type":"oar"},{"x":3,"y":1,"type":"rudder"}],"life":300,"shape":{"type":"rectangle","width":3.0,"height":4.0,"orientation":0.0}},"visibleEntities":[],"wind":{"orientation":0.0,"strength":0.0}}
Next round input: {"ship":{"type":"ship","position":{"x":2185.3061761027725,"y":-227.86458333333408,"orientation":1.5882496193148399},"name":"les_gros_q","deck":{"width":3,"length":4},"entities":[{"x":0,"y":0,"type":"oar"},{"x":0,"y":2,"type":"oar"},{"x":1,"y":0,"type":"oar"},{"x":1,"y":2,"type":"oar"},{"x":2,"y":0,"type":"oar"},{"x":2,"y":2,"type":"oar"},{"x":3,"y":1,"type":"rudder"}],"life":300,"shape":{"type":"rectangle","width":3.0,"height":4.0,"orientation":0.0}},"visibleEntities":[],"wind":{"orientation":0.0,"strength":0.0}}
Next round input: {"ship":{"type":"ship","position":{"x":2185.3061761027725,"y":-227.86458333333408,"orientation":1.5882496193148399},"name":"les_gros_q","deck":{"width":3,"length":4},"entities":[{"x":0,"y":0,"type":"oar"},{"x":0,"y":2,"type":"oar"},{"x":1,"y":0,"type":"oar"},{"x":1,"y":2,"type":"oar"},{"x":2,"y":0,"type":"oar"},{"x":2,"y":2,"type":"oar"},{"x":3,"y":1,"type":"rudder"}],"life":300,"shape":{"type":"rectangle","width":3.0,"height":4.0,"orientation":0.0}},"visibleEntities":[],"wind":{"orientation":0.0,"strength":0.0}}
Next round input: {"ship":{"type":"ship","position":{"x":2185.3061761027725,"y":-227.86458333333408,"orientation":1.5882496193148399},"name":"les_gros_q","deck":{"width":3,"length":4},"entities":[{"x":0,"y":0,"type":"oar"},{"x":0,"y":2,"type":"oar"},{"x":1,"y":0,"type":"oar"},{"x":1,"y":2,"type":"oar"},{"x":2,"y":0,"type":"oar"},{"x":2,"y":2,"type":"oar"},{"x":3,"y":1,"type":"rudder"}],"life":300,"shape":{"type":"rectangle","width":3.0,"height":4.0,"orientation":0.0}},"visibleEntities":[],"wind":{"orientation":0.0,"strength":0.0}}
Next round input: {"ship":{"type":"ship","position":{"x":2185.3061761027725,"y":-227.86458333333408,"orientation":1.5882496193148399},"name":"les_gros_q","deck":{"width":3,"length":4},"entities":[{"x":0,"y":0,"type":"oar"},{"x":0,"y":2,"type":"oar"},{"x":1,"y":0,"type":"oar"},{"x":1,"y":2,"type":"oar"},{"x":2,"y":0,"type":"oar"},{"x":2,"y":2,"type":"oar"},{"x":3,"y":1,"type":"rudder"}],"life":300,"shape":{"type":"rectangle","width":3.0,"height":4.0,"orientation":0.0}},"visibleEntities":[],"wind":{"orientation":0.0,"strength":0.0}}
Next round input: {"ship":{"type":"ship","position":{"x":2185.3061761027725,"y":-227.86458333333408,"orientation":1.5882496193148399},"name":"les_gros_q","deck":{"width":3,"length":4},"entities":[{"x":0,"y":0,"type":"oar"},{"x":0,"y":2,"type":"oar"},{"x":1,"y":0,"type":"oar"},{"x":1,"y":2,"type":"oar"},{"x":2,"y":0,"type":"oar"},{"x":2,"y":2,"type":"oar"},{"x":3,"y":1,"type":"rudder"}],"life":300,"shape":{"type":"rectangle","width":3.0,"height":4.0,"orientation":0.0}},"visibleEntities":[],"wind":{"orientation":0.0,"strength":0.0}}
Next round input: {"ship":{"type":"ship","position":{"x":2185.3061761027725,"y":-227.86458333333408,"orientation":1.5882496193148399},"name":"les_gros_q","deck":{"width":3,"length":4},"entities":[{"x":0,"y":0,"type":"oar"},{"x":0,"y":2,"type":"oar"},{"x":1,"y":0,"type":"oar"},{"x":1,"y":2,"type":"oar"},{"x":2,"y":0,"type":"oar"},{"x":2,"y":2,"type":"oar"},{"x":3,"y":1,"type":"rudder"}],"life":300,"shape":{"type":"rectangle","width":3.0,"height":4.0,"orientation":0.0}},"visibleEntities":[],"wind":{"orientation":0.0,"strength":0.0}}
Next round input: {"ship":{"type":"ship","position":{"x":2185.3061761027725,"y":-227.86458333333408,"orientation":1.5882496193148399},"name":"les_gros_q","deck":{"width":3,"length":4},"entities":[{"x":0,"y":0,"type":"oar"},{"x":0,"y":2,"type":"oar"},{"x":1,"y":0,"type":"oar"},{"x":1,"y":2,"type":"oar"},{"x":2,"y":0,"type":"oar"},{"x":2,"y":2,"type":"oar"},{"x":3,"y":1,"type":"rudder"}],"life":300,"shape":{"type":"rectangle","width":3.0,"height":4.0,"orientation":0.0}},"visibleEntities":[],"wind":{"orientation":0.0,"strength":0.0}}
Next round input: {"ship":{"type":"ship","position":{"x":2185.3061761027725,"y":-227.86458333333408,"orientation":1.5882496193148399},"name":"les_gros_q","deck":{"width":3,"length":4},"entities":[{"x":0,"y":0,"type":"oar"},{"x":0,"y":2,"type":"oar"},{"x":1,"y":0,"type":"oar"},{"x":1,"y":2,"type":"oar"},{"x":2,"y":0,"type":"oar"},{"x":2,"y":2,"type":"oar"},{"x":3,"y":1,"type":"rudder"}],"life":300,"shape":{"type":"rectangle","width":3.0,"height":4.0,"orientation":0.0}},"visibleEntities":[],"wind":{"orientation":0.0,"strength":0.0}}
Next round input: {"ship":{"type":"ship","position":{"x":2185.3061761027725,"y":-227.86458333333408,"orientation":1.5882496193148399},"name":"les_gros_q","deck":{"width":3,"length":4},"entities":[{"x":0,"y":0,"type":"oar"},{"x":0,"y":2,"type":"oar"},{"x":1,"y":0,"type":"oar"},{"x":1,"y":2,"type":"oar"},{"x":2,"y":0,"type":"oar"},{"x":2,"y":2,"type":"oar"},{"x":3,"y":1,"type":"rudder"}],"life":300,"shape":{"type":"rectangle","width":3.0,"height":4.0,"orientation":0.0}},"visibleEntities":[],"wind":{"orientation":0.0,"strength":0.0}}
Next round input: {"ship":{"type":"ship","position":{"x":2185.3061761027725,"y":-227.86458333333408,"orientation":1.5882496193148399},"name":"les_gros_q","deck":{"width":3,"length":4},"entities":[{"x":0,"y":0,"type":"oar"},{"x":0,"y":2,"type":"oar"},{"x":1,"y":0,"type":"oar"},{"x":1,"y":2,"type":"oar"},{"x":2,"y":0,"type":"oar"},{"x":2,"y":2,"type":"oar"},{"x":3,"y":1,"type":"rudder"}],"life":300,"shape":{"type":"rectangle","width":3.0,"height":4.0,"orientation":0.0}},"visibleEntities":[],"wind":{"orientation":0.0,"strength":0.0}}
Next round input: {"ship":{"type":"ship","position":{"x":2185.3061761027725,"y":-227.86458333333408,"orientation":1.5882496193148399},"name":"les_gros_q","deck":{"width":3,"length":4},"entities":[{"x":0,"y":0,"type":"oar"},{"x":0,"y":2,"type":"oar"},{"x":1,"y":0,"type":"oar"},{"x":1,"y":2,"type":"oar"},{"x":2,"y":0,"type":"oar"},{"x":2,"y":2,"type":"oar"},{"x":3,"y":1,"type":"rudder"}],"life":300,"shape":{"type":"rectangle","width":3.0,"height":4.0,"orientation":0.0}},"visibleEntities":[],"wind":{"orientation":0.0,"strength":0.0}}
Next round input: {"ship":{"type":"ship","position":{"x":2185.3061761027725,"y":-227.86458333333408,"orientation":1.5882496193148399},"name":"les_gros_q","deck":{"width":3,"length":4},"entities":[{"x":0,"y":0,"type":"oar"},{"x":0,"y":2,"type":"oar"},{"x":1,"y":0,"type":"oar"},{"x":1,"y":2,"type":"oar"},{"x":2,"y":0,"type":"oar"},{"x":2,"y":2,"type":"oar"},{"x":3,"y":1,"type":"rudder"}],"life":300,"shape":{"type":"rectangle","width":3.0,"height":4.0,"orientation":0.0}},"visibleEntities":[],"wind":{"orientation":0.0,"strength":0.0}}
Next round input: {"ship":{"type":"ship","position":{"x":2185.3061761027725,"y":-227.86458333333408,"orientation":1.5882496193148399},"name":"les_gros_q","deck":{"width":3,"length":4},"entities":[{"x":0,"y":0,"type":"oar"},{"x":0,"y":2,"type":"oar"},{"x":1,"y":0,"type":"oar"},{"x":1,"y":2,"type":"oar"},{"x":2,"y":0,"type":"oar"},{"x":2,"y":2,"type":"oar"},{"x":3,"y":1,"type":"rudder"}],"life":300,"shape":{"type":"rectangle","width":3.0,"height":4.0,"orientation":0.0}},"visibleEntities":[],"wind":{"orientation":0.0,"strength":0.0}}
Next round input: {"ship":{"type":"ship","position":{"x":2185.3061761027725,"y":-227.86458333333408,"orientation":1.5882496193148399},"name":"les_gros_q","deck":{"width":3,"length":4},"entities":[{"x":0,"y":0,"type":"oar"},{"x":0,"y":2,"type":"oar"},{"x":1,"y":0,"type":"oar"},{"x":1,"y":2,"type":"oar"},{"x":2,"y":0,"type":"oar"},{"x":2,"y":2,"type":"oar"},{"x":3,"y":1,"type":"rudder"}],"life":300,"shape":{"type":"rectangle","width":3.0,"height":4.0,"orientation":0.0}},"visibleEntities":[],"wind":{"orientation":0.0,"strength":0.0}}
Next round input: {"ship":{"type":"ship","position":{"x":2185.3061761027725,"y":-227.86458333333408,"orientation":1.5882496193148399},"name":"les_gros_q","deck":{"width":3,"length":4},"entities":[{"x":0,"y":0,"type":"oar"},{"x":0,"y":2,"type":"oar"},{"x":1,"y":0,"type":"oar"},{"x":1,"y":2,"type":"oar"},{"x":2,"y":0,"type":"oar"},{"x":2,"y":2,"type":"oar"},{"x":3,"y":1,"type":"rudder"}],"life":300,"shape":{"type":"rectangle","width":3.0,"height":4.0,"orientation":0.0}},"visibleEntities":[],"wind":{"orientation":0.0,"strength":0.0}}
Next round input: {"ship":{"type":"ship","position":{"x":2185.3061761027725,"y":-227.86458333333408,"orientation":1.5882496193148399},"name":"les_gros_q","deck":{"width":3,"length":4},"entities":[{"x":0,"y":0,"type":"oar"},{"x":0,"y":2,"type":"oar"},{"x":1,"y":0,"type":"oar"},{"x":1,"y":2,"type":"oar"},{"x":2,"y":0,"type":"oar"},{"x":2,"y":2,"type":"oar"},{"x":3,"y":1,"type":"rudder"}],"life":300,"shape":{"type":"rectangle","width":3.0,"height":4.0,"orientation":0.0}},"visibleEntities":[],"wind":{"orientation":0.0,"strength":0.0}}
Next round input: {"ship":{"type":"ship","position":{"x":2185.3061761027725,"y":-227.86458333333408,"orientation":1.5882496193148399},"name":"les_gros_q","deck":{"width":3,"length":4},"entities":[{"x":0,"y":0,"type":"oar"},{"x":0,"y":2,"type":"oar"},{"x":1,"y":0,"type":"oar"},{"x":1,"y":2,"type":"oar"},{"x":2,"y":0,"type":"oar"},{"x":2,"y":2,"type":"oar"},{"x":3,"y":1,"type":"rudder"}],"life":300,"shape":{"type":"rectangle","width":3.0,"height":4.0,"orientation":0.0}},"visibleEntities":[],"wind":{"orientation":0.0,"strength":0.0}}
Next round input: {"ship":{"type":"ship","position":{"x":2185.3061761027725,"y":-227.86458333333408,"orientation":1.5882496193148399},"name":"les_gros_q","deck":{"width":3,"length":4},"entities":[{"x":0,"y":0,"type":"oar"},{"x":0,"y":2,"type":"oar"},{"x":1,"y":0,"type":"oar"},{"x":1,"y":2,"type":"oar"},{"x":2,"y":0,"type":"oar"},{"x":2,"y":2,"type":"oar"},{"x":3,"y":1,"type":"rudder"}],"life":300,"shape":{"type":"rectangle","width":3.0,"height":4.0,"orientation":0.0}},"visibleEntities":[],"wind":{"orientation":0.0,"strength":0.0}}
Next round input: {"ship":{"type":"ship","position":{"x":2185.3061761027725,"y":-227.86458333333408,"orientation":1.5882496193148399},"name":"les_gros_q","deck":{"width":3,"length":4},"entities":[{"x":0,"y":0,"type":"oar"},{"x":0,"y":2,"type":"oar"},{"x":1,"y":0,"type":"oar"},{"x":1,"y":2,"type":"oar"},{"x":2,"y":0,"type":"oar"},{"x":2,"y":2,"type":"oar"},{"x":3,"y":1,"type":"rudder"}],"life":300,"shape":{"type":"rectangle","width":3.0,"height":4.0,"orientation":0.0}},"visibleEntities":[],"wind":{"orientation":0.0,"strength":0.0}}
Next round input: {"ship":{"type":"ship","position":{"x":2185.3061761027725,"y":-227.86458333333408,"orientation":1.5882496193148399},"name":"les_gros_q","deck":{"width":3,"length":4},"entities":[{"x":0,"y":0,"type":"oar"},{"x":0,"y":2,"type":"oar"},{"x":1,"y":0,"type":"oar"},{"x":1,"y":2,"type":"oar"},{"x":2,"y":0,"type":"oar"},{"x":2,"y":2,"type":"oar"},{"x":3,"y":1,"type":"rudder"}],"life":300,"shape":{"type":"rectangle","width":3.0,"height":4.0,"orientation":0.0}},"visibleEntities":[],"wind":{"orientation":0.0,"strength":0.0}}
Next round input: {"ship":{"type":"ship","position":{"x":2185.3061761027725,"y":-227.86458333333408,"orientation":1.5882496193148399},"name":"les_gros_q","deck":{"width":3,"length":4},"entities":[{"x":0,"y":0,"type":"oar"},{"x":0,"y":2,"type":"oar"},{"x":1,"y":0,"type":"oar"},{"x":1,"y":2,"type":"oar"},{"x":2,"y":0,"type":"oar"},{"x":2,"y":2,"type":"oar"},{"x":3,"y":1,"type":"rudder"}],"life":300,"shape":{"type":"rectangle","width":3.0,"height":4.0,"orientation":0.0}},"visibleEntities":[],"wind":{"orientation":0.0,"strength":0.0}}
Next round input: {"ship":{"type":"ship","position":{"x":2185.3061761027725,"y":-227.86458333333408,"orientation":1.5882496193148399},"name":"les_gros_q","deck":{"width":3,"length":4},"entities":[{"x":0,"y":0,"type":"oar"},{"x":0,"y":2,"type":"oar"},{"x":1,"y":0,"type":"oar"},{"x":1,"y":2,"type":"oar"},{"x":2,"y":0,"type":"oar"},{"x":2,"y":2,"type":"oar"},{"x":3,"y":1,"type":"rudder"}],"life":300,"shape":{"type":"rectangle","width":3.0,"height":4.0,"orientation":0.0}},"visibleEntities":[],"wind":{"orientation":0.0,"strength":0.0}}
Next round input: {"ship":{"type":"ship","position":{"x":2185.3061761027725,"y":-227.86458333333408,"orientation":1.5882496193148399},"name":"les_gros_q","deck":{"width":3,"length":4},"entities":[{"x":0,"y":0,"type":"oar"},{"x":0,"y":2,"type":"oar"},{"x":1,"y":0,"type":"oar"},{"x":1,"y":2,"type":"oar"},{"x":2,"y":0,"type":"oar"},{"x":2,"y":2,"type":"oar"},{"x":3,"y":1,"type":"rudder"}],"life":300,"shape":{"type":"rectangle","width":3.0,"height":4.0,"orientation":0.0}},"visibleEntities":[],"wind":{"orientation":0.0,"strength":0.0}}
Next round input: {"ship":{"type":"ship","position":{"x":2185.3061761027725,"y":-227.86458333333408,"orientation":1.5882496193148399},"name":"les_gros_q","deck":{"width":3,"length":4},"entities":[{"x":0,"y":0,"type":"oar"},{"x":0,"y":2,"type":"oar"},{"x":1,"y":0,"type":"oar"},{"x":1,"y":2,"type":"oar"},{"x":2,"y":0,"type":"oar"},{"x":2,"y":2,"type":"oar"},{"x":3,"y":1,"type":"rudder"}],"life":300,"shape":{"type":"rectangle","width":3.0,"height":4.0,"orientation":0.0}},"visibleEntities":[],"wind":{"orientation":0.0,"strength":0.0}}
Next round input: {"ship":{"type":"ship","position":{"x":2185.3061761027725,"y":-227.86458333333408,"orientation":1.5882496193148399},"name":"les_gros_q","deck":{"width":3,"length":4},"entities":[{"x":0,"y":0,"type":"oar"},{"x":0,"y":2,"type":"oar"},{"x":1,"y":0,"type":"oar"},{"x":1,"y":2,"type":"oar"},{"x":2,"y":0,"type":"oar"},{"x":2,"y":2,"type":"oar"},{"x":3,"y":1,"type":"rudder"}],"life":300,"shape":{"type":"rectangle","width":3.0,"height":4.0,"orientation":0.0}},"visibleEntities":[],"wind":{"orientation":0.0,"strength":0.0}}
Next round input: {"ship":{"type":"ship","position":{"x":2185.3061761027725,"y":-227.86458333333408,"orientation":1.5882496193148399},"name":"les_gros_q","deck":{"width":3,"length":4},"entities":[{"x":0,"y":0,"type":"oar"},{"x":0,"y":2,"type":"oar"},{"x":1,"y":0,"type":"oar"},{"x":1,"y":2,"type":"oar"},{"x":2,"y":0,"type":"oar"},{"x":2,"y":2,"type":"oar"},{"x":3,"y":1,"type":"rudder"}],"life":300,"shape":{"type":"rectangle","width":3.0,"height":4.0,"orientation":0.0}},"visibleEntities":[],"wind":{"orientation":0.0,"strength":0.0}}
Next round input: {"ship":{"type":"ship","position":{"x":2185.3061761027725,"y":-227.86458333333408,"orientation":1.5882496193148399},"name":"les_gros_q","deck":{"width":3,"length":4},"entities":[{"x":0,"y":0,"type":"oar"},{"x":0,"y":2,"type":"oar"},{"x":1,"y":0,"type":"oar"},{"x":1,"y":2,"type":"oar"},{"x":2,"y":0,"type":"oar"},{"x":2,"y":2,"type":"oar"},{"x":3,"y":1,"type":"rudder"}],"life":300,"shape":{"type":"rectangle","width":3.0,"height":4.0,"orientation":0.0}},"visibleEntities":[],"wind":{"orientation":0.0,"strength":0.0}}
Next round input: {"ship":{"type":"ship","position":{"x":2185.3061761027725,"y":-227.86458333333408,"orientation":1.5882496193148399},"name":"les_gros_q","deck":{"width":3,"length":4},"entities":[{"x":0,"y":0,"type":"oar"},{"x":0,"y":2,"type":"oar"},{"x":1,"y":0,"type":"oar"},{"x":1,"y":2,"type":"oar"},{"x":2,"y":0,"type":"oar"},{"x":2,"y":2,"type":"oar"},{"x":3,"y":1,"type":"rudder"}],"life":300,"shape":{"type":"rectangle","width":3.0,"height":4.0,"orientation":0.0}},"visibleEntities":[],"wind":{"orientation":0.0,"strength":0.0}}
Next round input: {"ship":{"type":"ship","position":{"x":2185.3061761027725,"y":-227.86458333333408,"orientation":1.5882496193148399},"name":"les_gros_q","deck":{"width":3,"length":4},"entities":[{"x":0,"y":0,"type":"oar"},{"x":0,"y":2,"type":"oar"},{"x":1,"y":0,"type":"oar"},{"x":1,"y":2,"type":"oar"},{"x":2,"y":0,"type":"oar"},{"x":2,"y":2,"type":"oar"},{"x":3,"y":1,"type":"rudder"}],"life":300,"shape":{"type":"rectangle","width":3.0,"height":4.0,"orientation":0.0}},"visibleEntities":[],"wind":{"orientation":0.0,"strength":0.0}}
Next round input: {"ship":{"type":"ship","position":{"x":2185.3061761027725,"y":-227.86458333333408,"orientation":1.5882496193148399},"name":"les_gros_q","deck":{"width":3,"length":4},"entities":[{"x":0,"y":0,"type":"oar"},{"x":0,"y":2,"type":"oar"},{"x":1,"y":0,"type":"oar"},{"x":1,"y":2,"type":"oar"},{"x":2,"y":0,"type":"oar"},{"x":2,"y":2,"type":"oar"},{"x":3,"y":1,"type":"rudder"}],"life":300,"shape":{"type":"rectangle","width":3.0,"height":4.0,"orientation":0.0}},"visibleEntities":[],"wind":{"orientation":0.0,"strength":0.0}}
Next round input: {"ship":{"type":"ship","position":{"x":2185.3061761027725,"y":-227.86458333333408,"orientation":1.5882496193148399},"name":"les_gros_q","deck":{"width":3,"length":4},"entities":[{"x":0,"y":0,"type":"oar"},{"x":0,"y":2,"type":"oar"},{"x":1,"y":0,"type":"oar"},{"x":1,"y":2,"type":"oar"},{"x":2,"y":0,"type":"oar"},{"x":2,"y":2,"type":"oar"},{"x":3,"y":1,"type":"rudder"}],"life":300,"shape":{"type":"rectangle","width":3.0,"height":4.0,"orientation":0.0}},"visibleEntities":[],"wind":{"orientation":0.0,"strength":0.0}}
Next round input: {"ship":{"type":"ship","position":{"x":2185.3061761027725,"y":-227.86458333333408,"orientation":1.5882496193148399},"name":"les_gros_q","deck":{"width":3,"length":4},"entities":[{"x":0,"y":0,"type":"oar"},{"x":0,"y":2,"type":"oar"},{"x":1,"y":0,"type":"oar"},{"x":1,"y":2,"type":"oar"},{"x":2,"y":0,"type":"oar"},{"x":2,"y":2,"type":"oar"},{"x":3,"y":1,"type":"rudder"}],"life":300,"shape":{"type":"rectangle","width":3.0,"height":4.0,"orientation":0.0}},"visibleEntities":[],"wind":{"orientation":0.0,"strength":0.0}}
Next round input: {"ship":{"type":"ship","position":{"x":2185.3061761027725,"y":-227.86458333333408,"orientation":1.5882496193148399},"name":"les_gros_q","deck":{"width":3,"length":4},"entities":[{"x":0,"y":0,"type":"oar"},{"x":0,"y":2,"type":"oar"},{"x":1,"y":0,"type":"oar"},{"x":1,"y":2,"type":"oar"},{"x":2,"y":0,"type":"oar"},{"x":2,"y":2,"type":"oar"},{"x":3,"y":1,"type":"rudder"}],"life":300,"shape":{"type":"rectangle","width":3.0,"height":4.0,"orientation":0.0}},"visibleEntities":[],"wind":{"orientation":0.0,"strength":0.0}}
Next round input: {"ship":{"type":"ship","position":{"x":2185.3061761027725,"y":-227.86458333333408,"orientation":1.5882496193148399},"name":"les_gros_q","deck":{"width":3,"length":4},"entities":[{"x":0,"y":0,"type":"oar"},{"x":0,"y":2,"type":"oar"},{"x":1,"y":0,"type":"oar"},{"x":1,"y":2,"type":"oar"},{"x":2,"y":0,"type":"oar"},{"x":2,"y":2,"type":"oar"},{"x":3,"y":1,"type":"rudder"}],"life":300,"shape":{"type":"rectangle","width":3.0,"height":4.0,"orientation":0.0}},"visibleEntities":[],"wind":{"orientation":0.0,"strength":0.0}}
Next round input: {"ship":{"type":"ship","position":{"x":2185.3061761027725,"y":-227.86458333333408,"orientation":1.5882496193148399},"name":"les_gros_q","deck":{"width":3,"length":4},"entities":[{"x":0,"y":0,"type":"oar"},{"x":0,"y":2,"type":"oar"},{"x":1,"y":0,"type":"oar"},{"x":1,"y":2,"type":"oar"},{"x":2,"y":0,"type":"oar"},{"x":2,"y":2,"type":"oar"},{"x":3,"y":1,"type":"rudder"}],"life":300,"shape":{"type":"rectangle","width":3.0,"height":4.0,"orientation":0.0}},"visibleEntities":[],"wind":{"orientation":0.0,"strength":0.0}}
Next round input: {"ship":{"type":"ship","position":{"x":2185.3061761027725,"y":-227.86458333333408,"orientation":1.5882496193148399},"name":"les_gros_q","deck":{"width":3,"length":4},"entities":[{"x":0,"y":0,"type":"oar"},{"x":0,"y":2,"type":"oar"},{"x":1,"y":0,"type":"oar"},{"x":1,"y":2,"type":"oar"},{"x":2,"y":0,"type":"oar"},{"x":2,"y":2,"type":"oar"},{"x":3,"y":1,"type":"rudder"}],"life":300,"shape":{"type":"rectangle","width":3.0,"height":4.0,"orientation":0.0}},"visibleEntities":[],"wind":{"orientation":0.0,"strength":0.0}}
Next round input: {"ship":{"type":"ship","position":{"x":2185.3061761027725,"y":-227.86458333333408,"orientation":1.5882496193148399},"name":"les_gros_q","deck":{"width":3,"length":4},"entities":[{"x":0,"y":0,"type":"oar"},{"x":0,"y":2,"type":"oar"},{"x":1,"y":0,"type":"oar"},{"x":1,"y":2,"type":"oar"},{"x":2,"y":0,"type":"oar"},{"x":2,"y":2,"type":"oar"},{"x":3,"y":1,"type":"rudder"}],"life":300,"shape":{"type":"rectangle","width":3.0,"height":4.0,"orientation":0.0}},"visibleEntities":[],"wind":{"orientation":0.0,"strength":0.0}}
Next round input: {"ship":{"type":"ship","position":{"x":2185.3061761027725,"y":-227.86458333333408,"orientation":1.5882496193148399},"name":"les_gros_q","deck":{"width":3,"length":4},"entities":[{"x":0,"y":0,"type":"oar"},{"x":0,"y":2,"type":"oar"},{"x":1,"y":0,"type":"oar"},{"x":1,"y":2,"type":"oar"},{"x":2,"y":0,"type":"oar"},{"x":2,"y":2,"type":"oar"},{"x":3,"y":1,"type":"rudder"}],"life":300,"shape":{"type":"rectangle","width":3.0,"height":4.0,"orientation":0.0}},"visibleEntities":[],"wind":{"orientation":0.0,"strength":0.0}}
Next round input: {"ship":{"type":"ship","position":{"x":2185.3061761027725,"y":-227.86458333333408,"orientation":1.5882496193148399},"name":"les_gros_q","deck":{"width":3,"length":4},"entities":[{"x":0,"y":0,"type":"oar"},{"x":0,"y":2,"type":"oar"},{"x":1,"y":0,"type":"oar"},{"x":1,"y":2,"type":"oar"},{"x":2,"y":0,"type":"oar"},{"x":2,"y":2,"type":"oar"},{"x":3,"y":1,"type":"rudder"}],"life":300,"shape":{"type":"rectangle","width":3.0,"height":4.0,"orientation":0.0}},"visibleEntities":[],"wind":{"orientation":0.0,"strength":0.0}}
Next round input: {"ship":{"type":"ship","position":{"x":2185.3061761027725,"y":-227.86458333333408,"orientation":1.5882496193148399},"name":"les_gros_q","deck":{"width":3,"length":4},"entities":[{"x":0,"y":0,"type":"oar"},{"x":0,"y":2,"type":"oar"},{"x":1,"y":0,"type":"oar"},{"x":1,"y":2,"type":"oar"},{"x":2,"y":0,"type":"oar"},{"x":2,"y":2,"type":"oar"},{"x":3,"y":1,"type":"rudder"}],"life":300,"shape":{"type":"rectangle","width":3.0,"height":4.0,"orientation":0.0}},"visibleEntities":[],"wind":{"orientation":0.0,"strength":0.0}}
Next round input: {"ship":{"type":"ship","position":{"x":2185.3061761027725,"y":-227.86458333333408,"orientation":1.5882496193148399},"name":"les_gros_q","deck":{"width":3,"length":4},"entities":[{"x":0,"y":0,"type":"oar"},{"x":0,"y":2,"type":"oar"},{"x":1,"y":0,"type":"oar"},{"x":1,"y":2,"type":"oar"},{"x":2,"y":0,"type":"oar"},{"x":2,"y":2,"type":"oar"},{"x":3,"y":1,"type":"rudder"}],"life":300,"shape":{"type":"rectangle","width":3.0,"height":4.0,"orientation":0.0}},"visibleEntities":[],"wind":{"orientation":0.0,"strength":0.0}}
Next round input: {"ship":{"type":"ship","position":{"x":2185.3061761027725,"y":-227.86458333333408,"orientation":1.5882496193148399},"name":"les_gros_q","deck":{"width":3,"length":4},"entities":[{"x":0,"y":0,"type":"oar"},{"x":0,"y":2,"type":"oar"},{"x":1,"y":0,"type":"oar"},{"x":1,"y":2,"type":"oar"},{"x":2,"y":0,"type":"oar"},{"x":2,"y":2,"type":"oar"},{"x":3,"y":1,"type":"rudder"}],"life":300,"shape":{"type":"rectangle","width":3.0,"height":4.0,"orientation":0.0}},"visibleEntities":[],"wind":{"orientation":0.0,"strength":0.0}}
Next round input: {"ship":{"type":"ship","position":{"x":2185.3061761027725,"y":-227.86458333333408,"orientation":1.5882496193148399},"name":"les_gros_q","deck":{"width":3,"length":4},"entities":[{"x":0,"y":0,"type":"oar"},{"x":0,"y":2,"type":"oar"},{"x":1,"y":0,"type":"oar"},{"x":1,"y":2,"type":"oar"},{"x":2,"y":0,"type":"oar"},{"x":2,"y":2,"type":"oar"},{"x":3,"y":1,"type":"rudder"}],"life":300,"shape":{"type":"rectangle","width":3.0,"height":4.0,"orientation":0.0}},"visibleEntities":[],"wind":{"orientation":0.0,"strength":0.0}}
Next round input: {"ship":{"type":"ship","position":{"x":2185.3061761027725,"y":-227.86458333333408,"orientation":1.5882496193148399},"name":"les_gros_q","deck":{"width":3,"length":4},"entities":[{"x":0,"y":0,"type":"oar"},{"x":0,"y":2,"type":"oar"},{"x":1,"y":0,"type":"oar"},{"x":1,"y":2,"type":"oar"},{"x":2,"y":0,"type":"oar"},{"x":2,"y":2,"type":"oar"},{"x":3,"y":1,"type":"rudder"}],"life":300,"shape":{"type":"rectangle","width":3.0,"height":4.0,"orientation":0.0}},"visibleEntities":[],"wind":{"orientation":0.0,"strength":0.0}}
Next round input: {"ship":{"type":"ship","position":{"x":2185.3061761027725,"y":-227.86458333333408,"orientation":1.5882496193148399},"name":"les_gros_q","deck":{"width":3,"length":4},"entities":[{"x":0,"y":0,"type":"oar"},{"x":0,"y":2,"type":"oar"},{"x":1,"y":0,"type":"oar"},{"x":1,"y":2,"type":"oar"},{"x":2,"y":0,"type":"oar"},{"x":2,"y":2,"type":"oar"},{"x":3,"y":1,"type":"rudder"}],"life":300,"shape":{"type":"rectangle","width":3.0,"height":4.0,"orientation":0.0}},"visibleEntities":[],"wind":{"orientation":0.0,"strength":0.0}}
Next round input: {"ship":{"type":"ship","position":{"x":2185.3061761027725,"y":-227.86458333333408,"orientation":1.5882496193148399},"name":"les_gros_q","deck":{"width":3,"length":4},"entities":[{"x":0,"y":0,"type":"oar"},{"x":0,"y":2,"type":"oar"},{"x":1,"y":0,"type":"oar"},{"x":1,"y":2,"type":"oar"},{"x":2,"y":0,"type":"oar"},{"x":2,"y":2,"type":"oar"},{"x":3,"y":1,"type":"rudder"}],"life":300,"shape":{"type":"rectangle","width":3.0,"height":4.0,"orientation":0.0}},"visibleEntities":[],"wind":{"orientation":0.0,"strength":0.0}}
Next round input: {"ship":{"type":"ship","position":{"x":2185.3061761027725,"y":-227.86458333333408,"orientation":1.5882496193148399},"name":"les_gros_q","deck":{"width":3,"length":4},"entities":[{"x":0,"y":0,"type":"oar"},{"x":0,"y":2,"type":"oar"},{"x":1,"y":0,"type":"oar"},{"x":1,"y":2,"type":"oar"},{"x":2,"y":0,"type":"oar"},{"x":2,"y":2,"type":"oar"},{"x":3,"y":1,"type":"rudder"}],"life":300,"shape":{"type":"rectangle","width":3.0,"height":4.0,"orientation":0.0}},"visibleEntities":[],"wind":{"orientation":0.0,"strength":0.0}}
Next round input: {"ship":{"type":"ship","position":{"x":2185.3061761027725,"y":-227.86458333333408,"orientation":1.5882496193148399},"name":"les_gros_q","deck":{"width":3,"length":4},"entities":[{"x":0,"y":0,"type":"oar"},{"x":0,"y":2,"type":"oar"},{"x":1,"y":0,"type":"oar"},{"x":1,"y":2,"type":"oar"},{"x":2,"y":0,"type":"oar"},{"x":2,"y":2,"type":"oar"},{"x":3,"y":1,"type":"rudder"}],"life":300,"shape":{"type":"rectangle","width":3.0,"height":4.0,"orientation":0.0}},"visibleEntities":[],"wind":{"orientation":0.0,"strength":0.0}}
Next round input: {"ship":{"type":"ship","position":{"x":2185.3061761027725,"y":-227.86458333333408,"orientation":1.5882496193148399},"name":"les_gros_q","deck":{"width":3,"length":4},"entities":[{"x":0,"y":0,"type":"oar"},{"x":0,"y":2,"type":"oar"},{"x":1,"y":0,"type":"oar"},{"x":1,"y":2,"type":"oar"},{"x":2,"y":0,"type":"oar"},{"x":2,"y":2,"type":"oar"},{"x":3,"y":1,"type":"rudder"}],"life":300,"shape":{"type":"rectangle","width":3.0,"height":4.0,"orientation":0.0}},"visibleEntities":[],"wind":{"orientation":0.0,"strength":0.0}}
Next round input: {"ship":{"type":"ship","position":{"x":2185.3061761027725,"y":-227.86458333333408,"orientation":1.5882496193148399},"name":"les_gros_q","deck":{"width":3,"length":4},"entities":[{"x":0,"y":0,"type":"oar"},{"x":0,"y":2,"type":"oar"},{"x":1,"y":0,"type":"oar"},{"x":1,"y":2,"type":"oar"},{"x":2,"y":0,"type":"oar"},{"x":2,"y":2,"type":"oar"},{"x":3,"y":1,"type":"rudder"}],"life":300,"shape":{"type":"rectangle","width":3.0,"height":4.0,"orientation":0.0}},"visibleEntities":[],"wind":{"orientation":0.0,"strength":0.0}}
Next round input: {"ship":{"type":"ship","position":{"x":2185.3061761027725,"y":-227.86458333333408,"orientation":1.5882496193148399},"name":"les_gros_q","deck":{"width":3,"length":4},"entities":[{"x":0,"y":0,"type":"oar"},{"x":0,"y":2,"type":"oar"},{"x":1,"y":0,"type":"oar"},{"x":1,"y":2,"type":"oar"},{"x":2,"y":0,"type":"oar"},{"x":2,"y":2,"type":"oar"},{"x":3,"y":1,"type":"rudder"}],"life":300,"shape":{"type":"rectangle","width":3.0,"height":4.0,"orientation":0.0}},"visibleEntities":[],"wind":{"orientation":0.0,"strength":0.0}}
Next round input: {"ship":{"type":"ship","position":{"x":2185.3061761027725,"y":-227.86458333333408,"orientation":1.5882496193148399},"name":"les_gros_q","deck":{"width":3,"length":4},"entities":[{"x":0,"y":0,"type":"oar"},{"x":0,"y":2,"type":"oar"},{"x":1,"y":0,"type":"oar"},{"x":1,"y":2,"type":"oar"},{"x":2,"y":0,"type":"oar"},{"x":2,"y":2,"type":"oar"},{"x":3,"y":1,"type":"rudder"}],"life":300,"shape":{"type":"rectangle","width":3.0,"height":4.0,"orientation":0.0}},"visibleEntities":[],"wind":{"orientation":0.0,"strength":0.0}}
Next round input: {"ship":{"type":"ship","position":{"x":2185.3061761027725,"y":-227.86458333333408,"orientation":1.5882496193148399},"name":"les_gros_q","deck":{"width":3,"length":4},"entities":[{"x":0,"y":0,"type":"oar"},{"x":0,"y":2,"type":"oar"},{"x":1,"y":0,"type":"oar"},{"x":1,"y":2,"type":"oar"},{"x":2,"y":0,"type":"oar"},{"x":2,"y":2,"type":"oar"},{"x":3,"y":1,"type":"rudder"}],"life":300,"shape":{"type":"rectangle","width":3.0,"height":4.0,"orientation":0.0}},"visibleEntities":[],"wind":{"orientation":0.0,"strength":0.0}}
Next round input: {"ship":{"type":"ship","position":{"x":2185.3061761027725,"y":-227.86458333333408,"orientation":1.5882496193148399},"name":"les_gros_q","deck":{"width":3,"length":4},"entities":[{"x":0,"y":0,"type":"oar"},{"x":0,"y":2,"type":"oar"},{"x":1,"y":0,"type":"oar"},{"x":1,"y":2,"type":"oar"},{"x":2,"y":0,"type":"oar"},{"x":2,"y":2,"type":"oar"},{"x":3,"y":1,"type":"rudder"}],"life":300,"shape":{"type":"rectangle","width":3.0,"height":4.0,"orientation":0.0}},"visibleEntities":[],"wind":{"orientation":0.0,"strength":0.0}}
Next round input: {"ship":{"type":"ship","position":{"x":2185.3061761027725,"y":-227.86458333333408,"orientation":1.5882496193148399},"name":"les_gros_q","deck":{"width":3,"length":4},"entities":[{"x":0,"y":0,"type":"oar"},{"x":0,"y":2,"type":"oar"},{"x":1,"y":0,"type":"oar"},{"x":1,"y":2,"type":"oar"},{"x":2,"y":0,"type":"oar"},{"x":2,"y":2,"type":"oar"},{"x":3,"y":1,"type":"rudder"}],"life":300,"shape":{"type":"rectangle","width":3.0,"height":4.0,"orientation":0.0}},"visibleEntities":[],"wind":{"orientation":0.0,"strength":0.0}}
Next round input: {"ship":{"type":"ship","position":{"x":2185.3061761027725,"y":-227.86458333333408,"orientation":1.5882496193148399},"name":"les_gros_q","deck":{"width":3,"length":4},"entities":[{"x":0,"y":0,"type":"oar"},{"x":0,"y":2,"type":"oar"},{"x":1,"y":0,"type":"oar"},{"x":1,"y":2,"type":"oar"},{"x":2,"y":0,"type":"oar"},{"x":2,"y":2,"type":"oar"},{"x":3,"y":1,"type":"rudder"}],"life":300,"shape":{"type":"rectangle","width":3.0,"height":4.0,"orientation":0.0}},"visibleEntities":[],"wind":{"orientation":0.0,"strength":0.0}}
Next round input: {"ship":{"type":"ship","position":{"x":2185.3061761027725,"y":-227.86458333333408,"orientation":1.5882496193148399},"name":"les_gros_q","deck":{"width":3,"length":4},"entities":[{"x":0,"y":0,"type":"oar"},{"x":0,"y":2,"type":"oar"},{"x":1,"y":0,"type":"oar"},{"x":1,"y":2,"type":"oar"},{"x":2,"y":0,"type":"oar"},{"x":2,"y":2,"type":"oar"},{"x":3,"y":1,"type":"rudder"}],"life":300,"shape":{"type":"rectangle","width":3.0,"height":4.0,"orientation":0.0}},"visibleEntities":[],"wind":{"orientation":0.0,"strength":0.0}}
Next round input: {"ship":{"type":"ship","position":{"x":2185.3061761027725,"y":-227.86458333333408,"orientation":1.5882496193148399},"name":"les_gros_q","deck":{"width":3,"length":4},"entities":[{"x":0,"y":0,"type":"oar"},{"x":0,"y":2,"type":"oar"},{"x":1,"y":0,"type":"oar"},{"x":1,"y":2,"type":"oar"},{"x":2,"y":0,"type":"oar"},{"x":2,"y":2,"type":"oar"},{"x":3,"y":1,"type":"rudder"}],"life":300,"shape":{"type":"rectangle","width":3.0,"height":4.0,"orientation":0.0}},"visibleEntities":[],"wind":{"orientation":0.0,"strength":0.0}}
Next round input: {"ship":{"type":"ship","position":{"x":2185.3061761027725,"y":-227.86458333333408,"orientation":1.5882496193148399},"name":"les_gros_q","deck":{"width":3,"length":4},"entities":[{"x":0,"y":0,"type":"oar"},{"x":0,"y":2,"type":"oar"},{"x":1,"y":0,"type":"oar"},{"x":1,"y":2,"type":"oar"},{"x":2,"y":0,"type":"oar"},{"x":2,"y":2,"type":"oar"},{"x":3,"y":1,"type":"rudder"}],"life":300,"shape":{"type":"rectangle","width":3.0,"height":4.0,"orientation":0.0}},"visibleEntities":[],"wind":{"orientation":0.0,"strength":0.0}}
Next round input: {"ship":{"type":"ship","position":{"x":2185.3061761027725,"y":-227.86458333333408,"orientation":1.5882496193148399},"name":"les_gros_q","deck":{"width":3,"length":4},"entities":[{"x":0,"y":0,"type":"oar"},{"x":0,"y":2,"type":"oar"},{"x":1,"y":0,"type":"oar"},{"x":1,"y":2,"type":"oar"},{"x":2,"y":0,"type":"oar"},{"x":2,"y":2,"type":"oar"},{"x":3,"y":1,"type":"rudder"}],"life":300,"shape":{"type":"rectangle","width":3.0,"height":4.0,"orientation":0.0}},"visibleEntities":[],"wind":{"orientation":0.0,"strength":0.0}}
Next round input: {"ship":{"type":"ship","position":{"x":2185.3061761027725,"y":-227.86458333333408,"orientation":1.5882496193148399},"name":"les_gros_q","deck":{"width":3,"length":4},"entities":[{"x":0,"y":0,"type":"oar"},{"x":0,"y":2,"type":"oar"},{"x":1,"y":0,"type":"oar"},{"x":1,"y":2,"type":"oar"},{"x":2,"y":0,"type":"oar"},{"x":2,"y":2,"type":"oar"},{"x":3,"y":1,"type":"rudder"}],"life":300,"shape":{"type":"rectangle","width":3.0,"height":4.0,"orientation":0.0}},"visibleEntities":[],"wind":{"orientation":0.0,"strength":0.0}}
Next round input: {"ship":{"type":"ship","position":{"x":2185.3061761027725,"y":-227.86458333333408,"orientation":1.5882496193148399},"name":"les_gros_q","deck":{"width":3,"length":4},"entities":[{"x":0,"y":0,"type":"oar"},{"x":0,"y":2,"type":"oar"},{"x":1,"y":0,"type":"oar"},{"x":1,"y":2,"type":"oar"},{"x":2,"y":0,"type":"oar"},{"x":2,"y":2,"type":"oar"},{"x":3,"y":1,"type":"rudder"}],"life":300,"shape":{"type":"rectangle","width":3.0,"height":4.0,"orientation":0.0}},"visibleEntities":[],"wind":{"orientation":0.0,"strength":0.0}}
Next round input: {"ship":{"type":"ship","position":{"x":2185.3061761027725,"y":-227.86458333333408,"orientation":1.5882496193148399},"name":"les_gros_q","deck":{"width":3,"length":4},"entities":[{"x":0,"y":0,"type":"oar"},{"x":0,"y":2,"type":"oar"},{"x":1,"y":0,"type":"oar"},{"x":1,"y":2,"type":"oar"},{"x":2,"y":0,"type":"oar"},{"x":2,"y":2,"type":"oar"},{"x":3,"y":1,"type":"rudder"}],"life":300,"shape":{"type":"rectangle","width":3.0,"height":4.0,"orientation":0.0}},"visibleEntities":[],"wind":{"orientation":0.0,"strength":0.0}}
Next round input: {"ship":{"type":"ship","position":{"x":2185.3061761027725,"y":-227.86458333333408,"orientation":1.5882496193148399},"name":"les_gros_q","deck":{"width":3,"length":4},"entities":[{"x":0,"y":0,"type":"oar"},{"x":0,"y":2,"type":"oar"},{"x":1,"y":0,"type":"oar"},{"x":1,"y":2,"type":"oar"},{"x":2,"y":0,"type":"oar"},{"x":2,"y":2,"type":"oar"},{"x":3,"y":1,"type":"rudder"}],"life":300,"shape":{"type":"rectangle","width":3.0,"height":4.0,"orientation":0.0}},"visibleEntities":[],"wind":{"orientation":0.0,"strength":0.0}}
Next round input: {"ship":{"type":"ship","position":{"x":2185.3061761027725,"y":-227.86458333333408,"orientation":1.5882496193148399},"name":"les_gros_q","deck":{"width":3,"length":4},"entities":[{"x":0,"y":0,"type":"oar"},{"x":0,"y":2,"type":"oar"},{"x":1,"y":0,"type":"oar"},{"x":1,"y":2,"type":"oar"},{"x":2,"y":0,"type":"oar"},{"x":2,"y":2,"type":"oar"},{"x":3,"y":1,"type":"rudder"}],"life":300,"shape":{"type":"rectangle","width":3.0,"height":4.0,"orientation":0.0}},"visibleEntities":[],"wind":{"orientation":0.0,"strength":0.0}}
Next round input: {"ship":{"type":"ship","position":{"x":2185.3061761027725,"y":-227.86458333333408,"orientation":1.5882496193148399},"name":"les_gros_q","deck":{"width":3,"length":4},"entities":[{"x":0,"y":0,"type":"oar"},{"x":0,"y":2,"type":"oar"},{"x":1,"y":0,"type":"oar"},{"x":1,"y":2,"type":"oar"},{"x":2,"y":0,"type":"oar"},{"x":2,"y":2,"type":"oar"},{"x":3,"y":1,"type":"rudder"}],"life":300,"shape":{"type":"rectangle","width":3.0,"height":4.0,"orientation":0.0}},"visibleEntities":[],"wind":{"orientation":0.0,"strength":0.0}}
Next round input: {"ship":{"type":"ship","position":{"x":2185.3061761027725,"y":-227.86458333333408,"orientation":1.5882496193148399},"name":"les_gros_q","deck":{"width":3,"length":4},"entities":[{"x":0,"y":0,"type":"oar"},{"x":0,"y":2,"type":"oar"},{"x":1,"y":0,"type":"oar"},{"x":1,"y":2,"type":"oar"},{"x":2,"y":0,"type":"oar"},{"x":2,"y":2,"type":"oar"},{"x":3,"y":1,"type":"rudder"}],"life":300,"shape":{"type":"rectangle","width":3.0,"height":4.0,"orientation":0.0}},"visibleEntities":[],"wind":{"orientation":0.0,"strength":0.0}}
Next round input: {"ship":{"type":"ship","position":{"x":2185.3061761027725,"y":-227.86458333333408,"orientation":1.5882496193148399},"name":"les_gros_q","deck":{"width":3,"length":4},"entities":[{"x":0,"y":0,"type":"oar"},{"x":0,"y":2,"type":"oar"},{"x":1,"y":0,"type":"oar"},{"x":1,"y":2,"type":"oar"},{"x":2,"y":0,"type":"oar"},{"x":2,"y":2,"type":"oar"},{"x":3,"y":1,"type":"rudder"}],"life":300,"shape":{"type":"rectangle","width":3.0,"height":4.0,"orientation":0.0}},"visibleEntities":[],"wind":{"orientation":0.0,"strength":0.0}}
Next round input: {"ship":{"type":"ship","position":{"x":2185.3061761027725,"y":-227.86458333333408,"orientation":1.5882496193148399},"name":"les_gros_q","deck":{"width":3,"length":4},"entities":[{"x":0,"y":0,"type":"oar"},{"x":0,"y":2,"type":"oar"},{"x":1,"y":0,"type":"oar"},{"x":1,"y":2,"type":"oar"},{"x":2,"y":0,"type":"oar"},{"x":2,"y":2,"type":"oar"},{"x":3,"y":1,"type":"rudder"}],"life":300,"shape":{"type":"rectangle","width":3.0,"height":4.0,"orientation":0.0}},"visibleEntities":[],"wind":{"orientation":0.0,"strength":0.0}}
Next round input: {"ship":{"type":"ship","position":{"x":2185.3061761027725,"y":-227.86458333333408,"orientation":1.5882496193148399},"name":"les_gros_q","deck":{"width":3,"length":4},"entities":[{"x":0,"y":0,"type":"oar"},{"x":0,"y":2,"type":"oar"},{"x":1,"y":0,"type":"oar"},{"x":1,"y":2,"type":"oar"},{"x":2,"y":0,"type":"oar"},{"x":2,"y":2,"type":"oar"},{"x":3,"y":1,"type":"rudder"}],"life":300,"shape":{"type":"rectangle","width":3.0,"height":4.0,"orientation":0.0}},"visibleEntities":[],"wind":{"orientation":0.0,"strength":0.0}}
Next round input: {"ship":{"type":"ship","position":{"x":2185.3061761027725,"y":-227.86458333333408,"orientation":1.5882496193148399},"name":"les_gros_q","deck":{"width":3,"length":4},"entities":[{"x":0,"y":0,"type":"oar"},{"x":0,"y":2,"type":"oar"},{"x":1,"y":0,"type":"oar"},{"x":1,"y":2,"type":"oar"},{"x":2,"y":0,"type":"oar"},{"x":2,"y":2,"type":"oar"},{"x":3,"y":1,"type":"rudder"}],"life":300,"shape":{"type":"rectangle","width":3.0,"height":4.0,"orientation":0.0}},"visibleEntities":[],"wind":{"orientation":0.0,"strength":0.0}}
Next round input: {"ship":{"type":"ship","position":{"x":2185.3061761027725,"y":-227.86458333333408,"orientation":1.5882496193148399},"name":"les_gros_q","deck":{"width":3,"length":4},"entities":[{"x":0,"y":0,"type":"oar"},{"x":0,"y":2,"type":"oar"},{"x":1,"y":0,"type":"oar"},{"x":1,"y":2,"type":"oar"},{"x":2,"y":0,"type":"oar"},{"x":2,"y":2,"type":"oar"},{"x":3,"y":1,"type":"rudder"}],"life":300,"shape":{"type":"rectangle","width":3.0,"height":4.0,"orientation":0.0}},"visibleEntities":[],"wind":{"orientation":0.0,"strength":0.0}}
Next round input: {"ship":{"type":"ship","position":{"x":2185.3061761027725,"y":-227.86458333333408,"orientation":1.5882496193148399},"name":"les_gros_q","deck":{"width":3,"length":4},"entities":[{"x":0,"y":0,"type":"oar"},{"x":0,"y":2,"type":"oar"},{"x":1,"y":0,"type":"oar"},{"x":1,"y":2,"type":"oar"},{"x":2,"y":0,"type":"oar"},{"x":2,"y":2,"type":"oar"},{"x":3,"y":1,"type":"rudder"}],"life":300,"shape":{"type":"rectangle","width":3.0,"height":4.0,"orientation":0.0}},"visibleEntities":[],"wind":{"orientation":0.0,"strength":0.0}}
Next round input: {"ship":{"type":"ship","position":{"x":2185.3061761027725,"y":-227.86458333333408,"orientation":1.5882496193148399},"name":"les_gros_q","deck":{"width":3,"length":4},"entities":[{"x":0,"y":0,"type":"oar"},{"x":0,"y":2,"type":"oar"},{"x":1,"y":0,"type":"oar"},{"x":1,"y":2,"type":"oar"},{"x":2,"y":0,"type":"oar"},{"x":2,"y":2,"type":"oar"},{"x":3,"y":1,"type":"rudder"}],"life":300,"shape":{"type":"rectangle","width":3.0,"height":4.0,"orientation":0.0}},"visibleEntities":[],"wind":{"orientation":0.0,"strength":0.0}}
Next round input: {"ship":{"type":"ship","position":{"x":2185.3061761027725,"y":-227.86458333333408,"orientation":1.5882496193148399},"name":"les_gros_q","deck":{"width":3,"length":4},"entities":[{"x":0,"y":0,"type":"oar"},{"x":0,"y":2,"type":"oar"},{"x":1,"y":0,"type":"oar"},{"x":1,"y":2,"type":"oar"},{"x":2,"y":0,"type":"oar"},{"x":2,"y":2,"type":"oar"},{"x":3,"y":1,"type":"rudder"}],"life":300,"shape":{"type":"rectangle","width":3.0,"height":4.0,"orientation":0.0}},"visibleEntities":[],"wind":{"orientation":0.0,"strength":0.0}}
Next round input: {"ship":{"type":"ship","position":{"x":2185.3061761027725,"y":-227.86458333333408,"orientation":1.5882496193148399},"name":"les_gros_q","deck":{"width":3,"length":4},"entities":[{"x":0,"y":0,"type":"oar"},{"x":0,"y":2,"type":"oar"},{"x":1,"y":0,"type":"oar"},{"x":1,"y":2,"type":"oar"},{"x":2,"y":0,"type":"oar"},{"x":2,"y":2,"type":"oar"},{"x":3,"y":1,"type":"rudder"}],"life":300,"shape":{"type":"rectangle","width":3.0,"height":4.0,"orientation":0.0}},"visibleEntities":[],"wind":{"orientation":0.0,"strength":0.0}}
Next round input: {"ship":{"type":"ship","position":{"x":2185.3061761027725,"y":-227.86458333333408,"orientation":1.5882496193148399},"name":"les_gros_q","deck":{"width":3,"length":4},"entities":[{"x":0,"y":0,"type":"oar"},{"x":0,"y":2,"type":"oar"},{"x":1,"y":0,"type":"oar"},{"x":1,"y":2,"type":"oar"},{"x":2,"y":0,"type":"oar"},{"x":2,"y":2,"type":"oar"},{"x":3,"y":1,"type":"rudder"}],"life":300,"shape":{"type":"rectangle","width":3.0,"height":4.0,"orientation":0.0}},"visibleEntities":[],"wind":{"orientation":0.0,"strength":0.0}}
Next round input: {"ship":{"type":"ship","position":{"x":2185.3061761027725,"y":-227.86458333333408,"orientation":1.5882496193148399},"name":"les_gros_q","deck":{"width":3,"length":4},"entities":[{"x":0,"y":0,"type":"oar"},{"x":0,"y":2,"type":"oar"},{"x":1,"y":0,"type":"oar"},{"x":1,"y":2,"type":"oar"},{"x":2,"y":0,"type":"oar"},{"x":2,"y":2,"type":"oar"},{"x":3,"y":1,"type":"rudder"}],"life":300,"shape":{"type":"rectangle","width":3.0,"height":4.0,"orientation":0.0}},"visibleEntities":[],"wind":{"orientation":0.0,"strength":0.0}}
Next round input: {"ship":{"type":"ship","position":{"x":2185.3061761027725,"y":-227.86458333333408,"orientation":1.5882496193148399},"name":"les_gros_q","deck":{"width":3,"length":4},"entities":[{"x":0,"y":0,"type":"oar"},{"x":0,"y":2,"type":"oar"},{"x":1,"y":0,"type":"oar"},{"x":1,"y":2,"type":"oar"},{"x":2,"y":0,"type":"oar"},{"x":2,"y":2,"type":"oar"},{"x":3,"y":1,"type":"rudder"}],"life":300,"shape":{"type":"rectangle","width":3.0,"height":4.0,"orientation":0.0}},"visibleEntities":[],"wind":{"orientation":0.0,"strength":0.0}}
Next round input: {"ship":{"type":"ship","position":{"x":2185.3061761027725,"y":-227.86458333333408,"orientation":1.5882496193148399},"name":"les_gros_q","deck":{"width":3,"length":4},"entities":[{"x":0,"y":0,"type":"oar"},{"x":0,"y":2,"type":"oar"},{"x":1,"y":0,"type":"oar"},{"x":1,"y":2,"type":"oar"},{"x":2,"y":0,"type":"oar"},{"x":2,"y":2,"type":"oar"},{"x":3,"y":1,"type":"rudder"}],"life":300,"shape":{"type":"rectangle","width":3.0,"height":4.0,"orientation":0.0}},"visibleEntities":[],"wind":{"orientation":0.0,"strength":0.0}}
Next round input: {"ship":{"type":"ship","position":{"x":2185.3061761027725,"y":-227.86458333333408,"orientation":1.5882496193148399},"name":"les_gros_q","deck":{"width":3,"length":4},"entities":[{"x":0,"y":0,"type":"oar"},{"x":0,"y":2,"type":"oar"},{"x":1,"y":0,"type":"oar"},{"x":1,"y":2,"type":"oar"},{"x":2,"y":0,"type":"oar"},{"x":2,"y":2,"type":"oar"},{"x":3,"y":1,"type":"rudder"}],"life":300,"shape":{"type":"rectangle","width":3.0,"height":4.0,"orientation":0.0}},"visibleEntities":[],"wind":{"orientation":0.0,"strength":0.0}}
Next round input: {"ship":{"type":"ship","position":{"x":2185.3061761027725,"y":-227.86458333333408,"orientation":1.5882496193148399},"name":"les_gros_q","deck":{"width":3,"length":4},"entities":[{"x":0,"y":0,"type":"oar"},{"x":0,"y":2,"type":"oar"},{"x":1,"y":0,"type":"oar"},{"x":1,"y":2,"type":"oar"},{"x":2,"y":0,"type":"oar"},{"x":2,"y":2,"type":"oar"},{"x":3,"y":1,"type":"rudder"}],"life":300,"shape":{"type":"rectangle","width":3.0,"height":4.0,"orientation":0.0}},"visibleEntities":[],"wind":{"orientation":0.0,"strength":0.0}}
Next round input: {"ship":{"type":"ship","position":{"x":2185.3061761027725,"y":-227.86458333333408,"orientation":1.5882496193148399},"name":"les_gros_q","deck":{"width":3,"length":4},"entities":[{"x":0,"y":0,"type":"oar"},{"x":0,"y":2,"type":"oar"},{"x":1,"y":0,"type":"oar"},{"x":1,"y":2,"type":"oar"},{"x":2,"y":0,"type":"oar"},{"x":2,"y":2,"type":"oar"},{"x":3,"y":1,"type":"rudder"}],"life":300,"shape":{"type":"rectangle","width":3.0,"height":4.0,"orientation":0.0}},"visibleEntities":[],"wind":{"orientation":0.0,"strength":0.0}}
Next round input: {"ship":{"type":"ship","position":{"x":2185.3061761027725,"y":-227.86458333333408,"orientation":1.5882496193148399},"name":"les_gros_q","deck":{"width":3,"length":4},"entities":[{"x":0,"y":0,"type":"oar"},{"x":0,"y":2,"type":"oar"},{"x":1,"y":0,"type":"oar"},{"x":1,"y":2,"type":"oar"},{"x":2,"y":0,"type":"oar"},{"x":2,"y":2,"type":"oar"},{"x":3,"y":1,"type":"rudder"}],"life":300,"shape":{"type":"rectangle","width":3.0,"height":4.0,"orientation":0.0}},"visibleEntities":[],"wind":{"orientation":0.0,"strength":0.0}}
Next round input: {"ship":{"type":"ship","position":{"x":2185.3061761027725,"y":-227.86458333333408,"orientation":1.5882496193148399},"name":"les_gros_q","deck":{"width":3,"length":4},"entities":[{"x":0,"y":0,"type":"oar"},{"x":0,"y":2,"type":"oar"},{"x":1,"y":0,"type":"oar"},{"x":1,"y":2,"type":"oar"},{"x":2,"y":0,"type":"oar"},{"x":2,"y":2,"type":"oar"},{"x":3,"y":1,"type":"rudder"}],"life":300,"shape":{"type":"rectangle","width":3.0,"height":4.0,"orientation":0.0}},"visibleEntities":[],"wind":{"orientation":0.0,"strength":0.0}}
Next round input: {"ship":{"type":"ship","position":{"x":2185.3061761027725,"y":-227.86458333333408,"orientation":1.5882496193148399},"name":"les_gros_q","deck":{"width":3,"length":4},"entities":[{"x":0,"y":0,"type":"oar"},{"x":0,"y":2,"type":"oar"},{"x":1,"y":0,"type":"oar"},{"x":1,"y":2,"type":"oar"},{"x":2,"y":0,"type":"oar"},{"x":2,"y":2,"type":"oar"},{"x":3,"y":1,"type":"rudder"}],"life":300,"shape":{"type":"rectangle","width":3.0,"height":4.0,"orientation":0.0}},"visibleEntities":[],"wind":{"orientation":0.0,"strength":0.0}}
Next round input: {"ship":{"type":"ship","position":{"x":2185.3061761027725,"y":-227.86458333333408,"orientation":1.5882496193148399},"name":"les_gros_q","deck":{"width":3,"length":4},"entities":[{"x":0,"y":0,"type":"oar"},{"x":0,"y":2,"type":"oar"},{"x":1,"y":0,"type":"oar"},{"x":1,"y":2,"type":"oar"},{"x":2,"y":0,"type":"oar"},{"x":2,"y":2,"type":"oar"},{"x":3,"y":1,"type":"rudder"}],"life":300,"shape":{"type":"rectangle","width":3.0,"height":4.0,"orientation":0.0}},"visibleEntities":[],"wind":{"orientation":0.0,"strength":0.0}}
Next round input: {"ship":{"type":"ship","position":{"x":2185.3061761027725,"y":-227.86458333333408,"orientation":1.5882496193148399},"name":"les_gros_q","deck":{"width":3,"length":4},"entities":[{"x":0,"y":0,"type":"oar"},{"x":0,"y":2,"type":"oar"},{"x":1,"y":0,"type":"oar"},{"x":1,"y":2,"type":"oar"},{"x":2,"y":0,"type":"oar"},{"x":2,"y":2,"type":"oar"},{"x":3,"y":1,"type":"rudder"}],"life":300,"shape":{"type":"rectangle","width":3.0,"height":4.0,"orientation":0.0}},"visibleEntities":[],"wind":{"orientation":0.0,"strength":0.0}}
Next round input: {"ship":{"type":"ship","position":{"x":2185.3061761027725,"y":-227.86458333333408,"orientation":1.5882496193148399},"name":"les_gros_q","deck":{"width":3,"length":4},"entities":[{"x":0,"y":0,"type":"oar"},{"x":0,"y":2,"type":"oar"},{"x":1,"y":0,"type":"oar"},{"x":1,"y":2,"type":"oar"},{"x":2,"y":0,"type":"oar"},{"x":2,"y":2,"type":"oar"},{"x":3,"y":1,"type":"rudder"}],"life":300,"shape":{"type":"rectangle","width":3.0,"height":4.0,"orientation":0.0}},"visibleEntities":[],"wind":{"orientation":0.0,"strength":0.0}}
Next round input: {"ship":{"type":"ship","position":{"x":2185.3061761027725,"y":-227.86458333333408,"orientation":1.5882496193148399},"name":"les_gros_q","deck":{"width":3,"length":4},"entities":[{"x":0,"y":0,"type":"oar"},{"x":0,"y":2,"type":"oar"},{"x":1,"y":0,"type":"oar"},{"x":1,"y":2,"type":"oar"},{"x":2,"y":0,"type":"oar"},{"x":2,"y":2,"type":"oar"},{"x":3,"y":1,"type":"rudder"}],"life":300,"shape":{"type":"rectangle","width":3.0,"height":4.0,"orientation":0.0}},"visibleEntities":[],"wind":{"orientation":0.0,"strength":0.0}}
Next round input: {"ship":{"type":"ship","position":{"x":2185.3061761027725,"y":-227.86458333333408,"orientation":1.5882496193148399},"name":"les_gros_q","deck":{"width":3,"length":4},"entities":[{"x":0,"y":0,"type":"oar"},{"x":0,"y":2,"type":"oar"},{"x":1,"y":0,"type":"oar"},{"x":1,"y":2,"type":"oar"},{"x":2,"y":0,"type":"oar"},{"x":2,"y":2,"type":"oar"},{"x":3,"y":1,"type":"rudder"}],"life":300,"shape":{"type":"rectangle","width":3.0,"height":4.0,"orientation":0.0}},"visibleEntities":[],"wind":{"orientation":0.0,"strength":0.0}}
Next round input: {"ship":{"type":"ship","position":{"x":2185.3061761027725,"y":-227.86458333333408,"orientation":1.5882496193148399},"name":"les_gros_q","deck":{"width":3,"length":4},"entities":[{"x":0,"y":0,"type":"oar"},{"x":0,"y":2,"type":"oar"},{"x":1,"y":0,"type":"oar"},{"x":1,"y":2,"type":"oar"},{"x":2,"y":0,"type":"oar"},{"x":2,"y":2,"type":"oar"},{"x":3,"y":1,"type":"rudder"}],"life":300,"shape":{"type":"rectangle","width":3.0,"height":4.0,"orientation":0.0}},"visibleEntities":[],"wind":{"orientation":0.0,"strength":0.0}}
Next round input: {"ship":{"type":"ship","position":{"x":2185.3061761027725,"y":-227.86458333333408,"orientation":1.5882496193148399},"name":"les_gros_q","deck":{"width":3,"length":4},"entities":[{"x":0,"y":0,"type":"oar"},{"x":0,"y":2,"type":"oar"},{"x":1,"y":0,"type":"oar"},{"x":1,"y":2,"type":"oar"},{"x":2,"y":0,"type":"oar"},{"x":2,"y":2,"type":"oar"},{"x":3,"y":1,"type":"rudder"}],"life":300,"shape":{"type":"rectangle","width":3.0,"height":4.0,"orientation":0.0}},"visibleEntities":[],"wind":{"orientation":0.0,"strength":0.0}}
Next round input: {"ship":{"type":"ship","position":{"x":2185.3061761027725,"y":-227.86458333333408,"orientation":1.5882496193148399},"name":"les_gros_q","deck":{"width":3,"length":4},"entities":[{"x":0,"y":0,"type":"oar"},{"x":0,"y":2,"type":"oar"},{"x":1,"y":0,"type":"oar"},{"x":1,"y":2,"type":"oar"},{"x":2,"y":0,"type":"oar"},{"x":2,"y":2,"type":"oar"},{"x":3,"y":1,"type":"rudder"}],"life":300,"shape":{"type":"rectangle","width":3.0,"height":4.0,"orientation":0.0}},"visibleEntities":[],"wind":{"orientation":0.0,"strength":0.0}}
Next round input: {"ship":{"type":"ship","position":{"x":2185.3061761027725,"y":-227.86458333333408,"orientation":1.5882496193148399},"name":"les_gros_q","deck":{"width":3,"length":4},"entities":[{"x":0,"y":0,"type":"oar"},{"x":0,"y":2,"type":"oar"},{"x":1,"y":0,"type":"oar"},{"x":1,"y":2,"type":"oar"},{"x":2,"y":0,"type":"oar"},{"x":2,"y":2,"type":"oar"},{"x":3,"y":1,"type":"rudder"}],"life":300,"shape":{"type":"rectangle","width":3.0,"height":4.0,"orientation":0.0}},"visibleEntities":[],"wind":{"orientation":0.0,"strength":0.0}}
Next round input: {"ship":{"type":"ship","position":{"x":2185.3061761027725,"y":-227.86458333333408,"orientation":1.5882496193148399},"name":"les_gros_q","deck":{"width":3,"length":4},"entities":[{"x":0,"y":0,"type":"oar"},{"x":0,"y":2,"type":"oar"},{"x":1,"y":0,"type":"oar"},{"x":1,"y":2,"type":"oar"},{"x":2,"y":0,"type":"oar"},{"x":2,"y":2,"type":"oar"},{"x":3,"y":1,"type":"rudder"}],"life":300,"shape":{"type":"rectangle","width":3.0,"height":4.0,"orientation":0.0}},"visibleEntities":[],"wind":{"orientation":0.0,"strength":0.0}}
Next round input: {"ship":{"type":"ship","position":{"x":2185.3061761027725,"y":-227.86458333333408,"orientation":1.5882496193148399},"name":"les_gros_q","deck":{"width":3,"length":4},"entities":[{"x":0,"y":0,"type":"oar"},{"x":0,"y":2,"type":"oar"},{"x":1,"y":0,"type":"oar"},{"x":1,"y":2,"type":"oar"},{"x":2,"y":0,"type":"oar"},{"x":2,"y":2,"type":"oar"},{"x":3,"y":1,"type":"rudder"}],"life":300,"shape":{"type":"rectangle","width":3.0,"height":4.0,"orientation":0.0}},"visibleEntities":[],"wind":{"orientation":0.0,"strength":0.0}}
Next round input: {"ship":{"type":"ship","position":{"x":2185.3061761027725,"y":-227.86458333333408,"orientation":1.5882496193148399},"name":"les_gros_q","deck":{"width":3,"length":4},"entities":[{"x":0,"y":0,"type":"oar"},{"x":0,"y":2,"type":"oar"},{"x":1,"y":0,"type":"oar"},{"x":1,"y":2,"type":"oar"},{"x":2,"y":0,"type":"oar"},{"x":2,"y":2,"type":"oar"},{"x":3,"y":1,"type":"rudder"}],"life":300,"shape":{"type":"rectangle","width":3.0,"height":4.0,"orientation":0.0}},"visibleEntities":[],"wind":{"orientation":0.0,"strength":0.0}}
Next round input: {"ship":{"type":"ship","position":{"x":2185.3061761027725,"y":-227.86458333333408,"orientation":1.5882496193148399},"name":"les_gros_q","deck":{"width":3,"length":4},"entities":[{"x":0,"y":0,"type":"oar"},{"x":0,"y":2,"type":"oar"},{"x":1,"y":0,"type":"oar"},{"x":1,"y":2,"type":"oar"},{"x":2,"y":0,"type":"oar"},{"x":2,"y":2,"type":"oar"},{"x":3,"y":1,"type":"rudder"}],"life":300,"shape":{"type":"rectangle","width":3.0,"height":4.0,"orientation":0.0}},"visibleEntities":[],"wind":{"orientation":0.0,"strength":0.0}}
Next round input: {"ship":{"type":"ship","position":{"x":2185.3061761027725,"y":-227.86458333333408,"orientation":1.5882496193148399},"name":"les_gros_q","deck":{"width":3,"length":4},"entities":[{"x":0,"y":0,"type":"oar"},{"x":0,"y":2,"type":"oar"},{"x":1,"y":0,"type":"oar"},{"x":1,"y":2,"type":"oar"},{"x":2,"y":0,"type":"oar"},{"x":2,"y":2,"type":"oar"},{"x":3,"y":1,"type":"rudder"}],"life":300,"shape":{"type":"rectangle","width":3.0,"height":4.0,"orientation":0.0}},"visibleEntities":[],"wind":{"orientation":0.0,"strength":0.0}}
Next round input: {"ship":{"type":"ship","position":{"x":2185.3061761027725,"y":-227.86458333333408,"orientation":1.5882496193148399},"name":"les_gros_q","deck":{"width":3,"length":4},"entities":[{"x":0,"y":0,"type":"oar"},{"x":0,"y":2,"type":"oar"},{"x":1,"y":0,"type":"oar"},{"x":1,"y":2,"type":"oar"},{"x":2,"y":0,"type":"oar"},{"x":2,"y":2,"type":"oar"},{"x":3,"y":1,"type":"rudder"}],"life":300,"shape":{"type":"rectangle","width":3.0,"height":4.0,"orientation":0.0}},"visibleEntities":[],"wind":{"orientation":0.0,"strength":0.0}}
Next round input: {"ship":{"type":"ship","position":{"x":2185.3061761027725,"y":-227.86458333333408,"orientation":1.5882496193148399},"name":"les_gros_q","deck":{"width":3,"length":4},"entities":[{"x":0,"y":0,"type":"oar"},{"x":0,"y":2,"type":"oar"},{"x":1,"y":0,"type":"oar"},{"x":1,"y":2,"type":"oar"},{"x":2,"y":0,"type":"oar"},{"x":2,"y":2,"type":"oar"},{"x":3,"y":1,"type":"rudder"}],"life":300,"shape":{"type":"rectangle","width":3.0,"height":4.0,"orientation":0.0}},"visibleEntities":[],"wind":{"orientation":0.0,"strength":0.0}}
Next round input: {"ship":{"type":"ship","position":{"x":2185.3061761027725,"y":-227.86458333333408,"orientation":1.5882496193148399},"name":"les_gros_q","deck":{"width":3,"length":4},"entities":[{"x":0,"y":0,"type":"oar"},{"x":0,"y":2,"type":"oar"},{"x":1,"y":0,"type":"oar"},{"x":1,"y":2,"type":"oar"},{"x":2,"y":0,"type":"oar"},{"x":2,"y":2,"type":"oar"},{"x":3,"y":1,"type":"rudder"}],"life":300,"shape":{"type":"rectangle","width":3.0,"height":4.0,"orientation":0.0}},"visibleEntities":[],"wind":{"orientation":0.0,"strength":0.0}}
Next round input: {"ship":{"type":"ship","position":{"x":2185.3061761027725,"y":-227.86458333333408,"orientation":1.5882496193148399},"name":"les_gros_q","deck":{"width":3,"length":4},"entities":[{"x":0,"y":0,"type":"oar"},{"x":0,"y":2,"type":"oar"},{"x":1,"y":0,"type":"oar"},{"x":1,"y":2,"type":"oar"},{"x":2,"y":0,"type":"oar"},{"x":2,"y":2,"type":"oar"},{"x":3,"y":1,"type":"rudder"}],"life":300,"shape":{"type":"rectangle","width":3.0,"height":4.0,"orientation":0.0}},"visibleEntities":[],"wind":{"orientation":0.0,"strength":0.0}}
Next round input: {"ship":{"type":"ship","position":{"x":2185.3061761027725,"y":-227.86458333333408,"orientation":1.5882496193148399},"name":"les_gros_q","deck":{"width":3,"length":4},"entities":[{"x":0,"y":0,"type":"oar"},{"x":0,"y":2,"type":"oar"},{"x":1,"y":0,"type":"oar"},{"x":1,"y":2,"type":"oar"},{"x":2,"y":0,"type":"oar"},{"x":2,"y":2,"type":"oar"},{"x":3,"y":1,"type":"rudder"}],"life":300,"shape":{"type":"rectangle","width":3.0,"height":4.0,"orientation":0.0}},"visibleEntities":[],"wind":{"orientation":0.0,"strength":0.0}}
Next round input: {"ship":{"type":"ship","position":{"x":2185.3061761027725,"y":-227.86458333333408,"orientation":1.5882496193148399},"name":"les_gros_q","deck":{"width":3,"length":4},"entities":[{"x":0,"y":0,"type":"oar"},{"x":0,"y":2,"type":"oar"},{"x":1,"y":0,"type":"oar"},{"x":1,"y":2,"type":"oar"},{"x":2,"y":0,"type":"oar"},{"x":2,"y":2,"type":"oar"},{"x":3,"y":1,"type":"rudder"}],"life":300,"shape":{"type":"rectangle","width":3.0,"height":4.0,"orientation":0.0}},"visibleEntities":[],"wind":{"orientation":0.0,"strength":0.0}}
Next round input: {"ship":{"type":"ship","position":{"x":2185.3061761027725,"y":-227.86458333333408,"orientation":1.5882496193148399},"name":"les_gros_q","deck":{"width":3,"length":4},"entities":[{"x":0,"y":0,"type":"oar"},{"x":0,"y":2,"type":"oar"},{"x":1,"y":0,"type":"oar"},{"x":1,"y":2,"type":"oar"},{"x":2,"y":0,"type":"oar"},{"x":2,"y":2,"type":"oar"},{"x":3,"y":1,"type":"rudder"}],"life":300,"shape":{"type":"rectangle","width":3.0,"height":4.0,"orientation":0.0}},"visibleEntities":[],"wind":{"orientation":0.0,"strength":0.0}}
Next round input: {"ship":{"type":"ship","position":{"x":2185.3061761027725,"y":-227.86458333333408,"orientation":1.5882496193148399},"name":"les_gros_q","deck":{"width":3,"length":4},"entities":[{"x":0,"y":0,"type":"oar"},{"x":0,"y":2,"type":"oar"},{"x":1,"y":0,"type":"oar"},{"x":1,"y":2,"type":"oar"},{"x":2,"y":0,"type":"oar"},{"x":2,"y":2,"type":"oar"},{"x":3,"y":1,"type":"rudder"}],"life":300,"shape":{"type":"rectangle","width":3.0,"height":4.0,"orientation":0.0}},"visibleEntities":[],"wind":{"orientation":0.0,"strength":0.0}}
Next round input: {"ship":{"type":"ship","position":{"x":2185.3061761027725,"y":-227.86458333333408,"orientation":1.5882496193148399},"name":"les_gros_q","deck":{"width":3,"length":4},"entities":[{"x":0,"y":0,"type":"oar"},{"x":0,"y":2,"type":"oar"},{"x":1,"y":0,"type":"oar"},{"x":1,"y":2,"type":"oar"},{"x":2,"y":0,"type":"oar"},{"x":2,"y":2,"type":"oar"},{"x":3,"y":1,"type":"rudder"}],"life":300,"shape":{"type":"rectangle","width":3.0,"height":4.0,"orientation":0.0}},"visibleEntities":[],"wind":{"orientation":0.0,"strength":0.0}}
Next round input: {"ship":{"type":"ship","position":{"x":2185.3061761027725,"y":-227.86458333333408,"orientation":1.5882496193148399},"name":"les_gros_q","deck":{"width":3,"length":4},"entities":[{"x":0,"y":0,"type":"oar"},{"x":0,"y":2,"type":"oar"},{"x":1,"y":0,"type":"oar"},{"x":1,"y":2,"type":"oar"},{"x":2,"y":0,"type":"oar"},{"x":2,"y":2,"type":"oar"},{"x":3,"y":1,"type":"rudder"}],"life":300,"shape":{"type":"rectangle","width":3.0,"height":4.0,"orientation":0.0}},"visibleEntities":[],"wind":{"orientation":0.0,"strength":0.0}}
Next round input: {"ship":{"type":"ship","position":{"x":2185.3061761027725,"y":-227.86458333333408,"orientation":1.5882496193148399},"name":"les_gros_q","deck":{"width":3,"length":4},"entities":[{"x":0,"y":0,"type":"oar"},{"x":0,"y":2,"type":"oar"},{"x":1,"y":0,"type":"oar"},{"x":1,"y":2,"type":"oar"},{"x":2,"y":0,"type":"oar"},{"x":2,"y":2,"type":"oar"},{"x":3,"y":1,"type":"rudder"}],"life":300,"shape":{"type":"rectangle","width":3.0,"height":4.0,"orientation":0.0}},"visibleEntities":[],"wind":{"orientation":0.0,"strength":0.0}}
Next round input: {"ship":{"type":"ship","position":{"x":2185.3061761027725,"y":-227.86458333333408,"orientation":1.5882496193148399},"name":"les_gros_q","deck":{"width":3,"length":4},"entities":[{"x":0,"y":0,"type":"oar"},{"x":0,"y":2,"type":"oar"},{"x":1,"y":0,"type":"oar"},{"x":1,"y":2,"type":"oar"},{"x":2,"y":0,"type":"oar"},{"x":2,"y":2,"type":"oar"},{"x":3,"y":1,"type":"rudder"}],"life":300,"shape":{"type":"rectangle","width":3.0,"height":4.0,"orientation":0.0}},"visibleEntities":[],"wind":{"orientation":0.0,"strength":0.0}}
Next round input: {"ship":{"type":"ship","position":{"x":2185.3061761027725,"y":-227.86458333333408,"orientation":1.5882496193148399},"name":"les_gros_q","deck":{"width":3,"length":4},"entities":[{"x":0,"y":0,"type":"oar"},{"x":0,"y":2,"type":"oar"},{"x":1,"y":0,"type":"oar"},{"x":1,"y":2,"type":"oar"},{"x":2,"y":0,"type":"oar"},{"x":2,"y":2,"type":"oar"},{"x":3,"y":1,"type":"rudder"}],"life":300,"shape":{"type":"rectangle","width":3.0,"height":4.0,"orientation":0.0}},"visibleEntities":[],"wind":{"orientation":0.0,"strength":0.0}}
Next round input: {"ship":{"type":"ship","position":{"x":2185.3061761027725,"y":-227.86458333333408,"orientation":1.5882496193148399},"name":"les_gros_q","deck":{"width":3,"length":4},"entities":[{"x":0,"y":0,"type":"oar"},{"x":0,"y":2,"type":"oar"},{"x":1,"y":0,"type":"oar"},{"x":1,"y":2,"type":"oar"},{"x":2,"y":0,"type":"oar"},{"x":2,"y":2,"type":"oar"},{"x":3,"y":1,"type":"rudder"}],"life":300,"shape":{"type":"rectangle","width":3.0,"height":4.0,"orientation":0.0}},"visibleEntities":[],"wind":{"orientation":0.0,"strength":0.0}}
Next round input: {"ship":{"type":"ship","position":{"x":2185.3061761027725,"y":-227.86458333333408,"orientation":1.5882496193148399},"name":"les_gros_q","deck":{"width":3,"length":4},"entities":[{"x":0,"y":0,"type":"oar"},{"x":0,"y":2,"type":"oar"},{"x":1,"y":0,"type":"oar"},{"x":1,"y":2,"type":"oar"},{"x":2,"y":0,"type":"oar"},{"x":2,"y":2,"type":"oar"},{"x":3,"y":1,"type":"rudder"}],"life":300,"shape":{"type":"rectangle","width":3.0,"height":4.0,"orientation":0.0}},"visibleEntities":[],"wind":{"orientation":0.0,"strength":0.0}}
Next round input: {"ship":{"type":"ship","position":{"x":2185.3061761027725,"y":-227.86458333333408,"orientation":1.5882496193148399},"name":"les_gros_q","deck":{"width":3,"length":4},"entities":[{"x":0,"y":0,"type":"oar"},{"x":0,"y":2,"type":"oar"},{"x":1,"y":0,"type":"oar"},{"x":1,"y":2,"type":"oar"},{"x":2,"y":0,"type":"oar"},{"x":2,"y":2,"type":"oar"},{"x":3,"y":1,"type":"rudder"}],"life":300,"shape":{"type":"rectangle","width":3.0,"height":4.0,"orientation":0.0}},"visibleEntities":[],"wind":{"orientation":0.0,"strength":0.0}}
Next round input: {"ship":{"type":"ship","position":{"x":2185.3061761027725,"y":-227.86458333333408,"orientation":1.5882496193148399},"name":"les_gros_q","deck":{"width":3,"length":4},"entities":[{"x":0,"y":0,"type":"oar"},{"x":0,"y":2,"type":"oar"},{"x":1,"y":0,"type":"oar"},{"x":1,"y":2,"type":"oar"},{"x":2,"y":0,"type":"oar"},{"x":2,"y":2,"type":"oar"},{"x":3,"y":1,"type":"rudder"}],"life":300,"shape":{"type":"rectangle","width":3.0,"height":4.0,"orientation":0.0}},"visibleEntities":[],"wind":{"orientation":0.0,"strength":0.0}}
Next round input: {"ship":{"type":"ship","position":{"x":2185.3061761027725,"y":-227.86458333333408,"orientation":1.5882496193148399},"name":"les_gros_q","deck":{"width":3,"length":4},"entities":[{"x":0,"y":0,"type":"oar"},{"x":0,"y":2,"type":"oar"},{"x":1,"y":0,"type":"oar"},{"x":1,"y":2,"type":"oar"},{"x":2,"y":0,"type":"oar"},{"x":2,"y":2,"type":"oar"},{"x":3,"y":1,"type":"rudder"}],"life":300,"shape":{"type":"rectangle","width":3.0,"height":4.0,"orientation":0.0}},"visibleEntities":[],"wind":{"orientation":0.0,"strength":0.0}}
Next round input: {"ship":{"type":"ship","position":{"x":2185.3061761027725,"y":-227.86458333333408,"orientation":1.5882496193148399},"name":"les_gros_q","deck":{"width":3,"length":4},"entities":[{"x":0,"y":0,"type":"oar"},{"x":0,"y":2,"type":"oar"},{"x":1,"y":0,"type":"oar"},{"x":1,"y":2,"type":"oar"},{"x":2,"y":0,"type":"oar"},{"x":2,"y":2,"type":"oar"},{"x":3,"y":1,"type":"rudder"}],"life":300,"shape":{"type":"rectangle","width":3.0,"height":4.0,"orientation":0.0}},"visibleEntities":[],"wind":{"orientation":0.0,"strength":0.0}}
Next round input: {"ship":{"type":"ship","position":{"x":2185.3061761027725,"y":-227.86458333333408,"orientation":1.5882496193148399},"name":"les_gros_q","deck":{"width":3,"length":4},"entities":[{"x":0,"y":0,"type":"oar"},{"x":0,"y":2,"type":"oar"},{"x":1,"y":0,"type":"oar"},{"x":1,"y":2,"type":"oar"},{"x":2,"y":0,"type":"oar"},{"x":2,"y":2,"type":"oar"},{"x":3,"y":1,"type":"rudder"}],"life":300,"shape":{"type":"rectangle","width":3.0,"height":4.0,"orientation":0.0}},"visibleEntities":[],"wind":{"orientation":0.0,"strength":0.0}}
Next round input: {"ship":{"type":"ship","position":{"x":2185.3061761027725,"y":-227.86458333333408,"orientation":1.5882496193148399},"name":"les_gros_q","deck":{"width":3,"length":4},"entities":[{"x":0,"y":0,"type":"oar"},{"x":0,"y":2,"type":"oar"},{"x":1,"y":0,"type":"oar"},{"x":1,"y":2,"type":"oar"},{"x":2,"y":0,"type":"oar"},{"x":2,"y":2,"type":"oar"},{"x":3,"y":1,"type":"rudder"}],"life":300,"shape":{"type":"rectangle","width":3.0,"height":4.0,"orientation":0.0}},"visibleEntities":[],"wind":{"orientation":0.0,"strength":0.0}}
Next round input: {"ship":{"type":"ship","position":{"x":2185.3061761027725,"y":-227.86458333333408,"orientation":1.5882496193148399},"name":"les_gros_q","deck":{"width":3,"length":4},"entities":[{"x":0,"y":0,"type":"oar"},{"x":0,"y":2,"type":"oar"},{"x":1,"y":0,"type":"oar"},{"x":1,"y":2,"type":"oar"},{"x":2,"y":0,"type":"oar"},{"x":2,"y":2,"type":"oar"},{"x":3,"y":1,"type":"rudder"}],"life":300,"shape":{"type":"rectangle","width":3.0,"height":4.0,"orientation":0.0}},"visibleEntities":[],"wind":{"orientation":0.0,"strength":0.0}}
Next round input: {"ship":{"type":"ship","position":{"x":2185.3061761027725,"y":-227.86458333333408,"orientation":1.5882496193148399},"name":"les_gros_q","deck":{"width":3,"length":4},"entities":[{"x":0,"y":0,"type":"oar"},{"x":0,"y":2,"type":"oar"},{"x":1,"y":0,"type":"oar"},{"x":1,"y":2,"type":"oar"},{"x":2,"y":0,"type":"oar"},{"x":2,"y":2,"type":"oar"},{"x":3,"y":1,"type":"rudder"}],"life":300,"shape":{"type":"rectangle","width":3.0,"height":4.0,"orientation":0.0}},"visibleEntities":[],"wind":{"orientation":0.0,"strength":0.0}}
Next round input: {"ship":{"type":"ship","position":{"x":2185.3061761027725,"y":-227.86458333333408,"orientation":1.5882496193148399},"name":"les_gros_q","deck":{"width":3,"length":4},"entities":[{"x":0,"y":0,"type":"oar"},{"x":0,"y":2,"type":"oar"},{"x":1,"y":0,"type":"oar"},{"x":1,"y":2,"type":"oar"},{"x":2,"y":0,"type":"oar"},{"x":2,"y":2,"type":"oar"},{"x":3,"y":1,"type":"rudder"}],"life":300,"shape":{"type":"rectangle","width":3.0,"height":4.0,"orientation":0.0}},"visibleEntities":[],"wind":{"orientation":0.0,"strength":0.0}}
Next round input: {"ship":{"type":"ship","position":{"x":2185.3061761027725,"y":-227.86458333333408,"orientation":1.5882496193148399},"name":"les_gros_q","deck":{"width":3,"length":4},"entities":[{"x":0,"y":0,"type":"oar"},{"x":0,"y":2,"type":"oar"},{"x":1,"y":0,"type":"oar"},{"x":1,"y":2,"type":"oar"},{"x":2,"y":0,"type":"oar"},{"x":2,"y":2,"type":"oar"},{"x":3,"y":1,"type":"rudder"}],"life":300,"shape":{"type":"rectangle","width":3.0,"height":4.0,"orientation":0.0}},"visibleEntities":[],"wind":{"orientation":0.0,"strength":0.0}}
Next round input: {"ship":{"type":"ship","position":{"x":2185.3061761027725,"y":-227.86458333333408,"orientation":1.5882496193148399},"name":"les_gros_q","deck":{"width":3,"length":4},"entities":[{"x":0,"y":0,"type":"oar"},{"x":0,"y":2,"type":"oar"},{"x":1,"y":0,"type":"oar"},{"x":1,"y":2,"type":"oar"},{"x":2,"y":0,"type":"oar"},{"x":2,"y":2,"type":"oar"},{"x":3,"y":1,"type":"rudder"}],"life":300,"shape":{"type":"rectangle","width":3.0,"height":4.0,"orientation":0.0}},"visibleEntities":[],"wind":{"orientation":0.0,"strength":0.0}}
Next round input: {"ship":{"type":"ship","position":{"x":2185.3061761027725,"y":-227.86458333333408,"orientation":1.5882496193148399},"name":"les_gros_q","deck":{"width":3,"length":4},"entities":[{"x":0,"y":0,"type":"oar"},{"x":0,"y":2,"type":"oar"},{"x":1,"y":0,"type":"oar"},{"x":1,"y":2,"type":"oar"},{"x":2,"y":0,"type":"oar"},{"x":2,"y":2,"type":"oar"},{"x":3,"y":1,"type":"rudder"}],"life":300,"shape":{"type":"rectangle","width":3.0,"height":4.0,"orientation":0.0}},"visibleEntities":[],"wind":{"orientation":0.0,"strength":0.0}}
Next round input: {"ship":{"type":"ship","position":{"x":2185.3061761027725,"y":-227.86458333333408,"orientation":1.5882496193148399},"name":"les_gros_q","deck":{"width":3,"length":4},"entities":[{"x":0,"y":0,"type":"oar"},{"x":0,"y":2,"type":"oar"},{"x":1,"y":0,"type":"oar"},{"x":1,"y":2,"type":"oar"},{"x":2,"y":0,"type":"oar"},{"x":2,"y":2,"type":"oar"},{"x":3,"y":1,"type":"rudder"}],"life":300,"shape":{"type":"rectangle","width":3.0,"height":4.0,"orientation":0.0}},"visibleEntities":[],"wind":{"orientation":0.0,"strength":0.0}}
Next round input: {"ship":{"type":"ship","position":{"x":2185.3061761027725,"y":-227.86458333333408,"orientation":1.5882496193148399},"name":"les_gros_q","deck":{"width":3,"length":4},"entities":[{"x":0,"y":0,"type":"oar"},{"x":0,"y":2,"type":"oar"},{"x":1,"y":0,"type":"oar"},{"x":1,"y":2,"type":"oar"},{"x":2,"y":0,"type":"oar"},{"x":2,"y":2,"type":"oar"},{"x":3,"y":1,"type":"rudder"}],"life":300,"shape":{"type":"rectangle","width":3.0,"height":4.0,"orientation":0.0}},"visibleEntities":[],"wind":{"orientation":0.0,"strength":0.0}}
Next round input: {"ship":{"type":"ship","position":{"x":2185.3061761027725,"y":-227.86458333333408,"orientation":1.5882496193148399},"name":"les_gros_q","deck":{"width":3,"length":4},"entities":[{"x":0,"y":0,"type":"oar"},{"x":0,"y":2,"type":"oar"},{"x":1,"y":0,"type":"oar"},{"x":1,"y":2,"type":"oar"},{"x":2,"y":0,"type":"oar"},{"x":2,"y":2,"type":"oar"},{"x":3,"y":1,"type":"rudder"}],"life":300,"shape":{"type":"rectangle","width":3.0,"height":4.0,"orientation":0.0}},"visibleEntities":[],"wind":{"orientation":0.0,"strength":0.0}}
Next round input: {"ship":{"type":"ship","position":{"x":2185.3061761027725,"y":-227.86458333333408,"orientation":1.5882496193148399},"name":"les_gros_q","deck":{"width":3,"length":4},"entities":[{"x":0,"y":0,"type":"oar"},{"x":0,"y":2,"type":"oar"},{"x":1,"y":0,"type":"oar"},{"x":1,"y":2,"type":"oar"},{"x":2,"y":0,"type":"oar"},{"x":2,"y":2,"type":"oar"},{"x":3,"y":1,"type":"rudder"}],"life":300,"shape":{"type":"rectangle","width":3.0,"height":4.0,"orientation":0.0}},"visibleEntities":[],"wind":{"orientation":0.0,"strength":0.0}}
Next round input: {"ship":{"type":"ship","position":{"x":2185.3061761027725,"y":-227.86458333333408,"orientation":1.5882496193148399},"name":"les_gros_q","deck":{"width":3,"length":4},"entities":[{"x":0,"y":0,"type":"oar"},{"x":0,"y":2,"type":"oar"},{"x":1,"y":0,"type":"oar"},{"x":1,"y":2,"type":"oar"},{"x":2,"y":0,"type":"oar"},{"x":2,"y":2,"type":"oar"},{"x":3,"y":1,"type":"rudder"}],"life":300,"shape":{"type":"rectangle","width":3.0,"height":4.0,"orientation":0.0}},"visibleEntities":[],"wind":{"orientation":0.0,"strength":0.0}}
Next round input: {"ship":{"type":"ship","position":{"x":2185.3061761027725,"y":-227.86458333333408,"orientation":1.5882496193148399},"name":"les_gros_q","deck":{"width":3,"length":4},"entities":[{"x":0,"y":0,"type":"oar"},{"x":0,"y":2,"type":"oar"},{"x":1,"y":0,"type":"oar"},{"x":1,"y":2,"type":"oar"},{"x":2,"y":0,"type":"oar"},{"x":2,"y":2,"type":"oar"},{"x":3,"y":1,"type":"rudder"}],"life":300,"shape":{"type":"rectangle","width":3.0,"height":4.0,"orientation":0.0}},"visibleEntities":[],"wind":{"orientation":0.0,"strength":0.0}}
Next round input: {"ship":{"type":"ship","position":{"x":2185.3061761027725,"y":-227.86458333333408,"orientation":1.5882496193148399},"name":"les_gros_q","deck":{"width":3,"length":4},"entities":[{"x":0,"y":0,"type":"oar"},{"x":0,"y":2,"type":"oar"},{"x":1,"y":0,"type":"oar"},{"x":1,"y":2,"type":"oar"},{"x":2,"y":0,"type":"oar"},{"x":2,"y":2,"type":"oar"},{"x":3,"y":1,"type":"rudder"}],"life":300,"shape":{"type":"rectangle","width":3.0,"height":4.0,"orientation":0.0}},"visibleEntities":[],"wind":{"orientation":0.0,"strength":0.0}}
Next round input: {"ship":{"type":"ship","position":{"x":2185.3061761027725,"y":-227.86458333333408,"orientation":1.5882496193148399},"name":"les_gros_q","deck":{"width":3,"length":4},"entities":[{"x":0,"y":0,"type":"oar"},{"x":0,"y":2,"type":"oar"},{"x":1,"y":0,"type":"oar"},{"x":1,"y":2,"type":"oar"},{"x":2,"y":0,"type":"oar"},{"x":2,"y":2,"type":"oar"},{"x":3,"y":1,"type":"rudder"}],"life":300,"shape":{"type":"rectangle","width":3.0,"height":4.0,"orientation":0.0}},"visibleEntities":[],"wind":{"orientation":0.0,"strength":0.0}}
Next round input: {"ship":{"type":"ship","position":{"x":2185.3061761027725,"y":-227.86458333333408,"orientation":1.5882496193148399},"name":"les_gros_q","deck":{"width":3,"length":4},"entities":[{"x":0,"y":0,"type":"oar"},{"x":0,"y":2,"type":"oar"},{"x":1,"y":0,"type":"oar"},{"x":1,"y":2,"type":"oar"},{"x":2,"y":0,"type":"oar"},{"x":2,"y":2,"type":"oar"},{"x":3,"y":1,"type":"rudder"}],"life":300,"shape":{"type":"rectangle","width":3.0,"height":4.0,"orientation":0.0}},"visibleEntities":[],"wind":{"orientation":0.0,"strength":0.0}}
Next round input: {"ship":{"type":"ship","position":{"x":2185.3061761027725,"y":-227.86458333333408,"orientation":1.5882496193148399},"name":"les_gros_q","deck":{"width":3,"length":4},"entities":[{"x":0,"y":0,"type":"oar"},{"x":0,"y":2,"type":"oar"},{"x":1,"y":0,"type":"oar"},{"x":1,"y":2,"type":"oar"},{"x":2,"y":0,"type":"oar"},{"x":2,"y":2,"type":"oar"},{"x":3,"y":1,"type":"rudder"}],"life":300,"shape":{"type":"rectangle","width":3.0,"height":4.0,"orientation":0.0}},"visibleEntities":[],"wind":{"orientation":0.0,"strength":0.0}}
Next round input: {"ship":{"type":"ship","position":{"x":2185.3061761027725,"y":-227.86458333333408,"orientation":1.5882496193148399},"name":"les_gros_q","deck":{"width":3,"length":4},"entities":[{"x":0,"y":0,"type":"oar"},{"x":0,"y":2,"type":"oar"},{"x":1,"y":0,"type":"oar"},{"x":1,"y":2,"type":"oar"},{"x":2,"y":0,"type":"oar"},{"x":2,"y":2,"type":"oar"},{"x":3,"y":1,"type":"rudder"}],"life":300,"shape":{"type":"rectangle","width":3.0,"height":4.0,"orientation":0.0}},"visibleEntities":[],"wind":{"orientation":0.0,"strength":0.0}}
Next round input: {"ship":{"type":"ship","position":{"x":2185.3061761027725,"y":-227.86458333333408,"orientation":1.5882496193148399},"name":"les_gros_q","deck":{"width":3,"length":4},"entities":[{"x":0,"y":0,"type":"oar"},{"x":0,"y":2,"type":"oar"},{"x":1,"y":0,"type":"oar"},{"x":1,"y":2,"type":"oar"},{"x":2,"y":0,"type":"oar"},{"x":2,"y":2,"type":"oar"},{"x":3,"y":1,"type":"rudder"}],"life":300,"shape":{"type":"rectangle","width":3.0,"height":4.0,"orientation":0.0}},"visibleEntities":[],"wind":{"orientation":0.0,"strength":0.0}}
Next round input: {"ship":{"type":"ship","position":{"x":2185.3061761027725,"y":-227.86458333333408,"orientation":1.5882496193148399},"name":"les_gros_q","deck":{"width":3,"length":4},"entities":[{"x":0,"y":0,"type":"oar"},{"x":0,"y":2,"type":"oar"},{"x":1,"y":0,"type":"oar"},{"x":1,"y":2,"type":"oar"},{"x":2,"y":0,"type":"oar"},{"x":2,"y":2,"type":"oar"},{"x":3,"y":1,"type":"rudder"}],"life":300,"shape":{"type":"rectangle","width":3.0,"height":4.0,"orientation":0.0}},"visibleEntities":[],"wind":{"orientation":0.0,"strength":0.0}}
Next round input: {"ship":{"type":"ship","position":{"x":2185.3061761027725,"y":-227.86458333333408,"orientation":1.5882496193148399},"name":"les_gros_q","deck":{"width":3,"length":4},"entities":[{"x":0,"y":0,"type":"oar"},{"x":0,"y":2,"type":"oar"},{"x":1,"y":0,"type":"oar"},{"x":1,"y":2,"type":"oar"},{"x":2,"y":0,"type":"oar"},{"x":2,"y":2,"type":"oar"},{"x":3,"y":1,"type":"rudder"}],"life":300,"shape":{"type":"rectangle","width":3.0,"height":4.0,"orientation":0.0}},"visibleEntities":[],"wind":{"orientation":0.0,"strength":0.0}}
Next round input: {"ship":{"type":"ship","position":{"x":2185.3061761027725,"y":-227.86458333333408,"orientation":1.5882496193148399},"name":"les_gros_q","deck":{"width":3,"length":4},"entities":[{"x":0,"y":0,"type":"oar"},{"x":0,"y":2,"type":"oar"},{"x":1,"y":0,"type":"oar"},{"x":1,"y":2,"type":"oar"},{"x":2,"y":0,"type":"oar"},{"x":2,"y":2,"type":"oar"},{"x":3,"y":1,"type":"rudder"}],"life":300,"shape":{"type":"rectangle","width":3.0,"height":4.0,"orientation":0.0}},"visibleEntities":[],"wind":{"orientation":0.0,"strength":0.0}}
Next round input: {"ship":{"type":"ship","position":{"x":2185.3061761027725,"y":-227.86458333333408,"orientation":1.5882496193148399},"name":"les_gros_q","deck":{"width":3,"length":4},"entities":[{"x":0,"y":0,"type":"oar"},{"x":0,"y":2,"type":"oar"},{"x":1,"y":0,"type":"oar"},{"x":1,"y":2,"type":"oar"},{"x":2,"y":0,"type":"oar"},{"x":2,"y":2,"type":"oar"},{"x":3,"y":1,"type":"rudder"}],"life":300,"shape":{"type":"rectangle","width":3.0,"height":4.0,"orientation":0.0}},"visibleEntities":[],"wind":{"orientation":0.0,"strength":0.0}}
Next round input: {"ship":{"type":"ship","position":{"x":2185.3061761027725,"y":-227.86458333333408,"orientation":1.5882496193148399},"name":"les_gros_q","deck":{"width":3,"length":4},"entities":[{"x":0,"y":0,"type":"oar"},{"x":0,"y":2,"type":"oar"},{"x":1,"y":0,"type":"oar"},{"x":1,"y":2,"type":"oar"},{"x":2,"y":0,"type":"oar"},{"x":2,"y":2,"type":"oar"},{"x":3,"y":1,"type":"rudder"}],"life":300,"shape":{"type":"rectangle","width":3.0,"height":4.0,"orientation":0.0}},"visibleEntities":[],"wind":{"orientation":0.0,"strength":0.0}}
Next round input: {"ship":{"type":"ship","position":{"x":2185.3061761027725,"y":-227.86458333333408,"orientation":1.5882496193148399},"name":"les_gros_q","deck":{"width":3,"length":4},"entities":[{"x":0,"y":0,"type":"oar"},{"x":0,"y":2,"type":"oar"},{"x":1,"y":0,"type":"oar"},{"x":1,"y":2,"type":"oar"},{"x":2,"y":0,"type":"oar"},{"x":2,"y":2,"type":"oar"},{"x":3,"y":1,"type":"rudder"}],"life":300,"shape":{"type":"rectangle","width":3.0,"height":4.0,"orientation":0.0}},"visibleEntities":[],"wind":{"orientation":0.0,"strength":0.0}}
Next round input: {"ship":{"type":"ship","position":{"x":2185.3061761027725,"y":-227.86458333333408,"orientation":1.5882496193148399},"name":"les_gros_q","deck":{"width":3,"length":4},"entities":[{"x":0,"y":0,"type":"oar"},{"x":0,"y":2,"type":"oar"},{"x":1,"y":0,"type":"oar"},{"x":1,"y":2,"type":"oar"},{"x":2,"y":0,"type":"oar"},{"x":2,"y":2,"type":"oar"},{"x":3,"y":1,"type":"rudder"}],"life":300,"shape":{"type":"rectangle","width":3.0,"height":4.0,"orientation":0.0}},"visibleEntities":[],"wind":{"orientation":0.0,"strength":0.0}}
Next round input: {"ship":{"type":"ship","position":{"x":2185.3061761027725,"y":-227.86458333333408,"orientation":1.5882496193148399},"name":"les_gros_q","deck":{"width":3,"length":4},"entities":[{"x":0,"y":0,"type":"oar"},{"x":0,"y":2,"type":"oar"},{"x":1,"y":0,"type":"oar"},{"x":1,"y":2,"type":"oar"},{"x":2,"y":0,"type":"oar"},{"x":2,"y":2,"type":"oar"},{"x":3,"y":1,"type":"rudder"}],"life":300,"shape":{"type":"rectangle","width":3.0,"height":4.0,"orientation":0.0}},"visibleEntities":[],"wind":{"orientation":0.0,"strength":0.0}}
Next round input: {"ship":{"type":"ship","position":{"x":2185.3061761027725,"y":-227.86458333333408,"orientation":1.5882496193148399},"name":"les_gros_q","deck":{"width":3,"length":4},"entities":[{"x":0,"y":0,"type":"oar"},{"x":0,"y":2,"type":"oar"},{"x":1,"y":0,"type":"oar"},{"x":1,"y":2,"type":"oar"},{"x":2,"y":0,"type":"oar"},{"x":2,"y":2,"type":"oar"},{"x":3,"y":1,"type":"rudder"}],"life":300,"shape":{"type":"rectangle","width":3.0,"height":4.0,"orientation":0.0}},"visibleEntities":[],"wind":{"orientation":0.0,"strength":0.0}}
Next round input: {"ship":{"type":"ship","position":{"x":2185.3061761027725,"y":-227.86458333333408,"orientation":1.5882496193148399},"name":"les_gros_q","deck":{"width":3,"length":4},"entities":[{"x":0,"y":0,"type":"oar"},{"x":0,"y":2,"type":"oar"},{"x":1,"y":0,"type":"oar"},{"x":1,"y":2,"type":"oar"},{"x":2,"y":0,"type":"oar"},{"x":2,"y":2,"type":"oar"},{"x":3,"y":1,"type":"rudder"}],"life":300,"shape":{"type":"rectangle","width":3.0,"height":4.0,"orientation":0.0}},"visibleEntities":[],"wind":{"orientation":0.0,"strength":0.0}}
Next round input: {"ship":{"type":"ship","position":{"x":2185.3061761027725,"y":-227.86458333333408,"orientation":1.5882496193148399},"name":"les_gros_q","deck":{"width":3,"length":4},"entities":[{"x":0,"y":0,"type":"oar"},{"x":0,"y":2,"type":"oar"},{"x":1,"y":0,"type":"oar"},{"x":1,"y":2,"type":"oar"},{"x":2,"y":0,"type":"oar"},{"x":2,"y":2,"type":"oar"},{"x":3,"y":1,"type":"rudder"}],"life":300,"shape":{"type":"rectangle","width":3.0,"height":4.0,"orientation":0.0}},"visibleEntities":[],"wind":{"orientation":0.0,"strength":0.0}}
Next round input: {"ship":{"type":"ship","position":{"x":2185.3061761027725,"y":-227.86458333333408,"orientation":1.5882496193148399},"name":"les_gros_q","deck":{"width":3,"length":4},"entities":[{"x":0,"y":0,"type":"oar"},{"x":0,"y":2,"type":"oar"},{"x":1,"y":0,"type":"oar"},{"x":1,"y":2,"type":"oar"},{"x":2,"y":0,"type":"oar"},{"x":2,"y":2,"type":"oar"},{"x":3,"y":1,"type":"rudder"}],"life":300,"shape":{"type":"rectangle","width":3.0,"height":4.0,"orientation":0.0}},"visibleEntities":[],"wind":{"orientation":0.0,"strength":0.0}}
Next round input: {"ship":{"type":"ship","position":{"x":2185.3061761027725,"y":-227.86458333333408,"orientation":1.5882496193148399},"name":"les_gros_q","deck":{"width":3,"length":4},"entities":[{"x":0,"y":0,"type":"oar"},{"x":0,"y":2,"type":"oar"},{"x":1,"y":0,"type":"oar"},{"x":1,"y":2,"type":"oar"},{"x":2,"y":0,"type":"oar"},{"x":2,"y":2,"type":"oar"},{"x":3,"y":1,"type":"rudder"}],"life":300,"shape":{"type":"rectangle","width":3.0,"height":4.0,"orientation":0.0}},"visibleEntities":[],"wind":{"orientation":0.0,"strength":0.0}}
Next round input: {"ship":{"type":"ship","position":{"x":2185.3061761027725,"y":-227.86458333333408,"orientation":1.5882496193148399},"name":"les_gros_q","deck":{"width":3,"length":4},"entities":[{"x":0,"y":0,"type":"oar"},{"x":0,"y":2,"type":"oar"},{"x":1,"y":0,"type":"oar"},{"x":1,"y":2,"type":"oar"},{"x":2,"y":0,"type":"oar"},{"x":2,"y":2,"type":"oar"},{"x":3,"y":1,"type":"rudder"}],"life":300,"shape":{"type":"rectangle","width":3.0,"height":4.0,"orientation":0.0}},"visibleEntities":[],"wind":{"orientation":0.0,"strength":0.0}}
Next round input: {"ship":{"type":"ship","position":{"x":2185.3061761027725,"y":-227.86458333333408,"orientation":1.5882496193148399},"name":"les_gros_q","deck":{"width":3,"length":4},"entities":[{"x":0,"y":0,"type":"oar"},{"x":0,"y":2,"type":"oar"},{"x":1,"y":0,"type":"oar"},{"x":1,"y":2,"type":"oar"},{"x":2,"y":0,"type":"oar"},{"x":2,"y":2,"type":"oar"},{"x":3,"y":1,"type":"rudder"}],"life":300,"shape":{"type":"rectangle","width":3.0,"height":4.0,"orientation":0.0}},"visibleEntities":[],"wind":{"orientation":0.0,"strength":0.0}}
Next round input: {"ship":{"type":"ship","position":{"x":2185.3061761027725,"y":-227.86458333333408,"orientation":1.5882496193148399},"name":"les_gros_q","deck":{"width":3,"length":4},"entities":[{"x":0,"y":0,"type":"oar"},{"x":0,"y":2,"type":"oar"},{"x":1,"y":0,"type":"oar"},{"x":1,"y":2,"type":"oar"},{"x":2,"y":0,"type":"oar"},{"x":2,"y":2,"type":"oar"},{"x":3,"y":1,"type":"rudder"}],"life":300,"shape":{"type":"rectangle","width":3.0,"height":4.0,"orientation":0.0}},"visibleEntities":[],"wind":{"orientation":0.0,"strength":0.0}}
Next round input: {"ship":{"type":"ship","position":{"x":2185.3061761027725,"y":-227.86458333333408,"orientation":1.5882496193148399},"name":"les_gros_q","deck":{"width":3,"length":4},"entities":[{"x":0,"y":0,"type":"oar"},{"x":0,"y":2,"type":"oar"},{"x":1,"y":0,"type":"oar"},{"x":1,"y":2,"type":"oar"},{"x":2,"y":0,"type":"oar"},{"x":2,"y":2,"type":"oar"},{"x":3,"y":1,"type":"rudder"}],"life":300,"shape":{"type":"rectangle","width":3.0,"height":4.0,"orientation":0.0}},"visibleEntities":[],"wind":{"orientation":0.0,"strength":0.0}}
Next round input: {"ship":{"type":"ship","position":{"x":2185.3061761027725,"y":-227.86458333333408,"orientation":1.5882496193148399},"name":"les_gros_q","deck":{"width":3,"length":4},"entities":[{"x":0,"y":0,"type":"oar"},{"x":0,"y":2,"type":"oar"},{"x":1,"y":0,"type":"oar"},{"x":1,"y":2,"type":"oar"},{"x":2,"y":0,"type":"oar"},{"x":2,"y":2,"type":"oar"},{"x":3,"y":1,"type":"rudder"}],"life":300,"shape":{"type":"rectangle","width":3.0,"height":4.0,"orientation":0.0}},"visibleEntities":[],"wind":{"orientation":0.0,"strength":0.0}}
Next round input: {"ship":{"type":"ship","position":{"x":2185.3061761027725,"y":-227.86458333333408,"orientation":1.5882496193148399},"name":"les_gros_q","deck":{"width":3,"length":4},"entities":[{"x":0,"y":0,"type":"oar"},{"x":0,"y":2,"type":"oar"},{"x":1,"y":0,"type":"oar"},{"x":1,"y":2,"type":"oar"},{"x":2,"y":0,"type":"oar"},{"x":2,"y":2,"type":"oar"},{"x":3,"y":1,"type":"rudder"}],"life":300,"shape":{"type":"rectangle","width":3.0,"height":4.0,"orientation":0.0}},"visibleEntities":[],"wind":{"orientation":0.0,"strength":0.0}}
Next round input: {"ship":{"type":"ship","position":{"x":2185.3061761027725,"y":-227.86458333333408,"orientation":1.5882496193148399},"name":"les_gros_q","deck":{"width":3,"length":4},"entities":[{"x":0,"y":0,"type":"oar"},{"x":0,"y":2,"type":"oar"},{"x":1,"y":0,"type":"oar"},{"x":1,"y":2,"type":"oar"},{"x":2,"y":0,"type":"oar"},{"x":2,"y":2,"type":"oar"},{"x":3,"y":1,"type":"rudder"}],"life":300,"shape":{"type":"rectangle","width":3.0,"height":4.0,"orientation":0.0}},"visibleEntities":[],"wind":{"orientation":0.0,"strength":0.0}}
Next round input: {"ship":{"type":"ship","position":{"x":2185.3061761027725,"y":-227.86458333333408,"orientation":1.5882496193148399},"name":"les_gros_q","deck":{"width":3,"length":4},"entities":[{"x":0,"y":0,"type":"oar"},{"x":0,"y":2,"type":"oar"},{"x":1,"y":0,"type":"oar"},{"x":1,"y":2,"type":"oar"},{"x":2,"y":0,"type":"oar"},{"x":2,"y":2,"type":"oar"},{"x":3,"y":1,"type":"rudder"}],"life":300,"shape":{"type":"rectangle","width":3.0,"height":4.0,"orientation":0.0}},"visibleEntities":[],"wind":{"orientation":0.0,"strength":0.0}}
Next round input: {"ship":{"type":"ship","position":{"x":2185.3061761027725,"y":-227.86458333333408,"orientation":1.5882496193148399},"name":"les_gros_q","deck":{"width":3,"length":4},"entities":[{"x":0,"y":0,"type":"oar"},{"x":0,"y":2,"type":"oar"},{"x":1,"y":0,"type":"oar"},{"x":1,"y":2,"type":"oar"},{"x":2,"y":0,"type":"oar"},{"x":2,"y":2,"type":"oar"},{"x":3,"y":1,"type":"rudder"}],"life":300,"shape":{"type":"rectangle","width":3.0,"height":4.0,"orientation":0.0}},"visibleEntities":[],"wind":{"orientation":0.0,"strength":0.0}}
Next round input: {"ship":{"type":"ship","position":{"x":2185.3061761027725,"y":-227.86458333333408,"orientation":1.5882496193148399},"name":"les_gros_q","deck":{"width":3,"length":4},"entities":[{"x":0,"y":0,"type":"oar"},{"x":0,"y":2,"type":"oar"},{"x":1,"y":0,"type":"oar"},{"x":1,"y":2,"type":"oar"},{"x":2,"y":0,"type":"oar"},{"x":2,"y":2,"type":"oar"},{"x":3,"y":1,"type":"rudder"}],"life":300,"shape":{"type":"rectangle","width":3.0,"height":4.0,"orientation":0.0}},"visibleEntities":[],"wind":{"orientation":0.0,"strength":0.0}}
