Init game input: {"goal":{"mode":"REGATTA","checkpoints":[{"position":{"x":-200.0,"y":1000.0,"orientation":0.0},"shape":{"type":"circle","radius":80.0}}]},"ship":{"type":"ship","position":{"x":0.0,"y":0.0,"orientation":0.0},"name":"Mugiwara_Cook","deck":{"width":2,"length":4},"entities":[{"x":1,"y":0,"type":"oar"},{"x":1,"y":1,"type":"oar"},{"x":2,"y":0,"type":"oar"},{"x":2,"y":1,"type":"oar"},{"x":3,"y":0,"type":"oar"},{"x":3,"y":1,"type":"oar"}],"life":300,"shape":{"type":"rectangle","width":2.0,"height":4.0,"orientation":0.0}},"sailors":[{"x":0,"y":0,"id":0,"name":"Tom Pouce"},{"x":0,"y":1,"id":1,"name":"Luffy Pouce"},{"x":1,"y":0,"id":2,"name":"Luffy Teach"},{"x":1,"y":1,"id":3,"name":"Jack Teach"}],"shipCount":1}
Next round input: {"ship":{"type":"ship","position":{"x":0.0,"y":0.0,"orientation":0.0},"name":"Mugiwara_Cook","deck":{"width":2,"length":4},"entities":[{"x":1,"y":0,"type":"oar"},{"x":1,"y":1,"type":"oar"},{"x":2,"y":0,"type":"oar"},{"x":2,"y":1,"type":"oar"},{"x":3,"y":0,"type":"oar"},{"x":3,"y":1,"type":"oar"}],"life":300,"shape":{"type":"rectangle","width":2.0,"height":4.0,"orientation":0.0}},"visibleEntities":[],"wind":{"orientation":0.0,"strength":0.0}}


















Mugiwara_Cook IS ELIMINATED: fr.unice.polytech.si3.qgl.frigatesengine.interfaces.GenericClientError


















