Init game input: {"goal":{"mode":"REGATTA","checkpoints":[{"position":{"x":8182.608695652171,"y":2654.7231270358307,"orientation":0.0},"shape":{"type":"circle","radius":200.0}},{"position":{"x":5469.565217391305,"y":-1123.7785016286687,"orientation":0.0},"shape":{"type":"circle","radius":1500.0}},{"position":{"x":4434.7826086956475,"y":374.5928338762211,"orientation":0.0},"shape":{"type":"circle","radius":200.0}},{"position":{"x":1939.1304347826083,"y":5806.188925081433,"orientation":0.0},"shape":{"type":"circle","radius":200.0}},{"position":{"x":9573.913043478302,"y":5765.472312703588,"orientation":0.0},"shape":{"type":"circle","radius":200.0}}]},"ship":{"type":"ship","position":{"x":2652.1739130434785,"y":2646.5798045602605,"orientation":0.0},"name":"les_gros_q","deck":{"width":3,"length":8},"entities":[{"x":1,"y":1,"type":"rudder"},{"x":6,"y":0,"type":"oar"},{"x":6,"y":2,"type":"oar"},{"x":5,"y":2,"type":"oar"},{"x":4,"y":2,"type":"oar"},{"x":3,"y":2,"type":"oar"},{"x":3,"y":0,"type":"oar"},{"x":4,"y":0,"type":"oar"},{"x":5,"y":0,"type":"oar"},{"x":6,"y":1,"type":"sail","openned":false},{"x":7,"y":2,"type":"oar"},{"x":7,"y":0,"type":"oar"}],"life":1200,"shape":{"type":"rectangle","width":3.0,"height":8.0,"orientation":0.0}},"sailors":[{"x":0,"y":0,"id":0,"name":"Luffy Teach"},{"x":0,"y":1,"id":1,"name":"Jack Pouce"},{"x":0,"y":2,"id":2,"name":"Tom Teach"},{"x":1,"y":0,"id":3,"name":"Tom Pouce"},{"x":1,"y":1,"id":4,"name":"Tom Pouce"},{"x":1,"y":2,"id":5,"name":"Edward Pouce"},{"x":2,"y":0,"id":6,"name":"Tom Pouce"},{"x":2,"y":1,"id":7,"name":"Tom Teach"},{"x":2,"y":2,"id":8,"name":"Edward Teach"},{"x":3,"y":0,"id":9,"name":"Tom Teach"},{"x":3,"y":1,"id":10,"name":"Edward Pouce"},{"x":3,"y":2,"id":11,"name":"Luffy Pouce"}],"shipCount":1}
Game initialised : GameData{goal=fr.unice.polytech.si3.qgl.les_gros_q.objects.RegattaGoal@582b02c2, ship=Ship{type='ship', life=1200, position=Position{x=2652.1739130434785, y=2646.5798045602605, orientation=0.0}, name='les_gros_q', deck=fr.unice.polytech.si3.qgl.les_gros_q.objects.Deck@6c9289fc, entities=[rudder[1,1], oar[6,0], oar[6,2], oar[5,2], oar[4,2], oar[3,2], oar[3,0], oar[4,0], oar[5,0], sail[6,1], oar[7,2], oar[7,0]], shape=fr.unice.polytech.si3.qgl.les_gros_q.objects.shapes.Rectangle@663c492b}, sailors=[fr.unice.polytech.si3.qgl.les_gros_q.objects.Sailor@57ac2b0, fr.unice.polytech.si3.qgl.les_gros_q.objects.Sailor@1fe77adf, fr.unice.polytech.si3.qgl.les_gros_q.objects.Sailor@13696b0a, fr.unice.polytech.si3.qgl.les_gros_q.objects.Sailor@9fc8644, fr.unice.polytech.si3.qgl.les_gros_q.objects.Sailor@5a40aa89, fr.unice.polytech.si3.qgl.les_gros_q.objects.Sailor@7e55029c, fr.unice.polytech.si3.qgl.les_gros_q.objects.Sailor@263c1767, fr.unice.polytech.si3.qgl.les_gros_q.objects.Sailor@4b1f6b42, fr.unice.polytech.si3.qgl.les_gros_q.objects.Sailor@14d4944a, fr.unice.polytech.si3.qgl.les_gros_q.objects.Sailor@42c325ae, fr.unice.polytech.si3.qgl.les_gros_q.objects.Sailor@40295be, fr.unice.polytech.si3.qgl.les_gros_q.objects.Sailor@34f7bb07], shipCount=1}
Next round input: {"ship":{"type":"ship","position":{"x":2652.1739130434785,"y":2646.5798045602605,"orientation":0.0},"name":"les_gros_q","deck":{"width":3,"length":8},"entities":[{"x":1,"y":1,"type":"rudder"},{"x":6,"y":0,"type":"oar"},{"x":6,"y":2,"type":"oar"},{"x":5,"y":2,"type":"oar"},{"x":4,"y":2,"type":"oar"},{"x":3,"y":2,"type":"oar"},{"x":3,"y":0,"type":"oar"},{"x":4,"y":0,"type":"oar"},{"x":5,"y":0,"type":"oar"},{"x":6,"y":1,"type":"sail","openned":false},{"x":7,"y":2,"type":"oar"},{"x":7,"y":0,"type":"oar"}],"life":1200,"shape":{"type":"rectangle","width":3.0,"height":8.0,"orientation":0.0}},"visibleEntities":[{"type":"stream","position":{"x":3539.1304347826062,"y":2280.130293159613,"orientation":1.9896753472735356},"shape":{"type":"rectangle","width":350.0,"height":3000.0,"orientation":0.0},"strength":35.0}],"wind":{"orientation":0.0,"strength":100.0}}
sail need open : true
JSON of actions initialized : [Lfr.unice.polytech.si3.qgl.les_gros_q.objects.actions.Action;@715010f7
Next round input: {"ship":{"type":"ship","position":{"x":2917.1737831211317,"y":2646.7729537769783,"orientation":0.0014724550438481433},"name":"les_gros_q","deck":{"width":3,"length":8},"entities":[{"x":1,"y":1,"type":"rudder"},{"x":6,"y":0,"type":"oar"},{"x":6,"y":2,"type":"oar"},{"x":5,"y":2,"type":"oar"},{"x":4,"y":2,"type":"oar"},{"x":3,"y":2,"type":"oar"},{"x":3,"y":0,"type":"oar"},{"x":4,"y":0,"type":"oar"},{"x":5,"y":0,"type":"oar"},{"x":6,"y":1,"type":"sail","openned":true},{"x":7,"y":2,"type":"oar"},{"x":7,"y":0,"type":"oar"}],"life":1200,"shape":{"type":"rectangle","width":3.0,"height":8.0,"orientation":0.0}},"visibleEntities":[{"type":"stream","position":{"x":3539.1304347826062,"y":2280.130293159613,"orientation":1.9896753472735356},"shape":{"type":"rectangle","width":350.0,"height":3000.0,"orientation":0.0},"strength":35.0}],"wind":{"orientation":0.0,"strength":100.0}}
sail need open : true
JSON of actions initialized : [Lfr.unice.polytech.si3.qgl.les_gros_q.objects.actions.Action;@31292587
Next round input: {"ship":{"type":"ship","position":{"x":3182.0310195737347,"y":2647.4878039896944,"orientation":0.001509878547450358},"name":"les_gros_q","deck":{"width":3,"length":8},"entities":[{"x":1,"y":1,"type":"rudder"},{"x":6,"y":0,"type":"oar"},{"x":6,"y":2,"type":"oar"},{"x":5,"y":2,"type":"oar"},{"x":4,"y":2,"type":"oar"},{"x":3,"y":2,"type":"oar"},{"x":3,"y":0,"type":"oar"},{"x":4,"y":0,"type":"oar"},{"x":5,"y":0,"type":"oar"},{"x":6,"y":1,"type":"sail","openned":true},{"x":7,"y":2,"type":"oar"},{"x":7,"y":0,"type":"oar"}],"life":1200,"shape":{"type":"rectangle","width":3.0,"height":8.0,"orientation":0.0}},"visibleEntities":[{"type":"stream","position":{"x":3539.1304347826062,"y":2280.130293159613,"orientation":1.9896753472735356},"shape":{"type":"rectangle","width":350.0,"height":3000.0,"orientation":0.0},"strength":35.0}],"wind":{"orientation":0.0,"strength":100.0}}
sail need open : true
JSON of actions initialized : [Lfr.unice.polytech.si3.qgl.les_gros_q.objects.actions.Action;@7cc348b9
Next round input: {"ship":{"type":"ship","position":{"x":3432.7948379586105,"y":2679.8537508386507,"orientation":0.0014468964319213726},"name":"les_gros_q","deck":{"width":3,"length":8},"entities":[{"x":1,"y":1,"type":"rudder"},{"x":6,"y":0,"type":"oar"},{"x":6,"y":2,"type":"oar"},{"x":5,"y":2,"type":"oar"},{"x":4,"y":2,"type":"oar"},{"x":3,"y":2,"type":"oar"},{"x":3,"y":0,"type":"oar"},{"x":4,"y":0,"type":"oar"},{"x":5,"y":0,"type":"oar"},{"x":6,"y":1,"type":"sail","openned":true},{"x":7,"y":2,"type":"oar"},{"x":7,"y":0,"type":"oar"}],"life":1200,"shape":{"type":"rectangle","width":3.0,"height":8.0,"orientation":0.0}},"visibleEntities":[{"type":"stream","position":{"x":3539.1304347826062,"y":2280.130293159613,"orientation":1.9896753472735356},"shape":{"type":"rectangle","width":350.0,"height":3000.0,"orientation":0.0},"strength":35.0},{"type":"reef","position":{"x":4921.739130434786,"y":4096.091205211728,"orientation":0.0},"shape":{"type":"rectangle","width":1000.0,"height":2500.0,"orientation":0.0}}],"wind":{"orientation":0.0,"strength":100.0}}
sail need open : true
JSON of actions initialized : [Lfr.unice.polytech.si3.qgl.les_gros_q.objects.actions.Action;@413e16ae
Next round input: {"ship":{"type":"ship","position":{"x":3690.9603213036016,"y":2694.700925356005,"orientation":-0.005290815611666488},"name":"les_gros_q","deck":{"width":3,"length":8},"entities":[{"x":1,"y":1,"type":"rudder"},{"x":6,"y":0,"type":"oar"},{"x":6,"y":2,"type":"oar"},{"x":5,"y":2,"type":"oar"},{"x":4,"y":2,"type":"oar"},{"x":3,"y":2,"type":"oar"},{"x":3,"y":0,"type":"oar"},{"x":4,"y":0,"type":"oar"},{"x":5,"y":0,"type":"oar"},{"x":6,"y":1,"type":"sail","openned":true},{"x":7,"y":2,"type":"oar"},{"x":7,"y":0,"type":"oar"}],"life":1200,"shape":{"type":"rectangle","width":3.0,"height":8.0,"orientation":0.0}},"visibleEntities":[{"type":"stream","position":{"x":3539.1304347826062,"y":2280.130293159613,"orientation":1.9896753472735356},"shape":{"type":"rectangle","width":350.0,"height":3000.0,"orientation":0.0},"strength":35.0},{"type":"reef","position":{"x":4921.739130434786,"y":4096.091205211728,"orientation":0.0},"shape":{"type":"rectangle","width":1000.0,"height":2500.0,"orientation":0.0}},{"type":"stream","position":{"x":5504.347826086957,"y":2703.5830618892533,"orientation":0.0},"shape":{"type":"rectangle","width":500.0,"height":1750.0,"orientation":0.0},"strength":50.0}],"wind":{"orientation":0.0,"strength":100.0}}
sail need open : true
JSON of actions initialized : [Lfr.unice.polytech.si3.qgl.les_gros_q.objects.actions.Action;@7dc10d90
Next round input: {"ship":{"type":"ship","position":{"x":3955.950981747238,"y":2692.8254286983574,"orientation":-0.008900238705047903},"name":"les_gros_q","deck":{"width":3,"length":8},"entities":[{"x":1,"y":1,"type":"rudder"},{"x":6,"y":0,"type":"oar"},{"x":6,"y":2,"type":"oar"},{"x":5,"y":2,"type":"oar"},{"x":4,"y":2,"type":"oar"},{"x":3,"y":2,"type":"oar"},{"x":3,"y":0,"type":"oar"},{"x":4,"y":0,"type":"oar"},{"x":5,"y":0,"type":"oar"},{"x":6,"y":1,"type":"sail","openned":true},{"x":7,"y":2,"type":"oar"},{"x":7,"y":0,"type":"oar"}],"life":1200,"shape":{"type":"rectangle","width":3.0,"height":8.0,"orientation":0.0}},"visibleEntities":[{"type":"stream","position":{"x":3539.1304347826062,"y":2280.130293159613,"orientation":1.9896753472735356},"shape":{"type":"rectangle","width":350.0,"height":3000.0,"orientation":0.0},"strength":35.0},{"type":"reef","position":{"x":4921.739130434786,"y":4096.091205211728,"orientation":0.0},"shape":{"type":"rectangle","width":1000.0,"height":2500.0,"orientation":0.0}},{"type":"stream","position":{"x":5504.347826086957,"y":2703.5830618892533,"orientation":0.0},"shape":{"type":"rectangle","width":500.0,"height":1750.0,"orientation":0.0},"strength":50.0}],"wind":{"orientation":0.0,"strength":100.0}}
sail need open : true
JSON of actions initialized : [Lfr.unice.polytech.si3.qgl.les_gros_q.objects.actions.Action;@5eb1bb23
Next round input: {"ship":{"type":"ship","position":{"x":4220.936340860891,"y":2690.4519429076936,"orientation":-0.009014515050137093},"name":"les_gros_q","deck":{"width":3,"length":8},"entities":[{"x":1,"y":1,"type":"rudder"},{"x":6,"y":0,"type":"oar"},{"x":6,"y":2,"type":"oar"},{"x":5,"y":2,"type":"oar"},{"x":4,"y":2,"type":"oar"},{"x":3,"y":2,"type":"oar"},{"x":3,"y":0,"type":"oar"},{"x":4,"y":0,"type":"oar"},{"x":5,"y":0,"type":"oar"},{"x":6,"y":1,"type":"sail","openned":true},{"x":7,"y":2,"type":"oar"},{"x":7,"y":0,"type":"oar"}],"life":1200,"shape":{"type":"rectangle","width":3.0,"height":8.0,"orientation":0.0}},"visibleEntities":[{"type":"stream","position":{"x":3539.1304347826062,"y":2280.130293159613,"orientation":1.9896753472735356},"shape":{"type":"rectangle","width":350.0,"height":3000.0,"orientation":0.0},"strength":35.0},{"type":"reef","position":{"x":4921.739130434786,"y":4096.091205211728,"orientation":0.0},"shape":{"type":"rectangle","width":1000.0,"height":2500.0,"orientation":0.0}},{"type":"stream","position":{"x":5504.347826086957,"y":2703.5830618892533,"orientation":0.0},"shape":{"type":"rectangle","width":500.0,"height":1750.0,"orientation":0.0},"strength":50.0}],"wind":{"orientation":0.0,"strength":100.0}}
sail need open : true
JSON of actions initialized : [Lfr.unice.polytech.si3.qgl.les_gros_q.objects.actions.Action;@121f28f
Next round input: {"ship":{"type":"ship","position":{"x":4485.92150461852,"y":2688.062659102972,"orientation":-0.00901837508148096},"name":"les_gros_q","deck":{"width":3,"length":8},"entities":[{"x":1,"y":1,"type":"rudder"},{"x":6,"y":0,"type":"oar"},{"x":6,"y":2,"type":"oar"},{"x":5,"y":2,"type":"oar"},{"x":4,"y":2,"type":"oar"},{"x":3,"y":2,"type":"oar"},{"x":3,"y":0,"type":"oar"},{"x":4,"y":0,"type":"oar"},{"x":5,"y":0,"type":"oar"},{"x":6,"y":1,"type":"sail","openned":true},{"x":7,"y":2,"type":"oar"},{"x":7,"y":0,"type":"oar"}],"life":1200,"shape":{"type":"rectangle","width":3.0,"height":8.0,"orientation":0.0}},"visibleEntities":[{"type":"stream","position":{"x":3539.1304347826062,"y":2280.130293159613,"orientation":1.9896753472735356},"shape":{"type":"rectangle","width":350.0,"height":3000.0,"orientation":0.0},"strength":35.0},{"type":"reef","position":{"x":4921.739130434786,"y":4096.091205211728,"orientation":0.0},"shape":{"type":"rectangle","width":1000.0,"height":2500.0,"orientation":0.0}},{"type":"stream","position":{"x":5504.347826086957,"y":2703.5830618892533,"orientation":0.0},"shape":{"type":"rectangle","width":500.0,"height":1750.0,"orientation":0.0},"strength":50.0}],"wind":{"orientation":0.0,"strength":100.0}}
sail need open : true
JSON of actions initialized : [Lfr.unice.polytech.si3.qgl.les_gros_q.objects.actions.Action;@71041040
Next round input: {"ship":{"type":"ship","position":{"x":4774.406661733055,"y":2685.6728404467754,"orientation":-0.00901851481193126},"name":"les_gros_q","deck":{"width":3,"length":8},"entities":[{"x":1,"y":1,"type":"rudder"},{"x":6,"y":0,"type":"oar"},{"x":6,"y":2,"type":"oar"},{"x":5,"y":2,"type":"oar"},{"x":4,"y":2,"type":"oar"},{"x":3,"y":2,"type":"oar"},{"x":3,"y":0,"type":"oar"},{"x":4,"y":0,"type":"oar"},{"x":5,"y":0,"type":"oar"},{"x":6,"y":1,"type":"sail","openned":true},{"x":7,"y":2,"type":"oar"},{"x":7,"y":0,"type":"oar"}],"life":1200,"shape":{"type":"rectangle","width":3.0,"height":8.0,"orientation":0.0}},"visibleEntities":[{"type":"reef","position":{"x":5400.0,"y":1172.6384364820844,"orientation":0.0},"shape":{"type":"circle","radius":650.0}},{"type":"reef","position":{"x":4921.739130434786,"y":4096.091205211728,"orientation":0.0},"shape":{"type":"rectangle","width":1000.0,"height":2500.0,"orientation":0.0}},{"type":"stream","position":{"x":5504.347826086957,"y":2703.5830618892533,"orientation":0.0},"shape":{"type":"rectangle","width":500.0,"height":1750.0,"orientation":0.0},"strength":50.0}],"wind":{"orientation":0.0,"strength":100.0}}
sail need open : true
JSON of actions initialized : [Lfr.unice.polytech.si3.qgl.les_gros_q.objects.actions.Action;@6359fa4d
Next round input: {"ship":{"type":"ship","position":{"x":5089.391717060249,"y":2683.2748465649483,"orientation":-0.009080700733941665},"name":"les_gros_q","deck":{"width":3,"length":8},"entities":[{"x":1,"y":1,"type":"rudder"},{"x":6,"y":0,"type":"oar"},{"x":6,"y":2,"type":"oar"},{"x":5,"y":2,"type":"oar"},{"x":4,"y":2,"type":"oar"},{"x":3,"y":2,"type":"oar"},{"x":3,"y":0,"type":"oar"},{"x":4,"y":0,"type":"oar"},{"x":5,"y":0,"type":"oar"},{"x":6,"y":1,"type":"sail","openned":true},{"x":7,"y":2,"type":"oar"},{"x":7,"y":0,"type":"oar"}],"life":1200,"shape":{"type":"rectangle","width":3.0,"height":8.0,"orientation":0.0}},"visibleEntities":[{"type":"reef","position":{"x":5400.0,"y":1172.6384364820844,"orientation":0.0},"shape":{"type":"circle","radius":650.0}},{"type":"reef","position":{"x":4921.739130434786,"y":4096.091205211728,"orientation":0.0},"shape":{"type":"rectangle","width":1000.0,"height":2500.0,"orientation":0.0}},{"type":"stream","position":{"x":5504.347826086957,"y":2703.5830618892533,"orientation":0.0},"shape":{"type":"rectangle","width":500.0,"height":1750.0,"orientation":0.0},"strength":50.0}],"wind":{"orientation":0.0,"strength":100.0}}
sail need open : true
JSON of actions initialized : [Lfr.unice.polytech.si3.qgl.les_gros_q.objects.actions.Action;@55eec1e4
Next round input: {"ship":{"type":"ship","position":{"x":5404.376421991172,"y":2680.8489269100055,"orientation":-0.009230166810651686},"name":"les_gros_q","deck":{"width":3,"length":8},"entities":[{"x":1,"y":1,"type":"rudder"},{"x":6,"y":0,"type":"oar"},{"x":6,"y":2,"type":"oar"},{"x":5,"y":2,"type":"oar"},{"x":4,"y":2,"type":"oar"},{"x":3,"y":2,"type":"oar"},{"x":3,"y":0,"type":"oar"},{"x":4,"y":0,"type":"oar"},{"x":5,"y":0,"type":"oar"},{"x":6,"y":1,"type":"sail","openned":true},{"x":7,"y":2,"type":"oar"},{"x":7,"y":0,"type":"oar"}],"life":1200,"shape":{"type":"rectangle","width":3.0,"height":8.0,"orientation":0.0}},"visibleEntities":[{"type":"reef","position":{"x":5400.0,"y":1172.6384364820844,"orientation":0.0},"shape":{"type":"circle","radius":650.0}},{"type":"reef","position":{"x":4921.739130434786,"y":4096.091205211728,"orientation":0.0},"shape":{"type":"rectangle","width":1000.0,"height":2500.0,"orientation":0.0}},{"type":"stream","position":{"x":5504.347826086957,"y":2703.5830618892533,"orientation":0.0},"shape":{"type":"rectangle","width":500.0,"height":1750.0,"orientation":0.0},"strength":50.0}],"wind":{"orientation":0.0,"strength":100.0}}
sail need open : true
JSON of actions initialized : [Lfr.unice.polytech.si3.qgl.les_gros_q.objects.actions.Action;@4d4060d6
Next round input: {"ship":{"type":"ship","position":{"x":5719.360583213592,"y":2678.380275517034,"orientation":-0.009403472149125128},"name":"les_gros_q","deck":{"width":3,"length":8},"entities":[{"x":1,"y":1,"type":"rudder"},{"x":6,"y":0,"type":"oar"},{"x":6,"y":2,"type":"oar"},{"x":5,"y":2,"type":"oar"},{"x":4,"y":2,"type":"oar"},{"x":3,"y":2,"type":"oar"},{"x":3,"y":0,"type":"oar"},{"x":4,"y":0,"type":"oar"},{"x":5,"y":0,"type":"oar"},{"x":6,"y":1,"type":"sail","openned":true},{"x":7,"y":2,"type":"oar"},{"x":7,"y":0,"type":"oar"}],"life":1200,"shape":{"type":"rectangle","width":3.0,"height":8.0,"orientation":0.0}},"visibleEntities":[{"type":"reef","position":{"x":5400.0,"y":1172.6384364820844,"orientation":0.0},"shape":{"type":"circle","radius":650.0}},{"type":"reef","position":{"x":4921.739130434786,"y":4096.091205211728,"orientation":0.0},"shape":{"type":"rectangle","width":1000.0,"height":2500.0,"orientation":0.0}},{"type":"stream","position":{"x":5504.347826086957,"y":2703.5830618892533,"orientation":0.0},"shape":{"type":"rectangle","width":500.0,"height":1750.0,"orientation":0.0},"strength":50.0}],"wind":{"orientation":0.0,"strength":100.0}}
sail need open : true
JSON of actions initialized : [Lfr.unice.polytech.si3.qgl.les_gros_q.objects.actions.Action;@61a1f859
Next round input: {"ship":{"type":"ship","position":{"x":6034.344103254764,"y":2675.862164649068,"orientation":-0.009603750853055055},"name":"les_gros_q","deck":{"width":3,"length":8},"entities":[{"x":1,"y":1,"type":"rudder"},{"x":6,"y":0,"type":"oar"},{"x":6,"y":2,"type":"oar"},{"x":5,"y":2,"type":"oar"},{"x":4,"y":2,"type":"oar"},{"x":3,"y":2,"type":"oar"},{"x":3,"y":0,"type":"oar"},{"x":4,"y":0,"type":"oar"},{"x":5,"y":0,"type":"oar"},{"x":6,"y":1,"type":"sail","openned":true},{"x":7,"y":2,"type":"oar"},{"x":7,"y":0,"type":"oar"}],"life":1200,"shape":{"type":"rectangle","width":3.0,"height":8.0,"orientation":0.0}},"visibleEntities":[{"type":"reef","position":{"x":5400.0,"y":1172.6384364820844,"orientation":0.0},"shape":{"type":"circle","radius":650.0}},{"type":"reef","position":{"x":4921.739130434786,"y":4096.091205211728,"orientation":0.0},"shape":{"type":"rectangle","width":1000.0,"height":2500.0,"orientation":0.0}},{"type":"stream","position":{"x":5504.347826086957,"y":2703.5830618892533,"orientation":0.0},"shape":{"type":"rectangle","width":500.0,"height":1750.0,"orientation":0.0},"strength":50.0}],"wind":{"orientation":0.0,"strength":100.0}}
sail need open : true
JSON of actions initialized : [Lfr.unice.polytech.si3.qgl.les_gros_q.objects.actions.Action;@68ecc133
Next round input: {"ship":{"type":"ship","position":{"x":6349.326858460635,"y":2673.2863018891812,"orientation":-0.009839735502624913},"name":"les_gros_q","deck":{"width":3,"length":8},"entities":[{"x":1,"y":1,"type":"rudder"},{"x":6,"y":0,"type":"oar"},{"x":6,"y":2,"type":"oar"},{"x":5,"y":2,"type":"oar"},{"x":4,"y":2,"type":"oar"},{"x":3,"y":2,"type":"oar"},{"x":3,"y":0,"type":"oar"},{"x":4,"y":0,"type":"oar"},{"x":5,"y":0,"type":"oar"},{"x":6,"y":1,"type":"sail","openned":true},{"x":7,"y":2,"type":"oar"},{"x":7,"y":0,"type":"oar"}],"life":1200,"shape":{"type":"rectangle","width":3.0,"height":8.0,"orientation":0.0}},"visibleEntities":[{"type":"reef","position":{"x":4921.739130434786,"y":4096.091205211728,"orientation":0.0},"shape":{"type":"rectangle","width":1000.0,"height":2500.0,"orientation":0.0}},{"type":"stream","position":{"x":5504.347826086957,"y":2703.5830618892533,"orientation":0.0},"shape":{"type":"rectangle","width":500.0,"height":1750.0,"orientation":0.0},"strength":50.0}],"wind":{"orientation":0.0,"strength":100.0}}
sail need open : true
JSON of actions initialized : [Lfr.unice.polytech.si3.qgl.les_gros_q.objects.actions.Action;@16a04f5
Next round input: {"ship":{"type":"ship","position":{"x":6619.808676564524,"y":2670.6414058588325,"orientation":-0.010125306483457708},"name":"les_gros_q","deck":{"width":3,"length":8},"entities":[{"x":1,"y":1,"type":"rudder"},{"x":6,"y":0,"type":"oar"},{"x":6,"y":2,"type":"oar"},{"x":5,"y":2,"type":"oar"},{"x":4,"y":2,"type":"oar"},{"x":3,"y":2,"type":"oar"},{"x":3,"y":0,"type":"oar"},{"x":4,"y":0,"type":"oar"},{"x":5,"y":0,"type":"oar"},{"x":6,"y":1,"type":"sail","openned":true},{"x":7,"y":2,"type":"oar"},{"x":7,"y":0,"type":"oar"}],"life":1200,"shape":{"type":"rectangle","width":3.0,"height":8.0,"orientation":0.0}},"visibleEntities":[{"type":"stream","position":{"x":5504.347826086957,"y":2703.5830618892533,"orientation":0.0},"shape":{"type":"rectangle","width":500.0,"height":1750.0,"orientation":0.0},"strength":50.0}],"wind":{"orientation":0.0,"strength":100.0}}
sail need open : true
JSON of actions initialized : [Lfr.unice.polytech.si3.qgl.les_gros_q.objects.actions.Action;@17fedcb
Next round input: {"ship":{"type":"ship","position":{"x":6884.789856624621,"y":2667.9504167437526,"orientation":-0.010185390426887857},"name":"les_gros_q","deck":{"width":3,"length":8},"entities":[{"x":1,"y":1,"type":"rudder"},{"x":6,"y":0,"type":"oar"},{"x":6,"y":2,"type":"oar"},{"x":5,"y":2,"type":"oar"},{"x":4,"y":2,"type":"oar"},{"x":3,"y":2,"type":"oar"},{"x":3,"y":0,"type":"oar"},{"x":4,"y":0,"type":"oar"},{"x":5,"y":0,"type":"oar"},{"x":6,"y":1,"type":"sail","openned":true},{"x":7,"y":2,"type":"oar"},{"x":7,"y":0,"type":"oar"}],"life":1200,"shape":{"type":"rectangle","width":3.0,"height":8.0,"orientation":0.0}},"visibleEntities":[{"type":"stream","position":{"x":5504.347826086957,"y":2703.5830618892533,"orientation":0.0},"shape":{"type":"rectangle","width":500.0,"height":1750.0,"orientation":0.0},"strength":50.0}],"wind":{"orientation":0.0,"strength":100.0}}
sail need open : true
JSON of actions initialized : [Lfr.unice.polytech.si3.qgl.les_gros_q.objects.actions.Action;@fdaa03b
Next round input: {"ship":{"type":"ship","position":{"x":7149.770912707503,"y":2665.250575224022,"orientation":-0.01019158555964864},"name":"les_gros_q","deck":{"width":3,"length":8},"entities":[{"x":1,"y":1,"type":"rudder"},{"x":6,"y":0,"type":"oar"},{"x":6,"y":2,"type":"oar"},{"x":5,"y":2,"type":"oar"},{"x":4,"y":2,"type":"oar"},{"x":3,"y":2,"type":"oar"},{"x":3,"y":0,"type":"oar"},{"x":4,"y":0,"type":"oar"},{"x":5,"y":0,"type":"oar"},{"x":6,"y":1,"type":"sail","openned":true},{"x":7,"y":2,"type":"oar"},{"x":7,"y":0,"type":"oar"}],"life":1200,"shape":{"type":"rectangle","width":3.0,"height":8.0,"orientation":0.0}},"visibleEntities":[{"type":"stream","position":{"x":5504.347826086957,"y":2703.5830618892533,"orientation":0.0},"shape":{"type":"rectangle","width":500.0,"height":1750.0,"orientation":0.0},"strength":50.0}],"wind":{"orientation":0.0,"strength":100.0}}
sail need open : true
JSON of actions initialized : [Lfr.unice.polytech.si3.qgl.les_gros_q.objects.actions.Action;@e77d8e3
Next round input: {"ship":{"type":"ship","position":{"x":7414.751955677393,"y":2662.5497994568245,"orientation":-0.010192388206839018},"name":"les_gros_q","deck":{"width":3,"length":8},"entities":[{"x":1,"y":1,"type":"rudder"},{"x":6,"y":0,"type":"oar"},{"x":6,"y":2,"type":"oar"},{"x":5,"y":2,"type":"oar"},{"x":4,"y":2,"type":"oar"},{"x":3,"y":2,"type":"oar"},{"x":3,"y":0,"type":"oar"},{"x":4,"y":0,"type":"oar"},{"x":5,"y":0,"type":"oar"},{"x":6,"y":1,"type":"sail","openned":true},{"x":7,"y":2,"type":"oar"},{"x":7,"y":0,"type":"oar"}],"life":1200,"shape":{"type":"rectangle","width":3.0,"height":8.0,"orientation":0.0}},"visibleEntities":[],"wind":{"orientation":0.0,"strength":100.0}}
sail need open : true
JSON of actions initialized : [Lfr.unice.polytech.si3.qgl.les_gros_q.objects.actions.Action;@2d341c8d
Next round input: {"ship":{"type":"ship","position":{"x":7679.732996881873,"y":2659.848897940743,"orientation":-0.010192528085244405},"name":"les_gros_q","deck":{"width":3,"length":8},"entities":[{"x":1,"y":1,"type":"rudder"},{"x":6,"y":0,"type":"oar"},{"x":6,"y":2,"type":"oar"},{"x":5,"y":2,"type":"oar"},{"x":4,"y":2,"type":"oar"},{"x":3,"y":2,"type":"oar"},{"x":3,"y":0,"type":"oar"},{"x":4,"y":0,"type":"oar"},{"x":5,"y":0,"type":"oar"},{"x":6,"y":1,"type":"sail","openned":true},{"x":7,"y":2,"type":"oar"},{"x":7,"y":0,"type":"oar"}],"life":1200,"shape":{"type":"rectangle","width":3.0,"height":8.0,"orientation":0.0}},"visibleEntities":[],"wind":{"orientation":0.0,"strength":100.0}}
sail need open : true
JSON of actions initialized : [Lfr.unice.polytech.si3.qgl.les_gros_q.objects.actions.Action;@62dd9e48
Next round input: {"ship":{"type":"ship","position":{"x":7944.71403775503,"y":2657.1479728254913,"orientation":-0.010192565306944432},"name":"les_gros_q","deck":{"width":3,"length":8},"entities":[{"x":1,"y":1,"type":"rudder"},{"x":6,"y":0,"type":"oar"},{"x":6,"y":2,"type":"oar"},{"x":5,"y":2,"type":"oar"},{"x":4,"y":2,"type":"oar"},{"x":3,"y":2,"type":"oar"},{"x":3,"y":0,"type":"oar"},{"x":4,"y":0,"type":"oar"},{"x":5,"y":0,"type":"oar"},{"x":6,"y":1,"type":"sail","openned":true},{"x":7,"y":2,"type":"oar"},{"x":7,"y":0,"type":"oar"}],"life":1200,"shape":{"type":"rectangle","width":3.0,"height":8.0,"orientation":0.0}},"visibleEntities":[],"wind":{"orientation":0.0,"strength":100.0}}
sail need open : true
JSON of actions initialized : [Lfr.unice.polytech.si3.qgl.les_gros_q.objects.actions.Action;@5f7647b9
Next round input: {"ship":{"type":"ship","position":{"x":8209.695078519704,"y":2654.4470399834695,"orientation":-0.010192586244101649},"name":"les_gros_q","deck":{"width":3,"length":8},"entities":[{"x":1,"y":1,"type":"rudder"},{"x":6,"y":0,"type":"oar"},{"x":6,"y":2,"type":"oar"},{"x":5,"y":2,"type":"oar"},{"x":4,"y":2,"type":"oar"},{"x":3,"y":2,"type":"oar"},{"x":3,"y":0,"type":"oar"},{"x":4,"y":0,"type":"oar"},{"x":5,"y":0,"type":"oar"},{"x":6,"y":1,"type":"sail","openned":true},{"x":7,"y":2,"type":"oar"},{"x":7,"y":0,"type":"oar"}],"life":1200,"shape":{"type":"rectangle","width":3.0,"height":8.0,"orientation":0.0}},"visibleEntities":[],"wind":{"orientation":0.0,"strength":100.0}}
sail need open : true
JSON of actions initialized : [Lfr.unice.polytech.si3.qgl.les_gros_q.objects.actions.Action;@564baa3a
Next round input: {"ship":{"type":"ship","position":{"x":8279.722754712175,"y":2579.727769199405,"orientation":-2.198263473470107},"name":"les_gros_q","deck":{"width":3,"length":8},"entities":[{"x":1,"y":1,"type":"rudder"},{"x":6,"y":0,"type":"oar"},{"x":6,"y":2,"type":"oar"},{"x":5,"y":2,"type":"oar"},{"x":4,"y":2,"type":"oar"},{"x":3,"y":2,"type":"oar"},{"x":3,"y":0,"type":"oar"},{"x":4,"y":0,"type":"oar"},{"x":5,"y":0,"type":"oar"},{"x":6,"y":1,"type":"sail","openned":true},{"x":7,"y":2,"type":"oar"},{"x":7,"y":0,"type":"oar"}],"life":1200,"shape":{"type":"rectangle","width":3.0,"height":8.0,"orientation":0.0}},"visibleEntities":[],"wind":{"orientation":0.0,"strength":100.0}}
sail need open : true
JSON of actions initialized : [Lfr.unice.polytech.si3.qgl.les_gros_q.objects.actions.Action;@27ba7140
Next round input: {"ship":{"type":"ship","position":{"x":8216.919758305423,"y":2495.049321601732,"orientation":-2.219894888354933},"name":"les_gros_q","deck":{"width":3,"length":8},"entities":[{"x":1,"y":1,"type":"rudder"},{"x":6,"y":0,"type":"oar"},{"x":6,"y":2,"type":"oar"},{"x":5,"y":2,"type":"oar"},{"x":4,"y":2,"type":"oar"},{"x":3,"y":2,"type":"oar"},{"x":3,"y":0,"type":"oar"},{"x":4,"y":0,"type":"oar"},{"x":5,"y":0,"type":"oar"},{"x":6,"y":1,"type":"sail","openned":true},{"x":7,"y":2,"type":"oar"},{"x":7,"y":0,"type":"oar"}],"life":1200,"shape":{"type":"rectangle","width":3.0,"height":8.0,"orientation":0.0}},"visibleEntities":[],"wind":{"orientation":0.0,"strength":100.0}}
sail need open : false
JSON of actions initialized : [Lfr.unice.polytech.si3.qgl.les_gros_q.objects.actions.Action;@3a123c45
Next round input: {"ship":{"type":"ship","position":{"x":8117.165913821691,"y":2363.6180834420807,"orientation":-2.220149043758989},"name":"les_gros_q","deck":{"width":3,"length":8},"entities":[{"x":1,"y":1,"type":"rudder"},{"x":6,"y":0,"type":"oar"},{"x":6,"y":2,"type":"oar"},{"x":5,"y":2,"type":"oar"},{"x":4,"y":2,"type":"oar"},{"x":3,"y":2,"type":"oar"},{"x":3,"y":0,"type":"oar"},{"x":4,"y":0,"type":"oar"},{"x":5,"y":0,"type":"oar"},{"x":6,"y":1,"type":"sail","openned":false},{"x":7,"y":2,"type":"oar"},{"x":7,"y":0,"type":"oar"}],"life":1200,"shape":{"type":"rectangle","width":3.0,"height":8.0,"orientation":0.0}},"visibleEntities":[],"wind":{"orientation":0.0,"strength":100.0}}
sail need open : false
JSON of actions initialized : [Lfr.unice.polytech.si3.qgl.les_gros_q.objects.actions.Action;@5b74bc40
Next round input: {"ship":{"type":"ship","position":{"x":8017.394886258063,"y":2232.199888130912,"orientation":-2.220153880402519},"name":"les_gros_q","deck":{"width":3,"length":8},"entities":[{"x":1,"y":1,"type":"rudder"},{"x":6,"y":0,"type":"oar"},{"x":6,"y":2,"type":"oar"},{"x":5,"y":2,"type":"oar"},{"x":4,"y":2,"type":"oar"},{"x":3,"y":2,"type":"oar"},{"x":3,"y":0,"type":"oar"},{"x":4,"y":0,"type":"oar"},{"x":5,"y":0,"type":"oar"},{"x":6,"y":1,"type":"sail","openned":false},{"x":7,"y":2,"type":"oar"},{"x":7,"y":0,"type":"oar"}],"life":1200,"shape":{"type":"rectangle","width":3.0,"height":8.0,"orientation":0.0}},"visibleEntities":[],"wind":{"orientation":0.0,"strength":100.0}}
sail need open : false
JSON of actions initialized : [Lfr.unice.polytech.si3.qgl.les_gros_q.objects.actions.Action;@21377ce5
Next round input: {"ship":{"type":"ship","position":{"x":7917.6235314830255,"y":2100.7819412349345,"orientation":-2.2201539760494318},"name":"les_gros_q","deck":{"width":3,"length":8},"entities":[{"x":1,"y":1,"type":"rudder"},{"x":6,"y":0,"type":"oar"},{"x":6,"y":2,"type":"oar"},{"x":5,"y":2,"type":"oar"},{"x":4,"y":2,"type":"oar"},{"x":3,"y":2,"type":"oar"},{"x":3,"y":0,"type":"oar"},{"x":4,"y":0,"type":"oar"},{"x":5,"y":0,"type":"oar"},{"x":6,"y":1,"type":"sail","openned":false},{"x":7,"y":2,"type":"oar"},{"x":7,"y":0,"type":"oar"}],"life":1200,"shape":{"type":"rectangle","width":3.0,"height":8.0,"orientation":0.0}},"visibleEntities":[],"wind":{"orientation":0.0,"strength":100.0}}
sail need open : false
JSON of actions initialized : [Lfr.unice.polytech.si3.qgl.les_gros_q.objects.actions.Action;@6d8b8047
Next round input: {"ship":{"type":"ship","position":{"x":7817.852170232225,"y":1969.363999255301,"orientation":-2.220153978017946},"name":"les_gros_q","deck":{"width":3,"length":8},"entities":[{"x":1,"y":1,"type":"rudder"},{"x":6,"y":0,"type":"oar"},{"x":6,"y":2,"type":"oar"},{"x":5,"y":2,"type":"oar"},{"x":4,"y":2,"type":"oar"},{"x":3,"y":2,"type":"oar"},{"x":3,"y":0,"type":"oar"},{"x":4,"y":0,"type":"oar"},{"x":5,"y":0,"type":"oar"},{"x":6,"y":1,"type":"sail","openned":false},{"x":7,"y":2,"type":"oar"},{"x":7,"y":0,"type":"oar"}],"life":1200,"shape":{"type":"rectangle","width":3.0,"height":8.0,"orientation":0.0}},"visibleEntities":[],"wind":{"orientation":0.0,"strength":100.0}}
sail need open : false
JSON of actions initialized : [Lfr.unice.polytech.si3.qgl.les_gros_q.objects.actions.Action;@611a71d
Next round input: {"ship":{"type":"ship","position":{"x":7718.080808848035,"y":1837.946057376936,"orientation":-2.220153978060179},"name":"les_gros_q","deck":{"width":3,"length":8},"entities":[{"x":1,"y":1,"type":"rudder"},{"x":6,"y":0,"type":"oar"},{"x":6,"y":2,"type":"oar"},{"x":5,"y":2,"type":"oar"},{"x":4,"y":2,"type":"oar"},{"x":3,"y":2,"type":"oar"},{"x":3,"y":0,"type":"oar"},{"x":4,"y":0,"type":"oar"},{"x":5,"y":0,"type":"oar"},{"x":6,"y":1,"type":"sail","openned":false},{"x":7,"y":2,"type":"oar"},{"x":7,"y":0,"type":"oar"}],"life":1200,"shape":{"type":"rectangle","width":3.0,"height":8.0,"orientation":0.0}},"visibleEntities":[],"wind":{"orientation":0.0,"strength":100.0}}
sail need open : false
JSON of actions initialized : [Lfr.unice.polytech.si3.qgl.les_gros_q.objects.actions.Action;@1a8bcb16
Next round input: {"ship":{"type":"ship","position":{"x":7618.309447460974,"y":1706.5281155007474,"orientation":-2.220153978061156},"name":"les_gros_q","deck":{"width":3,"length":8},"entities":[{"x":1,"y":1,"type":"rudder"},{"x":6,"y":0,"type":"oar"},{"x":6,"y":2,"type":"oar"},{"x":5,"y":2,"type":"oar"},{"x":4,"y":2,"type":"oar"},{"x":3,"y":2,"type":"oar"},{"x":3,"y":0,"type":"oar"},{"x":4,"y":0,"type":"oar"},{"x":5,"y":0,"type":"oar"},{"x":6,"y":1,"type":"sail","openned":false},{"x":7,"y":2,"type":"oar"},{"x":7,"y":0,"type":"oar"}],"life":1200,"shape":{"type":"rectangle","width":3.0,"height":8.0,"orientation":0.0}},"visibleEntities":[],"wind":{"orientation":0.0,"strength":100.0}}
sail need open : false
JSON of actions initialized : [Lfr.unice.polytech.si3.qgl.les_gros_q.objects.actions.Action;@65f97d64
Next round input: {"ship":{"type":"ship","position":{"x":7518.538086073836,"y":1575.1101736246133,"orientation":-2.220153978061156},"name":"les_gros_q","deck":{"width":3,"length":8},"entities":[{"x":1,"y":1,"type":"rudder"},{"x":6,"y":0,"type":"oar"},{"x":6,"y":2,"type":"oar"},{"x":5,"y":2,"type":"oar"},{"x":4,"y":2,"type":"oar"},{"x":3,"y":2,"type":"oar"},{"x":3,"y":0,"type":"oar"},{"x":4,"y":0,"type":"oar"},{"x":5,"y":0,"type":"oar"},{"x":6,"y":1,"type":"sail","openned":false},{"x":7,"y":2,"type":"oar"},{"x":7,"y":0,"type":"oar"}],"life":1200,"shape":{"type":"rectangle","width":3.0,"height":8.0,"orientation":0.0}},"visibleEntities":[],"wind":{"orientation":0.0,"strength":100.0}}
sail need open : false
JSON of actions initialized : [Lfr.unice.polytech.si3.qgl.les_gros_q.objects.actions.Action;@4831a7e7
Next round input: {"ship":{"type":"ship","position":{"x":7418.766724686698,"y":1443.6922317484791,"orientation":-2.220153978061156},"name":"les_gros_q","deck":{"width":3,"length":8},"entities":[{"x":1,"y":1,"type":"rudder"},{"x":6,"y":0,"type":"oar"},{"x":6,"y":2,"type":"oar"},{"x":5,"y":2,"type":"oar"},{"x":4,"y":2,"type":"oar"},{"x":3,"y":2,"type":"oar"},{"x":3,"y":0,"type":"oar"},{"x":4,"y":0,"type":"oar"},{"x":5,"y":0,"type":"oar"},{"x":6,"y":1,"type":"sail","openned":false},{"x":7,"y":2,"type":"oar"},{"x":7,"y":0,"type":"oar"}],"life":1200,"shape":{"type":"rectangle","width":3.0,"height":8.0,"orientation":0.0}},"visibleEntities":[],"wind":{"orientation":0.0,"strength":100.0}}
sail need open : false
JSON of actions initialized : [Lfr.unice.polytech.si3.qgl.les_gros_q.objects.actions.Action;@3534404e
Next round input: {"ship":{"type":"ship","position":{"x":7318.995363299559,"y":1312.274289872345,"orientation":-2.220153978061156},"name":"les_gros_q","deck":{"width":3,"length":8},"entities":[{"x":1,"y":1,"type":"rudder"},{"x":6,"y":0,"type":"oar"},{"x":6,"y":2,"type":"oar"},{"x":5,"y":2,"type":"oar"},{"x":4,"y":2,"type":"oar"},{"x":3,"y":2,"type":"oar"},{"x":3,"y":0,"type":"oar"},{"x":4,"y":0,"type":"oar"},{"x":5,"y":0,"type":"oar"},{"x":6,"y":1,"type":"sail","openned":false},{"x":7,"y":2,"type":"oar"},{"x":7,"y":0,"type":"oar"}],"life":1200,"shape":{"type":"rectangle","width":3.0,"height":8.0,"orientation":0.0}},"visibleEntities":[],"wind":{"orientation":0.0,"strength":100.0}}
sail need open : false
JSON of actions initialized : [Lfr.unice.polytech.si3.qgl.les_gros_q.objects.actions.Action;@42eface0
Next round input: {"ship":{"type":"ship","position":{"x":7219.224001912421,"y":1180.8563479962108,"orientation":-2.220153978061156},"name":"les_gros_q","deck":{"width":3,"length":8},"entities":[{"x":1,"y":1,"type":"rudder"},{"x":6,"y":0,"type":"oar"},{"x":6,"y":2,"type":"oar"},{"x":5,"y":2,"type":"oar"},{"x":4,"y":2,"type":"oar"},{"x":3,"y":2,"type":"oar"},{"x":3,"y":0,"type":"oar"},{"x":4,"y":0,"type":"oar"},{"x":5,"y":0,"type":"oar"},{"x":6,"y":1,"type":"sail","openned":false},{"x":7,"y":2,"type":"oar"},{"x":7,"y":0,"type":"oar"}],"life":1200,"shape":{"type":"rectangle","width":3.0,"height":8.0,"orientation":0.0}},"visibleEntities":[],"wind":{"orientation":0.0,"strength":100.0}}
sail need open : false
JSON of actions initialized : [Lfr.unice.polytech.si3.qgl.les_gros_q.objects.actions.Action;@6808b659
Next round input: {"ship":{"type":"ship","position":{"x":7119.452640525283,"y":1049.4384061200767,"orientation":-2.220153978061156},"name":"les_gros_q","deck":{"width":3,"length":8},"entities":[{"x":1,"y":1,"type":"rudder"},{"x":6,"y":0,"type":"oar"},{"x":6,"y":2,"type":"oar"},{"x":5,"y":2,"type":"oar"},{"x":4,"y":2,"type":"oar"},{"x":3,"y":2,"type":"oar"},{"x":3,"y":0,"type":"oar"},{"x":4,"y":0,"type":"oar"},{"x":5,"y":0,"type":"oar"},{"x":6,"y":1,"type":"sail","openned":false},{"x":7,"y":2,"type":"oar"},{"x":7,"y":0,"type":"oar"}],"life":1200,"shape":{"type":"rectangle","width":3.0,"height":8.0,"orientation":0.0}},"visibleEntities":[],"wind":{"orientation":0.0,"strength":100.0}}
sail need open : false
JSON of actions initialized : [Lfr.unice.polytech.si3.qgl.les_gros_q.objects.actions.Action;@5d2a9aa6
Next round input: {"ship":{"type":"ship","position":{"x":7019.681279138144,"y":918.0204642439426,"orientation":-2.220153978061156},"name":"les_gros_q","deck":{"width":3,"length":8},"entities":[{"x":1,"y":1,"type":"rudder"},{"x":6,"y":0,"type":"oar"},{"x":6,"y":2,"type":"oar"},{"x":5,"y":2,"type":"oar"},{"x":4,"y":2,"type":"oar"},{"x":3,"y":2,"type":"oar"},{"x":3,"y":0,"type":"oar"},{"x":4,"y":0,"type":"oar"},{"x":5,"y":0,"type":"oar"},{"x":6,"y":1,"type":"sail","openned":false},{"x":7,"y":2,"type":"oar"},{"x":7,"y":0,"type":"oar"}],"life":1200,"shape":{"type":"rectangle","width":3.0,"height":8.0,"orientation":0.0}},"visibleEntities":[{"type":"reef","position":{"x":5400.0,"y":1172.6384364820844,"orientation":0.0},"shape":{"type":"circle","radius":650.0}}],"wind":{"orientation":0.0,"strength":100.0}}
sail need open : false
JSON of actions initialized : [Lfr.unice.polytech.si3.qgl.les_gros_q.objects.actions.Action;@32614a8e
Next round input: {"ship":{"type":"ship","position":{"x":6919.909917751006,"y":786.6025223677974,"orientation":-2.2201539780611115},"name":"les_gros_q","deck":{"width":3,"length":8},"entities":[{"x":1,"y":1,"type":"rudder"},{"x":6,"y":0,"type":"oar"},{"x":6,"y":2,"type":"oar"},{"x":5,"y":2,"type":"oar"},{"x":4,"y":2,"type":"oar"},{"x":3,"y":2,"type":"oar"},{"x":3,"y":0,"type":"oar"},{"x":4,"y":0,"type":"oar"},{"x":5,"y":0,"type":"oar"},{"x":6,"y":1,"type":"sail","openned":false},{"x":7,"y":2,"type":"oar"},{"x":7,"y":0,"type":"oar"}],"life":1200,"shape":{"type":"rectangle","width":3.0,"height":8.0,"orientation":0.0}},"visibleEntities":[{"type":"reef","position":{"x":5400.0,"y":1172.6384364820844,"orientation":0.0},"shape":{"type":"circle","radius":650.0}}],"wind":{"orientation":0.0,"strength":100.0}}
sail need open : false
JSON of actions initialized : [Lfr.unice.polytech.si3.qgl.les_gros_q.objects.actions.Action;@3c0fcceb
Next round input: {"ship":{"type":"ship","position":{"x":6820.138556363868,"y":655.1845804916519,"orientation":-2.2201539780611115},"name":"les_gros_q","deck":{"width":3,"length":8},"entities":[{"x":1,"y":1,"type":"rudder"},{"x":6,"y":0,"type":"oar"},{"x":6,"y":2,"type":"oar"},{"x":5,"y":2,"type":"oar"},{"x":4,"y":2,"type":"oar"},{"x":3,"y":2,"type":"oar"},{"x":3,"y":0,"type":"oar"},{"x":4,"y":0,"type":"oar"},{"x":5,"y":0,"type":"oar"},{"x":6,"y":1,"type":"sail","openned":false},{"x":7,"y":2,"type":"oar"},{"x":7,"y":0,"type":"oar"}],"life":1200,"shape":{"type":"rectangle","width":3.0,"height":8.0,"orientation":0.0}},"visibleEntities":[{"type":"reef","position":{"x":5400.0,"y":1172.6384364820844,"orientation":0.0},"shape":{"type":"circle","radius":650.0}}],"wind":{"orientation":0.0,"strength":100.0}}
sail need open : false
JSON of actions initialized : [Lfr.unice.polytech.si3.qgl.les_gros_q.objects.actions.Action;@6139413b
Next round input: {"ship":{"type":"ship","position":{"x":6720.3671949767295,"y":523.7666386155064,"orientation":-2.2201539780611115},"name":"les_gros_q","deck":{"width":3,"length":8},"entities":[{"x":1,"y":1,"type":"rudder"},{"x":6,"y":0,"type":"oar"},{"x":6,"y":2,"type":"oar"},{"x":5,"y":2,"type":"oar"},{"x":4,"y":2,"type":"oar"},{"x":3,"y":2,"type":"oar"},{"x":3,"y":0,"type":"oar"},{"x":4,"y":0,"type":"oar"},{"x":5,"y":0,"type":"oar"},{"x":6,"y":1,"type":"sail","openned":false},{"x":7,"y":2,"type":"oar"},{"x":7,"y":0,"type":"oar"}],"life":1200,"shape":{"type":"rectangle","width":3.0,"height":8.0,"orientation":0.0}},"visibleEntities":[{"type":"reef","position":{"x":5400.0,"y":1172.6384364820844,"orientation":0.0},"shape":{"type":"circle","radius":650.0}}],"wind":{"orientation":0.0,"strength":100.0}}
sail need open : false
JSON of actions initialized : [Lfr.unice.polytech.si3.qgl.les_gros_q.objects.actions.Action;@1fa86ecf
Next round input: {"ship":{"type":"ship","position":{"x":6620.595833589591,"y":392.3486967393609,"orientation":-2.2201539780611115},"name":"les_gros_q","deck":{"width":3,"length":8},"entities":[{"x":1,"y":1,"type":"rudder"},{"x":6,"y":0,"type":"oar"},{"x":6,"y":2,"type":"oar"},{"x":5,"y":2,"type":"oar"},{"x":4,"y":2,"type":"oar"},{"x":3,"y":2,"type":"oar"},{"x":3,"y":0,"type":"oar"},{"x":4,"y":0,"type":"oar"},{"x":5,"y":0,"type":"oar"},{"x":6,"y":1,"type":"sail","openned":false},{"x":7,"y":2,"type":"oar"},{"x":7,"y":0,"type":"oar"}],"life":1200,"shape":{"type":"rectangle","width":3.0,"height":8.0,"orientation":0.0}},"visibleEntities":[{"type":"reef","position":{"x":5400.0,"y":1172.6384364820844,"orientation":0.0},"shape":{"type":"circle","radius":650.0}}],"wind":{"orientation":0.0,"strength":100.0}}
sail need open : false
JSON of actions initialized : [Lfr.unice.polytech.si3.qgl.les_gros_q.objects.actions.Action;@5d7942bf
Next round input: {"ship":{"type":"ship","position":{"x":6520.824472202453,"y":260.9307548632154,"orientation":-2.2201539780611115},"name":"les_gros_q","deck":{"width":3,"length":8},"entities":[{"x":1,"y":1,"type":"rudder"},{"x":6,"y":0,"type":"oar"},{"x":6,"y":2,"type":"oar"},{"x":5,"y":2,"type":"oar"},{"x":4,"y":2,"type":"oar"},{"x":3,"y":2,"type":"oar"},{"x":3,"y":0,"type":"oar"},{"x":4,"y":0,"type":"oar"},{"x":5,"y":0,"type":"oar"},{"x":6,"y":1,"type":"sail","openned":false},{"x":7,"y":2,"type":"oar"},{"x":7,"y":0,"type":"oar"}],"life":1200,"shape":{"type":"rectangle","width":3.0,"height":8.0,"orientation":0.0}},"visibleEntities":[{"type":"reef","position":{"x":5400.0,"y":1172.6384364820844,"orientation":0.0},"shape":{"type":"circle","radius":650.0}}],"wind":{"orientation":0.0,"strength":100.0}}
sail need open : false
JSON of actions initialized : [Lfr.unice.polytech.si3.qgl.les_gros_q.objects.actions.Action;@69ca1a9f
Next round input: {"ship":{"type":"ship","position":{"x":6421.0531108153145,"y":129.51281298706988,"orientation":-2.2201539780611115},"name":"les_gros_q","deck":{"width":3,"length":8},"entities":[{"x":1,"y":1,"type":"rudder"},{"x":6,"y":0,"type":"oar"},{"x":6,"y":2,"type":"oar"},{"x":5,"y":2,"type":"oar"},{"x":4,"y":2,"type":"oar"},{"x":3,"y":2,"type":"oar"},{"x":3,"y":0,"type":"oar"},{"x":4,"y":0,"type":"oar"},{"x":5,"y":0,"type":"oar"},{"x":6,"y":1,"type":"sail","openned":false},{"x":7,"y":2,"type":"oar"},{"x":7,"y":0,"type":"oar"}],"life":1200,"shape":{"type":"rectangle","width":3.0,"height":8.0,"orientation":0.0}},"visibleEntities":[{"type":"reef","position":{"x":5400.0,"y":1172.6384364820844,"orientation":0.0},"shape":{"type":"circle","radius":650.0}}],"wind":{"orientation":0.0,"strength":100.0}}
sail need open : false
JSON of actions initialized : [Lfr.unice.polytech.si3.qgl.les_gros_q.objects.actions.Action;@5f824ff3
Next round input: {"ship":{"type":"ship","position":{"x":6321.281749428176,"y":-1.905128889076405,"orientation":-2.220153978061067},"name":"les_gros_q","deck":{"width":3,"length":8},"entities":[{"x":1,"y":1,"type":"rudder"},{"x":6,"y":0,"type":"oar"},{"x":6,"y":2,"type":"oar"},{"x":5,"y":2,"type":"oar"},{"x":4,"y":2,"type":"oar"},{"x":3,"y":2,"type":"oar"},{"x":3,"y":0,"type":"oar"},{"x":4,"y":0,"type":"oar"},{"x":5,"y":0,"type":"oar"},{"x":6,"y":1,"type":"sail","openned":false},{"x":7,"y":2,"type":"oar"},{"x":7,"y":0,"type":"oar"}],"life":1200,"shape":{"type":"rectangle","width":3.0,"height":8.0,"orientation":0.0}},"visibleEntities":[{"type":"reef","position":{"x":5400.0,"y":1172.6384364820844,"orientation":0.0},"shape":{"type":"circle","radius":650.0}}],"wind":{"orientation":0.0,"strength":100.0}}
sail need open : false
JSON of actions initialized : [Lfr.unice.polytech.si3.qgl.les_gros_q.objects.actions.Action;@3fc35af
Next round input: {"ship":{"type":"ship","position":{"x":6233.643006916138,"y":-35.67716426193361,"orientation":-3.338579473581215},"name":"les_gros_q","deck":{"width":3,"length":8},"entities":[{"x":1,"y":1,"type":"rudder"},{"x":6,"y":0,"type":"oar"},{"x":6,"y":2,"type":"oar"},{"x":5,"y":2,"type":"oar"},{"x":4,"y":2,"type":"oar"},{"x":3,"y":2,"type":"oar"},{"x":3,"y":0,"type":"oar"},{"x":4,"y":0,"type":"oar"},{"x":5,"y":0,"type":"oar"},{"x":6,"y":1,"type":"sail","openned":false},{"x":7,"y":2,"type":"oar"},{"x":7,"y":0,"type":"oar"}],"life":1200,"shape":{"type":"rectangle","width":3.0,"height":8.0,"orientation":0.0}},"visibleEntities":[{"type":"reef","position":{"x":5400.0,"y":1172.6384364820844,"orientation":0.0},"shape":{"type":"circle","radius":650.0}}],"wind":{"orientation":0.0,"strength":100.0}}
sail need open : false
JSON of actions initialized : [Lfr.unice.polytech.si3.qgl.les_gros_q.objects.actions.Action;@47dbcbe4
Next round input: {"ship":{"type":"ship","position":{"x":6072.28927081381,"y":-1.2056196424658192,"orientation":-3.365829302536604},"name":"les_gros_q","deck":{"width":3,"length":8},"entities":[{"x":1,"y":1,"type":"rudder"},{"x":6,"y":0,"type":"oar"},{"x":6,"y":2,"type":"oar"},{"x":5,"y":2,"type":"oar"},{"x":4,"y":2,"type":"oar"},{"x":3,"y":2,"type":"oar"},{"x":3,"y":0,"type":"oar"},{"x":4,"y":0,"type":"oar"},{"x":5,"y":0,"type":"oar"},{"x":6,"y":1,"type":"sail","openned":false},{"x":7,"y":2,"type":"oar"},{"x":7,"y":0,"type":"oar"}],"life":1200,"shape":{"type":"rectangle","width":3.0,"height":8.0,"orientation":0.0}},"visibleEntities":[{"type":"reef","position":{"x":5400.0,"y":1172.6384364820844,"orientation":0.0},"shape":{"type":"circle","radius":650.0}}],"wind":{"orientation":0.0,"strength":100.0}}
sail need open : false
JSON of actions initialized : [Lfr.unice.polytech.si3.qgl.les_gros_q.objects.actions.Action;@481980b0
Next round input: {"ship":{"type":"ship","position":{"x":5911.44478067106,"y":35.59174232501444,"orientation":-3.3671807008771695},"name":"les_gros_q","deck":{"width":3,"length":8},"entities":[{"x":1,"y":1,"type":"rudder"},{"x":6,"y":0,"type":"oar"},{"x":6,"y":2,"type":"oar"},{"x":5,"y":2,"type":"oar"},{"x":4,"y":2,"type":"oar"},{"x":3,"y":2,"type":"oar"},{"x":3,"y":0,"type":"oar"},{"x":4,"y":0,"type":"oar"},{"x":5,"y":0,"type":"oar"},{"x":6,"y":1,"type":"sail","openned":false},{"x":7,"y":2,"type":"oar"},{"x":7,"y":0,"type":"oar"}],"life":1200,"shape":{"type":"rectangle","width":3.0,"height":8.0,"orientation":0.0}},"visibleEntities":[{"type":"reef","position":{"x":5400.0,"y":1172.6384364820844,"orientation":0.0},"shape":{"type":"circle","radius":650.0}}],"wind":{"orientation":0.0,"strength":100.0}}
sail need open : false
JSON of actions initialized : [Lfr.unice.polytech.si3.qgl.les_gros_q.objects.actions.Action;@20760dfe
Next round input: {"ship":{"type":"ship","position":{"x":5750.626786291375,"y":72.50478434494919,"orientation":-3.367255024084536},"name":"les_gros_q","deck":{"width":3,"length":8},"entities":[{"x":1,"y":1,"type":"rudder"},{"x":6,"y":0,"type":"oar"},{"x":6,"y":2,"type":"oar"},{"x":5,"y":2,"type":"oar"},{"x":4,"y":2,"type":"oar"},{"x":3,"y":2,"type":"oar"},{"x":3,"y":0,"type":"oar"},{"x":4,"y":0,"type":"oar"},{"x":5,"y":0,"type":"oar"},{"x":6,"y":1,"type":"sail","openned":false},{"x":7,"y":2,"type":"oar"},{"x":7,"y":0,"type":"oar"}],"life":1200,"shape":{"type":"rectangle","width":3.0,"height":8.0,"orientation":0.0}},"visibleEntities":[{"type":"reef","position":{"x":5400.0,"y":1172.6384364820844,"orientation":0.0},"shape":{"type":"circle","radius":650.0}}],"wind":{"orientation":0.0,"strength":100.0}}
sail need open : false
JSON of actions initialized : [Lfr.unice.polytech.si3.qgl.les_gros_q.objects.actions.Action;@730c231e
Next round input: {"ship":{"type":"ship","position":{"x":5589.81026128352,"y":109.4242275199146,"orientation":-3.367259611222494},"name":"les_gros_q","deck":{"width":3,"length":8},"entities":[{"x":1,"y":1,"type":"rudder"},{"x":6,"y":0,"type":"oar"},{"x":6,"y":2,"type":"oar"},{"x":5,"y":2,"type":"oar"},{"x":4,"y":2,"type":"oar"},{"x":3,"y":2,"type":"oar"},{"x":3,"y":0,"type":"oar"},{"x":4,"y":0,"type":"oar"},{"x":5,"y":0,"type":"oar"},{"x":6,"y":1,"type":"sail","openned":false},{"x":7,"y":2,"type":"oar"},{"x":7,"y":0,"type":"oar"}],"life":1200,"shape":{"type":"rectangle","width":3.0,"height":8.0,"orientation":0.0}},"visibleEntities":[{"type":"reef","position":{"x":5400.0,"y":1172.6384364820844,"orientation":0.0},"shape":{"type":"circle","radius":650.0}}],"wind":{"orientation":0.0,"strength":100.0}}
sail need open : false
JSON of actions initialized : [Lfr.unice.polytech.si3.qgl.les_gros_q.objects.actions.Action;@7c208647
Next round input: {"ship":{"type":"ship","position":{"x":5428.9938276943685,"y":146.34406890182998,"orientation":-3.3672599337532962},"name":"les_gros_q","deck":{"width":3,"length":8},"entities":[{"x":1,"y":1,"type":"rudder"},{"x":6,"y":0,"type":"oar"},{"x":6,"y":2,"type":"oar"},{"x":5,"y":2,"type":"oar"},{"x":4,"y":2,"type":"oar"},{"x":3,"y":2,"type":"oar"},{"x":3,"y":0,"type":"oar"},{"x":4,"y":0,"type":"oar"},{"x":5,"y":0,"type":"oar"},{"x":6,"y":1,"type":"sail","openned":false},{"x":7,"y":2,"type":"oar"},{"x":7,"y":0,"type":"oar"}],"life":1200,"shape":{"type":"rectangle","width":3.0,"height":8.0,"orientation":0.0}},"visibleEntities":[{"type":"reef","position":{"x":5400.0,"y":1172.6384364820844,"orientation":0.0},"shape":{"type":"circle","radius":650.0}}],"wind":{"orientation":0.0,"strength":100.0}}
sail need open : false
JSON of actions initialized : [Lfr.unice.polytech.si3.qgl.les_gros_q.objects.actions.Action;@14f2acb9
Next round input: {"ship":{"type":"ship","position":{"x":5268.177400600132,"y":183.2639385744628,"orientation":-3.3672599600992883},"name":"les_gros_q","deck":{"width":3,"length":8},"entities":[{"x":1,"y":1,"type":"rudder"},{"x":6,"y":0,"type":"oar"},{"x":6,"y":2,"type":"oar"},{"x":5,"y":2,"type":"oar"},{"x":4,"y":2,"type":"oar"},{"x":3,"y":2,"type":"oar"},{"x":3,"y":0,"type":"oar"},{"x":4,"y":0,"type":"oar"},{"x":5,"y":0,"type":"oar"},{"x":6,"y":1,"type":"sail","openned":false},{"x":7,"y":2,"type":"oar"},{"x":7,"y":0,"type":"oar"}],"life":1200,"shape":{"type":"rectangle","width":3.0,"height":8.0,"orientation":0.0}},"visibleEntities":[{"type":"reef","position":{"x":5400.0,"y":1172.6384364820844,"orientation":0.0},"shape":{"type":"circle","radius":650.0}}],"wind":{"orientation":0.0,"strength":100.0}}
sail need open : false
JSON of actions initialized : [Lfr.unice.polytech.si3.qgl.les_gros_q.objects.actions.Action;@3c1c303b
Next round input: {"ship":{"type":"ship","position":{"x":5107.360974044025,"y":220.18381059108722,"orientation":-3.367259962666657},"name":"les_gros_q","deck":{"width":3,"length":8},"entities":[{"x":1,"y":1,"type":"rudder"},{"x":6,"y":0,"type":"oar"},{"x":6,"y":2,"type":"oar"},{"x":5,"y":2,"type":"oar"},{"x":4,"y":2,"type":"oar"},{"x":3,"y":2,"type":"oar"},{"x":3,"y":0,"type":"oar"},{"x":4,"y":0,"type":"oar"},{"x":5,"y":0,"type":"oar"},{"x":6,"y":1,"type":"sail","openned":false},{"x":7,"y":2,"type":"oar"},{"x":7,"y":0,"type":"oar"}],"life":1200,"shape":{"type":"rectangle","width":3.0,"height":8.0,"orientation":0.0}},"visibleEntities":[{"type":"reef","position":{"x":5400.0,"y":1172.6384364820844,"orientation":0.0},"shape":{"type":"circle","radius":650.0}}],"wind":{"orientation":0.0,"strength":100.0}}
sail need open : false
JSON of actions initialized : [Lfr.unice.polytech.si3.qgl.les_gros_q.objects.actions.Action;@48dea97e
Next round input: {"ship":{"type":"ship","position":{"x":4946.54454754145,"y":257.10368284088884,"orientation":-3.367259962976631},"name":"les_gros_q","deck":{"width":3,"length":8},"entities":[{"x":1,"y":1,"type":"rudder"},{"x":6,"y":0,"type":"oar"},{"x":6,"y":2,"type":"oar"},{"x":5,"y":2,"type":"oar"},{"x":4,"y":2,"type":"oar"},{"x":3,"y":2,"type":"oar"},{"x":3,"y":0,"type":"oar"},{"x":4,"y":0,"type":"oar"},{"x":5,"y":0,"type":"oar"},{"x":6,"y":1,"type":"sail","openned":false},{"x":7,"y":2,"type":"oar"},{"x":7,"y":0,"type":"oar"}],"life":1200,"shape":{"type":"rectangle","width":3.0,"height":8.0,"orientation":0.0}},"visibleEntities":[{"type":"reef","position":{"x":5400.0,"y":1172.6384364820844,"orientation":0.0},"shape":{"type":"circle","radius":650.0}},{"type":"stream","position":{"x":3539.1304347826062,"y":2280.130293159613,"orientation":1.9896753472735356},"shape":{"type":"rectangle","width":350.0,"height":3000.0,"orientation":0.0},"strength":35.0}],"wind":{"orientation":0.0,"strength":100.0}}
sail need open : false
JSON of actions initialized : [Lfr.unice.polytech.si3.qgl.les_gros_q.objects.actions.Action;@5ed12417
Next round input: {"ship":{"type":"ship","position":{"x":4785.728121045547,"y":294.02355511978107,"orientation":-3.367259963025836},"name":"les_gros_q","deck":{"width":3,"length":8},"entities":[{"x":1,"y":1,"type":"rudder"},{"x":6,"y":0,"type":"oar"},{"x":6,"y":2,"type":"oar"},{"x":5,"y":2,"type":"oar"},{"x":4,"y":2,"type":"oar"},{"x":3,"y":2,"type":"oar"},{"x":3,"y":0,"type":"oar"},{"x":4,"y":0,"type":"oar"},{"x":5,"y":0,"type":"oar"},{"x":6,"y":1,"type":"sail","openned":false},{"x":7,"y":2,"type":"oar"},{"x":7,"y":0,"type":"oar"}],"life":1200,"shape":{"type":"rectangle","width":3.0,"height":8.0,"orientation":0.0}},"visibleEntities":[{"type":"reef","position":{"x":5400.0,"y":1172.6384364820844,"orientation":0.0},"shape":{"type":"circle","radius":650.0}},{"type":"stream","position":{"x":3539.1304347826062,"y":2280.130293159613,"orientation":1.9896753472735356},"shape":{"type":"rectangle","width":350.0,"height":3000.0,"orientation":0.0},"strength":35.0}],"wind":{"orientation":0.0,"strength":100.0}}
sail need open : false
JSON of actions initialized : [Lfr.unice.polytech.si3.qgl.les_gros_q.objects.actions.Action;@6aeba004
Next round input: {"ship":{"type":"ship","position":{"x":4624.911694550774,"y":330.94342740357786,"orientation":-3.3672599630372493},"name":"les_gros_q","deck":{"width":3,"length":8},"entities":[{"x":1,"y":1,"type":"rudder"},{"x":6,"y":0,"type":"oar"},{"x":6,"y":2,"type":"oar"},{"x":5,"y":2,"type":"oar"},{"x":4,"y":2,"type":"oar"},{"x":3,"y":2,"type":"oar"},{"x":3,"y":0,"type":"oar"},{"x":4,"y":0,"type":"oar"},{"x":5,"y":0,"type":"oar"},{"x":6,"y":1,"type":"sail","openned":false},{"x":7,"y":2,"type":"oar"},{"x":7,"y":0,"type":"oar"}],"life":1200,"shape":{"type":"rectangle","width":3.0,"height":8.0,"orientation":0.0}},"visibleEntities":[{"type":"reef","position":{"x":5400.0,"y":1172.6384364820844,"orientation":0.0},"shape":{"type":"circle","radius":650.0}},{"type":"stream","position":{"x":3539.1304347826062,"y":2280.130293159613,"orientation":1.9896753472735356},"shape":{"type":"rectangle","width":350.0,"height":3000.0,"orientation":0.0},"strength":35.0}],"wind":{"orientation":0.0,"strength":100.0}}
sail need open : false
JSON of actions initialized : [Lfr.unice.polytech.si3.qgl.les_gros_q.objects.actions.Action;@5cf3dfd6
Next round input: {"ship":{"type":"ship","position":{"x":4537.039339548708,"y":399.95686411146073,"orientation":-4.256344694213255},"name":"les_gros_q","deck":{"width":3,"length":8},"entities":[{"x":1,"y":1,"type":"rudder"},{"x":6,"y":0,"type":"oar"},{"x":6,"y":2,"type":"oar"},{"x":5,"y":2,"type":"oar"},{"x":4,"y":2,"type":"oar"},{"x":3,"y":2,"type":"oar"},{"x":3,"y":0,"type":"oar"},{"x":4,"y":0,"type":"oar"},{"x":5,"y":0,"type":"oar"},{"x":6,"y":1,"type":"sail","openned":false},{"x":7,"y":2,"type":"oar"},{"x":7,"y":0,"type":"oar"}],"life":1200,"shape":{"type":"rectangle","width":3.0,"height":8.0,"orientation":0.0}},"visibleEntities":[{"type":"reef","position":{"x":5400.0,"y":1172.6384364820844,"orientation":0.0},"shape":{"type":"circle","radius":650.0}},{"type":"stream","position":{"x":3539.1304347826062,"y":2280.130293159613,"orientation":1.9896753472735356},"shape":{"type":"rectangle","width":350.0,"height":3000.0,"orientation":0.0},"strength":35.0}],"wind":{"orientation":0.0,"strength":100.0}}
sail need open : false
JSON of actions initialized : [Lfr.unice.polytech.si3.qgl.les_gros_q.objects.actions.Action;@67553323
Next round input: {"ship":{"type":"ship","position":{"x":4464.9670123557335,"y":548.3833824190433,"orientation":-4.264430494001648},"name":"les_gros_q","deck":{"width":3,"length":8},"entities":[{"x":1,"y":1,"type":"rudder"},{"x":6,"y":0,"type":"oar"},{"x":6,"y":2,"type":"oar"},{"x":5,"y":2,"type":"oar"},{"x":4,"y":2,"type":"oar"},{"x":3,"y":2,"type":"oar"},{"x":3,"y":0,"type":"oar"},{"x":4,"y":0,"type":"oar"},{"x":5,"y":0,"type":"oar"},{"x":6,"y":1,"type":"sail","openned":false},{"x":7,"y":2,"type":"oar"},{"x":7,"y":0,"type":"oar"}],"life":1200,"shape":{"type":"rectangle","width":3.0,"height":8.0,"orientation":0.0}},"visibleEntities":[{"type":"reef","position":{"x":5400.0,"y":1172.6384364820844,"orientation":0.0},"shape":{"type":"circle","radius":650.0}},{"type":"stream","position":{"x":3539.1304347826062,"y":2280.130293159613,"orientation":1.9896753472735356},"shape":{"type":"rectangle","width":350.0,"height":3000.0,"orientation":0.0},"strength":35.0}],"wind":{"orientation":0.0,"strength":100.0}}
sail need open : false
JSON of actions initialized : [Lfr.unice.polytech.si3.qgl.les_gros_q.objects.actions.Action;@6482ed7d
Next round input: {"ship":{"type":"ship","position":{"x":4393.5096671737665,"y":697.1074483575435,"orientation":-4.264545999025327},"name":"les_gros_q","deck":{"width":3,"length":8},"entities":[{"x":1,"y":1,"type":"rudder"},{"x":6,"y":0,"type":"oar"},{"x":6,"y":2,"type":"oar"},{"x":5,"y":2,"type":"oar"},{"x":4,"y":2,"type":"oar"},{"x":3,"y":2,"type":"oar"},{"x":3,"y":0,"type":"oar"},{"x":4,"y":0,"type":"oar"},{"x":5,"y":0,"type":"oar"},{"x":6,"y":1,"type":"sail","openned":false},{"x":7,"y":2,"type":"oar"},{"x":7,"y":0,"type":"oar"}],"life":1200,"shape":{"type":"rectangle","width":3.0,"height":8.0,"orientation":0.0}},"visibleEntities":[{"type":"reef","position":{"x":5400.0,"y":1172.6384364820844,"orientation":0.0},"shape":{"type":"circle","radius":650.0}},{"type":"stream","position":{"x":3539.1304347826062,"y":2280.130293159613,"orientation":1.9896753472735356},"shape":{"type":"rectangle","width":350.0,"height":3000.0,"orientation":0.0},"strength":35.0}],"wind":{"orientation":0.0,"strength":100.0}}
sail need open : false
JSON of actions initialized : [Lfr.unice.polytech.si3.qgl.les_gros_q.objects.actions.Action;@25137dcf
Next round input: {"ship":{"type":"ship","position":{"x":4322.06112216309,"y":845.8357422893005,"orientation":-4.264547697046873},"name":"les_gros_q","deck":{"width":3,"length":8},"entities":[{"x":1,"y":1,"type":"rudder"},{"x":6,"y":0,"type":"oar"},{"x":6,"y":2,"type":"oar"},{"x":5,"y":2,"type":"oar"},{"x":4,"y":2,"type":"oar"},{"x":3,"y":2,"type":"oar"},{"x":3,"y":0,"type":"oar"},{"x":4,"y":0,"type":"oar"},{"x":5,"y":0,"type":"oar"},{"x":6,"y":1,"type":"sail","openned":false},{"x":7,"y":2,"type":"oar"},{"x":7,"y":0,"type":"oar"}],"life":1200,"shape":{"type":"rectangle","width":3.0,"height":8.0,"orientation":0.0}},"visibleEntities":[{"type":"reef","position":{"x":5400.0,"y":1172.6384364820844,"orientation":0.0},"shape":{"type":"circle","radius":650.0}},{"type":"stream","position":{"x":3539.1304347826062,"y":2280.130293159613,"orientation":1.9896753472735356},"shape":{"type":"rectangle","width":350.0,"height":3000.0,"orientation":0.0},"strength":35.0}],"wind":{"orientation":0.0,"strength":100.0}}
sail need open : false
JSON of actions initialized : [Lfr.unice.polytech.si3.qgl.les_gros_q.objects.actions.Action;@14b01eee
Next round input: {"ship":{"type":"ship","position":{"x":4247.1961187780735,"y":1002.2378802417219,"orientation":-4.264547722757684},"name":"les_gros_q","deck":{"width":3,"length":8},"entities":[{"x":1,"y":1,"type":"rudder"},{"x":6,"y":0,"type":"oar"},{"x":6,"y":2,"type":"oar"},{"x":5,"y":2,"type":"oar"},{"x":4,"y":2,"type":"oar"},{"x":3,"y":2,"type":"oar"},{"x":3,"y":0,"type":"oar"},{"x":4,"y":0,"type":"oar"},{"x":5,"y":0,"type":"oar"},{"x":6,"y":1,"type":"sail","openned":false},{"x":7,"y":2,"type":"oar"},{"x":7,"y":0,"type":"oar"}],"life":1200,"shape":{"type":"rectangle","width":3.0,"height":8.0,"orientation":0.0}},"visibleEntities":[{"type":"reef","position":{"x":5400.0,"y":1172.6384364820844,"orientation":0.0},"shape":{"type":"circle","radius":650.0}},{"type":"stream","position":{"x":3539.1304347826062,"y":2280.130293159613,"orientation":1.9896753472735356},"shape":{"type":"rectangle","width":350.0,"height":3000.0,"orientation":0.0},"strength":35.0}],"wind":{"orientation":0.0,"strength":100.0}}
sail need open : false
JSON of actions initialized : [Lfr.unice.polytech.si3.qgl.les_gros_q.objects.actions.Action;@65169cd2
Next round input: {"ship":{"type":"ship","position":{"x":4161.508562578571,"y":1182.9387140850058,"orientation":-4.26450208244722},"name":"les_gros_q","deck":{"width":3,"length":8},"entities":[{"x":1,"y":1,"type":"rudder"},{"x":6,"y":0,"type":"oar"},{"x":6,"y":2,"type":"oar"},{"x":5,"y":2,"type":"oar"},{"x":4,"y":2,"type":"oar"},{"x":3,"y":2,"type":"oar"},{"x":3,"y":0,"type":"oar"},{"x":4,"y":0,"type":"oar"},{"x":5,"y":0,"type":"oar"},{"x":6,"y":1,"type":"sail","openned":false},{"x":7,"y":2,"type":"oar"},{"x":7,"y":0,"type":"oar"}],"life":1200,"shape":{"type":"rectangle","width":3.0,"height":8.0,"orientation":0.0}},"visibleEntities":[{"type":"reef","position":{"x":5400.0,"y":1172.6384364820844,"orientation":0.0},"shape":{"type":"circle","radius":650.0}},{"type":"stream","position":{"x":3539.1304347826062,"y":2280.130293159613,"orientation":1.9896753472735356},"shape":{"type":"rectangle","width":350.0,"height":3000.0,"orientation":0.0},"strength":35.0}],"wind":{"orientation":0.0,"strength":100.0}}
sail need open : false
JSON of actions initialized : [Lfr.unice.polytech.si3.qgl.les_gros_q.objects.actions.Action;@750959ca
Next round input: {"ship":{"type":"ship","position":{"x":4075.802955561319,"y":1363.6308742637918,"orientation":-4.264303446200835},"name":"les_gros_q","deck":{"width":3,"length":8},"entities":[{"x":1,"y":1,"type":"rudder"},{"x":6,"y":0,"type":"oar"},{"x":6,"y":2,"type":"oar"},{"x":5,"y":2,"type":"oar"},{"x":4,"y":2,"type":"oar"},{"x":3,"y":2,"type":"oar"},{"x":3,"y":0,"type":"oar"},{"x":4,"y":0,"type":"oar"},{"x":5,"y":0,"type":"oar"},{"x":6,"y":1,"type":"sail","openned":false},{"x":7,"y":2,"type":"oar"},{"x":7,"y":0,"type":"oar"}],"life":1200,"shape":{"type":"rectangle","width":3.0,"height":8.0,"orientation":0.0}},"visibleEntities":[{"type":"reef","position":{"x":5400.0,"y":1172.6384364820844,"orientation":0.0},"shape":{"type":"circle","radius":650.0}},{"type":"stream","position":{"x":3539.1304347826062,"y":2280.130293159613,"orientation":1.9896753472735356},"shape":{"type":"rectangle","width":350.0,"height":3000.0,"orientation":0.0},"strength":35.0}],"wind":{"orientation":0.0,"strength":100.0}}
sail need open : false
JSON of actions initialized : [Lfr.unice.polytech.si3.qgl.les_gros_q.objects.actions.Action;@8e9439b
Next round input: {"ship":{"type":"ship","position":{"x":3990.066921900208,"y":1544.3084083627782,"orientation":-4.264092756020244},"name":"les_gros_q","deck":{"width":3,"length":8},"entities":[{"x":1,"y":1,"type":"rudder"},{"x":6,"y":0,"type":"oar"},{"x":6,"y":2,"type":"oar"},{"x":5,"y":2,"type":"oar"},{"x":4,"y":2,"type":"oar"},{"x":3,"y":2,"type":"oar"},{"x":3,"y":0,"type":"oar"},{"x":4,"y":0,"type":"oar"},{"x":5,"y":0,"type":"oar"},{"x":6,"y":1,"type":"sail","openned":false},{"x":7,"y":2,"type":"oar"},{"x":7,"y":0,"type":"oar"}],"life":1200,"shape":{"type":"rectangle","width":3.0,"height":8.0,"orientation":0.0}},"visibleEntities":[{"type":"reef","position":{"x":5400.0,"y":1172.6384364820844,"orientation":0.0},"shape":{"type":"circle","radius":650.0}},{"type":"stream","position":{"x":3539.1304347826062,"y":2280.130293159613,"orientation":1.9896753472735356},"shape":{"type":"rectangle","width":350.0,"height":3000.0,"orientation":0.0},"strength":35.0}],"wind":{"orientation":0.0,"strength":100.0}}
sail need open : false
JSON of actions initialized : [Lfr.unice.polytech.si3.qgl.les_gros_q.objects.actions.Action;@6cf0a522
Next round input: {"ship":{"type":"ship","position":{"x":3904.298773474653,"y":1724.9704965926169,"orientation":-4.263871386449126},"name":"les_gros_q","deck":{"width":3,"length":8},"entities":[{"x":1,"y":1,"type":"rudder"},{"x":6,"y":0,"type":"oar"},{"x":6,"y":2,"type":"oar"},{"x":5,"y":2,"type":"oar"},{"x":4,"y":2,"type":"oar"},{"x":3,"y":2,"type":"oar"},{"x":3,"y":0,"type":"oar"},{"x":4,"y":0,"type":"oar"},{"x":5,"y":0,"type":"oar"},{"x":6,"y":1,"type":"sail","openned":false},{"x":7,"y":2,"type":"oar"},{"x":7,"y":0,"type":"oar"}],"life":1200,"shape":{"type":"rectangle","width":3.0,"height":8.0,"orientation":0.0}},"visibleEntities":[{"type":"reef","position":{"x":5400.0,"y":1172.6384364820844,"orientation":0.0},"shape":{"type":"circle","radius":650.0}},{"type":"stream","position":{"x":3539.1304347826062,"y":2280.130293159613,"orientation":1.9896753472735356},"shape":{"type":"rectangle","width":350.0,"height":3000.0,"orientation":0.0},"strength":35.0}],"wind":{"orientation":0.0,"strength":100.0}}
sail need open : false
JSON of actions initialized : [Lfr.unice.polytech.si3.qgl.les_gros_q.objects.actions.Action;@4ffca8bc
Next round input: {"ship":{"type":"ship","position":{"x":3818.49685229136,"y":1905.6163323091305,"orientation":-4.2636383373317885},"name":"les_gros_q","deck":{"width":3,"length":8},"entities":[{"x":1,"y":1,"type":"rudder"},{"x":6,"y":0,"type":"oar"},{"x":6,"y":2,"type":"oar"},{"x":5,"y":2,"type":"oar"},{"x":4,"y":2,"type":"oar"},{"x":3,"y":2,"type":"oar"},{"x":3,"y":0,"type":"oar"},{"x":4,"y":0,"type":"oar"},{"x":5,"y":0,"type":"oar"},{"x":6,"y":1,"type":"sail","openned":false},{"x":7,"y":2,"type":"oar"},{"x":7,"y":0,"type":"oar"}],"life":1200,"shape":{"type":"rectangle","width":3.0,"height":8.0,"orientation":0.0}},"visibleEntities":[{"type":"stream","position":{"x":3539.1304347826062,"y":2280.130293159613,"orientation":1.9896753472735356},"shape":{"type":"rectangle","width":350.0,"height":3000.0,"orientation":0.0},"strength":35.0},{"type":"stream","position":{"x":5504.347826086957,"y":2703.5830618892533,"orientation":0.0},"shape":{"type":"rectangle","width":500.0,"height":1750.0,"orientation":0.0},"strength":50.0}],"wind":{"orientation":0.0,"strength":100.0}}
sail need open : false
JSON of actions initialized : [Lfr.unice.polytech.si3.qgl.les_gros_q.objects.actions.Action;@1b73c446
Next round input: {"ship":{"type":"ship","position":{"x":3732.659338071304,"y":2086.245029305014,"orientation":-4.263392416147128},"name":"les_gros_q","deck":{"width":3,"length":8},"entities":[{"x":1,"y":1,"type":"rudder"},{"x":6,"y":0,"type":"oar"},{"x":6,"y":2,"type":"oar"},{"x":5,"y":2,"type":"oar"},{"x":4,"y":2,"type":"oar"},{"x":3,"y":2,"type":"oar"},{"x":3,"y":0,"type":"oar"},{"x":4,"y":0,"type":"oar"},{"x":5,"y":0,"type":"oar"},{"x":6,"y":1,"type":"sail","openned":false},{"x":7,"y":2,"type":"oar"},{"x":7,"y":0,"type":"oar"}],"life":1200,"shape":{"type":"rectangle","width":3.0,"height":8.0,"orientation":0.0}},"visibleEntities":[{"type":"stream","position":{"x":3539.1304347826062,"y":2280.130293159613,"orientation":1.9896753472735356},"shape":{"type":"rectangle","width":350.0,"height":3000.0,"orientation":0.0},"strength":35.0},{"type":"stream","position":{"x":5504.347826086957,"y":2703.5830618892533,"orientation":0.0},"shape":{"type":"rectangle","width":500.0,"height":1750.0,"orientation":0.0},"strength":50.0}],"wind":{"orientation":0.0,"strength":100.0}}
sail need open : false
JSON of actions initialized : [Lfr.unice.polytech.si3.qgl.les_gros_q.objects.actions.Action;@1fe0116a
Next round input: {"ship":{"type":"ship","position":{"x":3646.784220141782,"y":2266.8556079921086,"orientation":-4.263132243150914},"name":"les_gros_q","deck":{"width":3,"length":8},"entities":[{"x":1,"y":1,"type":"rudder"},{"x":6,"y":0,"type":"oar"},{"x":6,"y":2,"type":"oar"},{"x":5,"y":2,"type":"oar"},{"x":4,"y":2,"type":"oar"},{"x":3,"y":2,"type":"oar"},{"x":3,"y":0,"type":"oar"},{"x":4,"y":0,"type":"oar"},{"x":5,"y":0,"type":"oar"},{"x":6,"y":1,"type":"sail","openned":false},{"x":7,"y":2,"type":"oar"},{"x":7,"y":0,"type":"oar"}],"life":1200,"shape":{"type":"rectangle","width":3.0,"height":8.0,"orientation":0.0}},"visibleEntities":[{"type":"stream","position":{"x":3539.1304347826062,"y":2280.130293159613,"orientation":1.9896753472735356},"shape":{"type":"rectangle","width":350.0,"height":3000.0,"orientation":0.0},"strength":35.0}],"wind":{"orientation":0.0,"strength":100.0}}
sail need open : false
JSON of actions initialized : [Lfr.unice.polytech.si3.qgl.les_gros_q.objects.actions.Action;@63902208
Next round input: {"ship":{"type":"ship","position":{"x":3560.869266824807,"y":2447.4469803036723,"orientation":-4.262856211708766},"name":"les_gros_q","deck":{"width":3,"length":8},"entities":[{"x":1,"y":1,"type":"rudder"},{"x":6,"y":0,"type":"oar"},{"x":6,"y":2,"type":"oar"},{"x":5,"y":2,"type":"oar"},{"x":4,"y":2,"type":"oar"},{"x":3,"y":2,"type":"oar"},{"x":3,"y":0,"type":"oar"},{"x":4,"y":0,"type":"oar"},{"x":5,"y":0,"type":"oar"},{"x":6,"y":1,"type":"sail","openned":false},{"x":7,"y":2,"type":"oar"},{"x":7,"y":0,"type":"oar"}],"life":1200,"shape":{"type":"rectangle","width":3.0,"height":8.0,"orientation":0.0}},"visibleEntities":[{"type":"stream","position":{"x":3539.1304347826062,"y":2280.130293159613,"orientation":1.9896753472735356},"shape":{"type":"rectangle","width":350.0,"height":3000.0,"orientation":0.0},"strength":35.0}],"wind":{"orientation":0.0,"strength":100.0}}
sail need open : false
JSON of actions initialized : [Lfr.unice.polytech.si3.qgl.les_gros_q.objects.actions.Action;@27b43a9a
Next round input: {"ship":{"type":"ship","position":{"x":3474.911988082342,"y":2628.0179312545333,"orientation":-4.262562436621754},"name":"les_gros_q","deck":{"width":3,"length":8},"entities":[{"x":1,"y":1,"type":"rudder"},{"x":6,"y":0,"type":"oar"},{"x":6,"y":2,"type":"oar"},{"x":5,"y":2,"type":"oar"},{"x":4,"y":2,"type":"oar"},{"x":3,"y":2,"type":"oar"},{"x":3,"y":0,"type":"oar"},{"x":4,"y":0,"type":"oar"},{"x":5,"y":0,"type":"oar"},{"x":6,"y":1,"type":"sail","openned":false},{"x":7,"y":2,"type":"oar"},{"x":7,"y":0,"type":"oar"}],"life":1200,"shape":{"type":"rectangle","width":3.0,"height":8.0,"orientation":0.0}},"visibleEntities":[{"type":"stream","position":{"x":3539.1304347826062,"y":2280.130293159613,"orientation":1.9896753472735356},"shape":{"type":"rectangle","width":350.0,"height":3000.0,"orientation":0.0},"strength":35.0},{"type":"reef","position":{"x":4921.739130434786,"y":4096.091205211728,"orientation":0.0},"shape":{"type":"rectangle","width":1000.0,"height":2500.0,"orientation":0.0}}],"wind":{"orientation":0.0,"strength":100.0}}
sail need open : false
JSON of actions initialized : [Lfr.unice.polytech.si3.qgl.les_gros_q.objects.actions.Action;@4ad47d44
Next round input: {"ship":{"type":"ship","position":{"x":3388.909589393739,"y":2808.5670961526207,"orientation":-4.262248687018922},"name":"les_gros_q","deck":{"width":3,"length":8},"entities":[{"x":1,"y":1,"type":"rudder"},{"x":6,"y":0,"type":"oar"},{"x":6,"y":2,"type":"oar"},{"x":5,"y":2,"type":"oar"},{"x":4,"y":2,"type":"oar"},{"x":3,"y":2,"type":"oar"},{"x":3,"y":0,"type":"oar"},{"x":4,"y":0,"type":"oar"},{"x":5,"y":0,"type":"oar"},{"x":6,"y":1,"type":"sail","openned":false},{"x":7,"y":2,"type":"oar"},{"x":7,"y":0,"type":"oar"}],"life":1200,"shape":{"type":"rectangle","width":3.0,"height":8.0,"orientation":0.0}},"visibleEntities":[{"type":"stream","position":{"x":3539.1304347826062,"y":2280.130293159613,"orientation":1.9896753472735356},"shape":{"type":"rectangle","width":350.0,"height":3000.0,"orientation":0.0},"strength":35.0},{"type":"reef","position":{"x":4921.739130434786,"y":4096.091205211728,"orientation":0.0},"shape":{"type":"rectangle","width":1000.0,"height":2500.0,"orientation":0.0}}],"wind":{"orientation":0.0,"strength":100.0}}
sail need open : false
JSON of actions initialized : [Lfr.unice.polytech.si3.qgl.les_gros_q.objects.actions.Action;@5f998743
Next round input: {"ship":{"type":"ship","position":{"x":3302.858914161098,"y":2989.0929321150893,"orientation":-4.261912298007343},"name":"les_gros_q","deck":{"width":3,"length":8},"entities":[{"x":1,"y":1,"type":"rudder"},{"x":6,"y":0,"type":"oar"},{"x":6,"y":2,"type":"oar"},{"x":5,"y":2,"type":"oar"},{"x":4,"y":2,"type":"oar"},{"x":3,"y":2,"type":"oar"},{"x":3,"y":0,"type":"oar"},{"x":4,"y":0,"type":"oar"},{"x":5,"y":0,"type":"oar"},{"x":6,"y":1,"type":"sail","openned":false},{"x":7,"y":2,"type":"oar"},{"x":7,"y":0,"type":"oar"}],"life":1200,"shape":{"type":"rectangle","width":3.0,"height":8.0,"orientation":0.0}},"visibleEntities":[{"type":"stream","position":{"x":3539.1304347826062,"y":2280.130293159613,"orientation":1.9896753472735356},"shape":{"type":"rectangle","width":350.0,"height":3000.0,"orientation":0.0},"strength":35.0},{"type":"reef","position":{"x":4921.739130434786,"y":4096.091205211728,"orientation":0.0},"shape":{"type":"rectangle","width":1000.0,"height":2500.0,"orientation":0.0}}],"wind":{"orientation":0.0,"strength":100.0}}
sail need open : false
JSON of actions initialized : [Lfr.unice.polytech.si3.qgl.les_gros_q.objects.actions.Action;@58849048
Next round input: {"ship":{"type":"ship","position":{"x":3216.7563708818425,"y":3169.5936820141333,"orientation":-4.261550052544384},"name":"les_gros_q","deck":{"width":3,"length":8},"entities":[{"x":1,"y":1,"type":"rudder"},{"x":6,"y":0,"type":"oar"},{"x":6,"y":2,"type":"oar"},{"x":5,"y":2,"type":"oar"},{"x":4,"y":2,"type":"oar"},{"x":3,"y":2,"type":"oar"},{"x":3,"y":0,"type":"oar"},{"x":4,"y":0,"type":"oar"},{"x":5,"y":0,"type":"oar"},{"x":6,"y":1,"type":"sail","openned":false},{"x":7,"y":2,"type":"oar"},{"x":7,"y":0,"type":"oar"}],"life":1200,"shape":{"type":"rectangle","width":3.0,"height":8.0,"orientation":0.0}},"visibleEntities":[{"type":"stream","position":{"x":3539.1304347826062,"y":2280.130293159613,"orientation":1.9896753472735356},"shape":{"type":"rectangle","width":350.0,"height":3000.0,"orientation":0.0},"strength":35.0},{"type":"reef","position":{"x":4921.739130434786,"y":4096.091205211728,"orientation":0.0},"shape":{"type":"rectangle","width":1000.0,"height":2500.0,"orientation":0.0}}],"wind":{"orientation":0.0,"strength":100.0}}
sail need open : false
JSON of actions initialized : [Lfr.unice.polytech.si3.qgl.les_gros_q.objects.actions.Action;@5e189d4b
Next round input: {"ship":{"type":"ship","position":{"x":3130.597839757185,"y":3350.067328191661,"orientation":-4.261158020738876},"name":"les_gros_q","deck":{"width":3,"length":8},"entities":[{"x":1,"y":1,"type":"rudder"},{"x":6,"y":0,"type":"oar"},{"x":6,"y":2,"type":"oar"},{"x":5,"y":2,"type":"oar"},{"x":4,"y":2,"type":"oar"},{"x":3,"y":2,"type":"oar"},{"x":3,"y":0,"type":"oar"},{"x":4,"y":0,"type":"oar"},{"x":5,"y":0,"type":"oar"},{"x":6,"y":1,"type":"sail","openned":false},{"x":7,"y":2,"type":"oar"},{"x":7,"y":0,"type":"oar"}],"life":1200,"shape":{"type":"rectangle","width":3.0,"height":8.0,"orientation":0.0}},"visibleEntities":[{"type":"stream","position":{"x":3539.1304347826062,"y":2280.130293159613,"orientation":1.9896753472735356},"shape":{"type":"rectangle","width":350.0,"height":3000.0,"orientation":0.0},"strength":35.0},{"type":"reef","position":{"x":4921.739130434786,"y":4096.091205211728,"orientation":0.0},"shape":{"type":"rectangle","width":1000.0,"height":2500.0,"orientation":0.0}}],"wind":{"orientation":0.0,"strength":100.0}}
sail need open : false
JSON of actions initialized : [Lfr.unice.polytech.si3.qgl.les_gros_q.objects.actions.Action;@66f1e196
Next round input: {"ship":{"type":"ship","position":{"x":3044.378551017531,"y":3530.511532085589,"orientation":-4.2607313369351205},"name":"les_gros_q","deck":{"width":3,"length":8},"entities":[{"x":1,"y":1,"type":"rudder"},{"x":6,"y":0,"type":"oar"},{"x":6,"y":2,"type":"oar"},{"x":5,"y":2,"type":"oar"},{"x":4,"y":2,"type":"oar"},{"x":3,"y":2,"type":"oar"},{"x":3,"y":0,"type":"oar"},{"x":4,"y":0,"type":"oar"},{"x":5,"y":0,"type":"oar"},{"x":6,"y":1,"type":"sail","openned":false},{"x":7,"y":2,"type":"oar"},{"x":7,"y":0,"type":"oar"}],"life":1200,"shape":{"type":"rectangle","width":3.0,"height":8.0,"orientation":0.0}},"visibleEntities":[{"type":"stream","position":{"x":3539.1304347826062,"y":2280.130293159613,"orientation":1.9896753472735356},"shape":{"type":"rectangle","width":350.0,"height":3000.0,"orientation":0.0},"strength":35.0},{"type":"reef","position":{"x":4921.739130434786,"y":4096.091205211728,"orientation":0.0},"shape":{"type":"rectangle","width":1000.0,"height":2500.0,"orientation":0.0}}],"wind":{"orientation":0.0,"strength":100.0}}
sail need open : false
JSON of actions initialized : [Lfr.unice.polytech.si3.qgl.les_gros_q.objects.actions.Action;@ad549d9
Next round input: {"ship":{"type":"ship","position":{"x":2960.7977221947344,"y":3704.848476747186,"orientation":-4.260263883563643},"name":"les_gros_q","deck":{"width":3,"length":8},"entities":[{"x":1,"y":1,"type":"rudder"},{"x":6,"y":0,"type":"oar"},{"x":6,"y":2,"type":"oar"},{"x":5,"y":2,"type":"oar"},{"x":4,"y":2,"type":"oar"},{"x":3,"y":2,"type":"oar"},{"x":3,"y":0,"type":"oar"},{"x":4,"y":0,"type":"oar"},{"x":5,"y":0,"type":"oar"},{"x":6,"y":1,"type":"sail","openned":false},{"x":7,"y":2,"type":"oar"},{"x":7,"y":0,"type":"oar"}],"life":1200,"shape":{"type":"rectangle","width":3.0,"height":8.0,"orientation":0.0}},"visibleEntities":[{"type":"stream","position":{"x":3539.1304347826062,"y":2280.130293159613,"orientation":1.9896753472735356},"shape":{"type":"rectangle","width":350.0,"height":3000.0,"orientation":0.0},"strength":35.0},{"type":"reef","position":{"x":4921.739130434786,"y":4096.091205211728,"orientation":0.0},"shape":{"type":"rectangle","width":1000.0,"height":2500.0,"orientation":0.0}}],"wind":{"orientation":0.0,"strength":100.0}}
sail need open : false
JSON of actions initialized : [Lfr.unice.polytech.si3.qgl.les_gros_q.objects.actions.Action;@70ae1bd1
Next round input: {"ship":{"type":"ship","position":{"x":2888.68198450562,"y":3853.254406471791,"orientation":-4.259843902849792},"name":"les_gros_q","deck":{"width":3,"length":8},"entities":[{"x":1,"y":1,"type":"rudder"},{"x":6,"y":0,"type":"oar"},{"x":6,"y":2,"type":"oar"},{"x":5,"y":2,"type":"oar"},{"x":4,"y":2,"type":"oar"},{"x":3,"y":2,"type":"oar"},{"x":3,"y":0,"type":"oar"},{"x":4,"y":0,"type":"oar"},{"x":5,"y":0,"type":"oar"},{"x":6,"y":1,"type":"sail","openned":false},{"x":7,"y":2,"type":"oar"},{"x":7,"y":0,"type":"oar"}],"life":1200,"shape":{"type":"rectangle","width":3.0,"height":8.0,"orientation":0.0}},"visibleEntities":[{"type":"stream","position":{"x":3539.1304347826062,"y":2280.130293159613,"orientation":1.9896753472735356},"shape":{"type":"rectangle","width":350.0,"height":3000.0,"orientation":0.0},"strength":35.0},{"type":"reef","position":{"x":4921.739130434786,"y":4096.091205211728,"orientation":0.0},"shape":{"type":"rectangle","width":1000.0,"height":2500.0,"orientation":0.0}}],"wind":{"orientation":0.0,"strength":100.0}}
sail need open : false
JSON of actions initialized : [Lfr.unice.polytech.si3.qgl.les_gros_q.objects.actions.Action;@7549e246
Next round input: {"ship":{"type":"ship","position":{"x":2816.533588742523,"y":4001.6444633766346,"orientation":-4.2598277876341415},"name":"les_gros_q","deck":{"width":3,"length":8},"entities":[{"x":1,"y":1,"type":"rudder"},{"x":6,"y":0,"type":"oar"},{"x":6,"y":2,"type":"oar"},{"x":5,"y":2,"type":"oar"},{"x":4,"y":2,"type":"oar"},{"x":3,"y":2,"type":"oar"},{"x":3,"y":0,"type":"oar"},{"x":4,"y":0,"type":"oar"},{"x":5,"y":0,"type":"oar"},{"x":6,"y":1,"type":"sail","openned":false},{"x":7,"y":2,"type":"oar"},{"x":7,"y":0,"type":"oar"}],"life":1200,"shape":{"type":"rectangle","width":3.0,"height":8.0,"orientation":0.0}},"visibleEntities":[{"type":"stream","position":{"x":3539.1304347826062,"y":2280.130293159613,"orientation":1.9896753472735356},"shape":{"type":"rectangle","width":350.0,"height":3000.0,"orientation":0.0},"strength":35.0},{"type":"reef","position":{"x":4921.739130434786,"y":4096.091205211728,"orientation":0.0},"shape":{"type":"rectangle","width":1000.0,"height":2500.0,"orientation":0.0}}],"wind":{"orientation":0.0,"strength":100.0}}
sail need open : false
JSON of actions initialized : [Lfr.unice.polytech.si3.qgl.les_gros_q.objects.actions.Action;@5257b739
Next round input: {"ship":{"type":"ship","position":{"x":2744.383936200081,"y":4150.03390922102,"orientation":-4.259827118423499},"name":"les_gros_q","deck":{"width":3,"length":8},"entities":[{"x":1,"y":1,"type":"rudder"},{"x":6,"y":0,"type":"oar"},{"x":6,"y":2,"type":"oar"},{"x":5,"y":2,"type":"oar"},{"x":4,"y":2,"type":"oar"},{"x":3,"y":2,"type":"oar"},{"x":3,"y":0,"type":"oar"},{"x":4,"y":0,"type":"oar"},{"x":5,"y":0,"type":"oar"},{"x":6,"y":1,"type":"sail","openned":false},{"x":7,"y":2,"type":"oar"},{"x":7,"y":0,"type":"oar"}],"life":1200,"shape":{"type":"rectangle","width":3.0,"height":8.0,"orientation":0.0}},"visibleEntities":[{"type":"stream","position":{"x":3539.1304347826062,"y":2280.130293159613,"orientation":1.9896753472735356},"shape":{"type":"rectangle","width":350.0,"height":3000.0,"orientation":0.0},"strength":35.0},{"type":"reef","position":{"x":4921.739130434786,"y":4096.091205211728,"orientation":0.0},"shape":{"type":"rectangle","width":1000.0,"height":2500.0,"orientation":0.0}}],"wind":{"orientation":0.0,"strength":100.0}}
sail need open : false
JSON of actions initialized : [Lfr.unice.polytech.si3.qgl.les_gros_q.objects.actions.Action;@663233e1
Next round input: {"ship":{"type":"ship","position":{"x":2672.2342312850706,"y":4298.423329600901,"orientation":-4.259827088143454},"name":"les_gros_q","deck":{"width":3,"length":8},"entities":[{"x":1,"y":1,"type":"rudder"},{"x":6,"y":0,"type":"oar"},{"x":6,"y":2,"type":"oar"},{"x":5,"y":2,"type":"oar"},{"x":4,"y":2,"type":"oar"},{"x":3,"y":2,"type":"oar"},{"x":3,"y":0,"type":"oar"},{"x":4,"y":0,"type":"oar"},{"x":5,"y":0,"type":"oar"},{"x":6,"y":1,"type":"sail","openned":false},{"x":7,"y":2,"type":"oar"},{"x":7,"y":0,"type":"oar"}],"life":1200,"shape":{"type":"rectangle","width":3.0,"height":8.0,"orientation":0.0}},"visibleEntities":[{"type":"stream","position":{"x":3539.1304347826062,"y":2280.130293159613,"orientation":1.9896753472735356},"shape":{"type":"rectangle","width":350.0,"height":3000.0,"orientation":0.0},"strength":35.0},{"type":"reef","position":{"x":4921.739130434786,"y":4096.091205211728,"orientation":0.0},"shape":{"type":"rectangle","width":1000.0,"height":2500.0,"orientation":0.0}}],"wind":{"orientation":0.0,"strength":100.0}}
sail need open : false
JSON of actions initialized : [Lfr.unice.polytech.si3.qgl.les_gros_q.objects.actions.Action;@5dc27e4e
Next round input: {"ship":{"type":"ship","position":{"x":2600.0845239904347,"y":4446.812748823764,"orientation":-4.259827086638524},"name":"les_gros_q","deck":{"width":3,"length":8},"entities":[{"x":1,"y":1,"type":"rudder"},{"x":6,"y":0,"type":"oar"},{"x":6,"y":2,"type":"oar"},{"x":5,"y":2,"type":"oar"},{"x":4,"y":2,"type":"oar"},{"x":3,"y":2,"type":"oar"},{"x":3,"y":0,"type":"oar"},{"x":4,"y":0,"type":"oar"},{"x":5,"y":0,"type":"oar"},{"x":6,"y":1,"type":"sail","openned":false},{"x":7,"y":2,"type":"oar"},{"x":7,"y":0,"type":"oar"}],"life":1200,"shape":{"type":"rectangle","width":3.0,"height":8.0,"orientation":0.0}},"visibleEntities":[{"type":"stream","position":{"x":3539.1304347826062,"y":2280.130293159613,"orientation":1.9896753472735356},"shape":{"type":"rectangle","width":350.0,"height":3000.0,"orientation":0.0},"strength":35.0}],"wind":{"orientation":0.0,"strength":100.0}}
sail need open : false
JSON of actions initialized : [Lfr.unice.polytech.si3.qgl.les_gros_q.objects.actions.Action;@7f672cae
Next round input: {"ship":{"type":"ship","position":{"x":2527.9348165769306,"y":4595.202167988831,"orientation":-4.2598270865555685},"name":"les_gros_q","deck":{"width":3,"length":8},"entities":[{"x":1,"y":1,"type":"rudder"},{"x":6,"y":0,"type":"oar"},{"x":6,"y":2,"type":"oar"},{"x":5,"y":2,"type":"oar"},{"x":4,"y":2,"type":"oar"},{"x":3,"y":2,"type":"oar"},{"x":3,"y":0,"type":"oar"},{"x":4,"y":0,"type":"oar"},{"x":5,"y":0,"type":"oar"},{"x":6,"y":1,"type":"sail","openned":false},{"x":7,"y":2,"type":"oar"},{"x":7,"y":0,"type":"oar"}],"life":1200,"shape":{"type":"rectangle","width":3.0,"height":8.0,"orientation":0.0}},"visibleEntities":[],"wind":{"orientation":0.0,"strength":100.0}}
sail need open : false
JSON of actions initialized : [Lfr.unice.polytech.si3.qgl.les_gros_q.objects.actions.Action;@33119b00
Next round input: {"ship":{"type":"ship","position":{"x":2455.7851091568323,"y":4743.591587150691,"orientation":-4.259827086550417},"name":"les_gros_q","deck":{"width":3,"length":8},"entities":[{"x":1,"y":1,"type":"rudder"},{"x":6,"y":0,"type":"oar"},{"x":6,"y":2,"type":"oar"},{"x":5,"y":2,"type":"oar"},{"x":4,"y":2,"type":"oar"},{"x":3,"y":2,"type":"oar"},{"x":3,"y":0,"type":"oar"},{"x":4,"y":0,"type":"oar"},{"x":5,"y":0,"type":"oar"},{"x":6,"y":1,"type":"sail","openned":false},{"x":7,"y":2,"type":"oar"},{"x":7,"y":0,"type":"oar"}],"life":1200,"shape":{"type":"rectangle","width":3.0,"height":8.0,"orientation":0.0}},"visibleEntities":[],"wind":{"orientation":0.0,"strength":100.0}}
sail need open : false
JSON of actions initialized : [Lfr.unice.polytech.si3.qgl.les_gros_q.objects.actions.Action;@241d7547
Next round input: {"ship":{"type":"ship","position":{"x":2383.635401736323,"y":4891.981006312377,"orientation":-4.259827086550062},"name":"les_gros_q","deck":{"width":3,"length":8},"entities":[{"x":1,"y":1,"type":"rudder"},{"x":6,"y":0,"type":"oar"},{"x":6,"y":2,"type":"oar"},{"x":5,"y":2,"type":"oar"},{"x":4,"y":2,"type":"oar"},{"x":3,"y":2,"type":"oar"},{"x":3,"y":0,"type":"oar"},{"x":4,"y":0,"type":"oar"},{"x":5,"y":0,"type":"oar"},{"x":6,"y":1,"type":"sail","openned":false},{"x":7,"y":2,"type":"oar"},{"x":7,"y":0,"type":"oar"}],"life":1200,"shape":{"type":"rectangle","width":3.0,"height":8.0,"orientation":0.0}},"visibleEntities":[],"wind":{"orientation":0.0,"strength":100.0}}
sail need open : false
JSON of actions initialized : [Lfr.unice.polytech.si3.qgl.les_gros_q.objects.actions.Action;@61c08025
Next round input: {"ship":{"type":"ship","position":{"x":2311.485694315801,"y":5040.370425474062,"orientation":-4.259827086550062},"name":"les_gros_q","deck":{"width":3,"length":8},"entities":[{"x":1,"y":1,"type":"rudder"},{"x":6,"y":0,"type":"oar"},{"x":6,"y":2,"type":"oar"},{"x":5,"y":2,"type":"oar"},{"x":4,"y":2,"type":"oar"},{"x":3,"y":2,"type":"oar"},{"x":3,"y":0,"type":"oar"},{"x":4,"y":0,"type":"oar"},{"x":5,"y":0,"type":"oar"},{"x":6,"y":1,"type":"sail","openned":false},{"x":7,"y":2,"type":"oar"},{"x":7,"y":0,"type":"oar"}],"life":1200,"shape":{"type":"rectangle","width":3.0,"height":8.0,"orientation":0.0}},"visibleEntities":[],"wind":{"orientation":0.0,"strength":100.0}}
sail need open : false
JSON of actions initialized : [Lfr.unice.polytech.si3.qgl.les_gros_q.objects.actions.Action;@67a29971
Next round input: {"ship":{"type":"ship","position":{"x":2239.335986895258,"y":5188.759844635748,"orientation":-4.259827086549973},"name":"les_gros_q","deck":{"width":3,"length":8},"entities":[{"x":1,"y":1,"type":"rudder"},{"x":6,"y":0,"type":"oar"},{"x":6,"y":2,"type":"oar"},{"x":5,"y":2,"type":"oar"},{"x":4,"y":2,"type":"oar"},{"x":3,"y":2,"type":"oar"},{"x":3,"y":0,"type":"oar"},{"x":4,"y":0,"type":"oar"},{"x":5,"y":0,"type":"oar"},{"x":6,"y":1,"type":"sail","openned":false},{"x":7,"y":2,"type":"oar"},{"x":7,"y":0,"type":"oar"}],"life":1200,"shape":{"type":"rectangle","width":3.0,"height":8.0,"orientation":0.0}},"visibleEntities":[],"wind":{"orientation":0.0,"strength":100.0}}
sail need open : false
JSON of actions initialized : [Lfr.unice.polytech.si3.qgl.les_gros_q.objects.actions.Action;@34614ee7
Next round input: {"ship":{"type":"ship","position":{"x":2167.1862794746908,"y":5337.149263797433,"orientation":-4.259827086549973},"name":"les_gros_q","deck":{"width":3,"length":8},"entities":[{"x":1,"y":1,"type":"rudder"},{"x":6,"y":0,"type":"oar"},{"x":6,"y":2,"type":"oar"},{"x":5,"y":2,"type":"oar"},{"x":4,"y":2,"type":"oar"},{"x":3,"y":2,"type":"oar"},{"x":3,"y":0,"type":"oar"},{"x":4,"y":0,"type":"oar"},{"x":5,"y":0,"type":"oar"},{"x":6,"y":1,"type":"sail","openned":false},{"x":7,"y":2,"type":"oar"},{"x":7,"y":0,"type":"oar"}],"life":1200,"shape":{"type":"rectangle","width":3.0,"height":8.0,"orientation":0.0}},"visibleEntities":[],"wind":{"orientation":0.0,"strength":100.0}}
sail need open : false
JSON of actions initialized : [Lfr.unice.polytech.si3.qgl.les_gros_q.objects.actions.Action;@150aef35
Next round input: {"ship":{"type":"ship","position":{"x":2095.0365720541236,"y":5485.538682959119,"orientation":-4.259827086549973},"name":"les_gros_q","deck":{"width":3,"length":8},"entities":[{"x":1,"y":1,"type":"rudder"},{"x":6,"y":0,"type":"oar"},{"x":6,"y":2,"type":"oar"},{"x":5,"y":2,"type":"oar"},{"x":4,"y":2,"type":"oar"},{"x":3,"y":2,"type":"oar"},{"x":3,"y":0,"type":"oar"},{"x":4,"y":0,"type":"oar"},{"x":5,"y":0,"type":"oar"},{"x":6,"y":1,"type":"sail","openned":false},{"x":7,"y":2,"type":"oar"},{"x":7,"y":0,"type":"oar"}],"life":1200,"shape":{"type":"rectangle","width":3.0,"height":8.0,"orientation":0.0}},"visibleEntities":[],"wind":{"orientation":0.0,"strength":100.0}}
sail need open : false
JSON of actions initialized : [Lfr.unice.polytech.si3.qgl.les_gros_q.objects.actions.Action;@6d205460
Next round input: {"ship":{"type":"ship","position":{"x":2022.8868646335643,"y":5633.928102120804,"orientation":-4.259827086549973},"name":"les_gros_q","deck":{"width":3,"length":8},"entities":[{"x":1,"y":1,"type":"rudder"},{"x":6,"y":0,"type":"oar"},{"x":6,"y":2,"type":"oar"},{"x":5,"y":2,"type":"oar"},{"x":4,"y":2,"type":"oar"},{"x":3,"y":2,"type":"oar"},{"x":3,"y":0,"type":"oar"},{"x":4,"y":0,"type":"oar"},{"x":5,"y":0,"type":"oar"},{"x":6,"y":1,"type":"sail","openned":false},{"x":7,"y":2,"type":"oar"},{"x":7,"y":0,"type":"oar"}],"life":1200,"shape":{"type":"rectangle","width":3.0,"height":8.0,"orientation":0.0}},"visibleEntities":[],"wind":{"orientation":0.0,"strength":100.0}}
sail need open : false
JSON of actions initialized : [Lfr.unice.polytech.si3.qgl.les_gros_q.objects.actions.Action;@6a239031
Next round input: {"ship":{"type":"ship","position":{"x":2058.563984190882,"y":5693.395555402708,"orientation":-6.265766362676751},"name":"les_gros_q","deck":{"width":3,"length":8},"entities":[{"x":1,"y":1,"type":"rudder"},{"x":6,"y":0,"type":"oar"},{"x":6,"y":2,"type":"oar"},{"x":5,"y":2,"type":"oar"},{"x":4,"y":2,"type":"oar"},{"x":3,"y":2,"type":"oar"},{"x":3,"y":0,"type":"oar"},{"x":4,"y":0,"type":"oar"},{"x":5,"y":0,"type":"oar"},{"x":6,"y":1,"type":"sail","openned":false},{"x":7,"y":2,"type":"oar"},{"x":7,"y":0,"type":"oar"}],"life":1200,"shape":{"type":"rectangle","width":3.0,"height":8.0,"orientation":0.0}},"visibleEntities":[],"wind":{"orientation":0.0,"strength":100.0}}
sail need open : false
JSON of actions initialized : [Lfr.unice.polytech.si3.qgl.les_gros_q.objects.actions.Action;@5baa6617
Next round input: {"ship":{"type":"ship","position":{"x":2223.5484298672436,"y":5695.630203717585,"orientation":-6.273594994475929},"name":"les_gros_q","deck":{"width":3,"length":8},"entities":[{"x":1,"y":1,"type":"rudder"},{"x":6,"y":0,"type":"oar"},{"x":6,"y":2,"type":"oar"},{"x":5,"y":2,"type":"oar"},{"x":4,"y":2,"type":"oar"},{"x":3,"y":2,"type":"oar"},{"x":3,"y":0,"type":"oar"},{"x":4,"y":0,"type":"oar"},{"x":5,"y":0,"type":"oar"},{"x":6,"y":1,"type":"sail","openned":false},{"x":7,"y":2,"type":"oar"},{"x":7,"y":0,"type":"oar"}],"life":1200,"shape":{"type":"rectangle","width":3.0,"height":8.0,"orientation":0.0}},"visibleEntities":[],"wind":{"orientation":0.0,"strength":100.0}}
sail need open : true
JSON of actions initialized : [Lfr.unice.polytech.si3.qgl.les_gros_q.objects.actions.Action;@4949b428
Next round input: {"ship":{"type":"ship","position":{"x":2488.5317982227925,"y":5698.159913893522,"orientation":-6.273683736731518},"name":"les_gros_q","deck":{"width":3,"length":8},"entities":[{"x":1,"y":1,"type":"rudder"},{"x":6,"y":0,"type":"oar"},{"x":6,"y":2,"type":"oar"},{"x":5,"y":2,"type":"oar"},{"x":4,"y":2,"type":"oar"},{"x":3,"y":2,"type":"oar"},{"x":3,"y":0,"type":"oar"},{"x":4,"y":0,"type":"oar"},{"x":5,"y":0,"type":"oar"},{"x":6,"y":1,"type":"sail","openned":true},{"x":7,"y":2,"type":"oar"},{"x":7,"y":0,"type":"oar"}],"life":1200,"shape":{"type":"rectangle","width":3.0,"height":8.0,"orientation":0.0}},"visibleEntities":[],"wind":{"orientation":0.0,"strength":100.0}}
sail need open : true
JSON of actions initialized : [Lfr.unice.polytech.si3.qgl.les_gros_q.objects.actions.Action;@1a9ac687
Next round input: {"ship":{"type":"ship","position":{"x":2753.5153253564495,"y":5700.677529457344,"orientation":-6.273685412744624},"name":"les_gros_q","deck":{"width":3,"length":8},"entities":[{"x":1,"y":1,"type":"rudder"},{"x":6,"y":0,"type":"oar"},{"x":6,"y":2,"type":"oar"},{"x":5,"y":2,"type":"oar"},{"x":4,"y":2,"type":"oar"},{"x":3,"y":2,"type":"oar"},{"x":3,"y":0,"type":"oar"},{"x":4,"y":0,"type":"oar"},{"x":5,"y":0,"type":"oar"},{"x":6,"y":1,"type":"sail","openned":true},{"x":7,"y":2,"type":"oar"},{"x":7,"y":0,"type":"oar"}],"life":1200,"shape":{"type":"rectangle","width":3.0,"height":8.0,"orientation":0.0}},"visibleEntities":[],"wind":{"orientation":0.0,"strength":100.0}}
sail need open : true
JSON of actions initialized : [Lfr.unice.polytech.si3.qgl.les_gros_q.objects.actions.Action;@379ec7a3
Next round input: {"ship":{"type":"ship","position":{"x":3018.4988554814145,"y":5703.194916437215,"orientation":-6.2736854456280975},"name":"les_gros_q","deck":{"width":3,"length":8},"entities":[{"x":1,"y":1,"type":"rudder"},{"x":6,"y":0,"type":"oar"},{"x":6,"y":2,"type":"oar"},{"x":5,"y":2,"type":"oar"},{"x":4,"y":2,"type":"oar"},{"x":3,"y":2,"type":"oar"},{"x":3,"y":0,"type":"oar"},{"x":4,"y":0,"type":"oar"},{"x":5,"y":0,"type":"oar"},{"x":6,"y":1,"type":"sail","openned":true},{"x":7,"y":2,"type":"oar"},{"x":7,"y":0,"type":"oar"}],"life":1200,"shape":{"type":"rectangle","width":3.0,"height":8.0,"orientation":0.0}},"visibleEntities":[],"wind":{"orientation":0.0,"strength":100.0}}
sail need open : true
JSON of actions initialized : [Lfr.unice.polytech.si3.qgl.les_gros_q.objects.actions.Action;@71c146f9
Next round input: {"ship":{"type":"ship","position":{"x":3283.482385665109,"y":5705.712298928834,"orientation":-6.273685446299383},"name":"les_gros_q","deck":{"width":3,"length":8},"entities":[{"x":1,"y":1,"type":"rudder"},{"x":6,"y":0,"type":"oar"},{"x":6,"y":2,"type":"oar"},{"x":5,"y":2,"type":"oar"},{"x":4,"y":2,"type":"oar"},{"x":3,"y":2,"type":"oar"},{"x":3,"y":0,"type":"oar"},{"x":4,"y":0,"type":"oar"},{"x":5,"y":0,"type":"oar"},{"x":6,"y":1,"type":"sail","openned":true},{"x":7,"y":2,"type":"oar"},{"x":7,"y":0,"type":"oar"}],"life":1200,"shape":{"type":"rectangle","width":3.0,"height":8.0,"orientation":0.0}},"visibleEntities":[],"wind":{"orientation":0.0,"strength":100.0}}
sail need open : true
JSON of actions initialized : [Lfr.unice.polytech.si3.qgl.les_gros_q.objects.actions.Action;@5a988e31
Next round input: {"ship":{"type":"ship","position":{"x":3548.465915850005,"y":5708.229681328762,"orientation":-6.273685446313594},"name":"les_gros_q","deck":{"width":3,"length":8},"entities":[{"x":1,"y":1,"type":"rudder"},{"x":6,"y":0,"type":"oar"},{"x":6,"y":2,"type":"oar"},{"x":5,"y":2,"type":"oar"},{"x":4,"y":2,"type":"oar"},{"x":3,"y":2,"type":"oar"},{"x":3,"y":0,"type":"oar"},{"x":4,"y":0,"type":"oar"},{"x":5,"y":0,"type":"oar"},{"x":6,"y":1,"type":"sail","openned":true},{"x":7,"y":2,"type":"oar"},{"x":7,"y":0,"type":"oar"}],"life":1200,"shape":{"type":"rectangle","width":3.0,"height":8.0,"orientation":0.0}},"visibleEntities":[],"wind":{"orientation":0.0,"strength":100.0}}
sail need open : true
JSON of actions initialized : [Lfr.unice.polytech.si3.qgl.les_gros_q.objects.actions.Action;@37eeace
Next round input: {"ship":{"type":"ship","position":{"x":3813.449446034923,"y":5710.747063726743,"orientation":-6.273685446313949},"name":"les_gros_q","deck":{"width":3,"length":8},"entities":[{"x":1,"y":1,"type":"rudder"},{"x":6,"y":0,"type":"oar"},{"x":6,"y":2,"type":"oar"},{"x":5,"y":2,"type":"oar"},{"x":4,"y":2,"type":"oar"},{"x":3,"y":2,"type":"oar"},{"x":3,"y":0,"type":"oar"},{"x":4,"y":0,"type":"oar"},{"x":5,"y":0,"type":"oar"},{"x":6,"y":1,"type":"sail","openned":true},{"x":7,"y":2,"type":"oar"},{"x":7,"y":0,"type":"oar"}],"life":1200,"shape":{"type":"rectangle","width":3.0,"height":8.0,"orientation":0.0}},"visibleEntities":[],"wind":{"orientation":0.0,"strength":100.0}}
sail need open : true
JSON of actions initialized : [Lfr.unice.polytech.si3.qgl.les_gros_q.objects.actions.Action;@65efa4c
Next round input: {"ship":{"type":"ship","position":{"x":4078.432976219841,"y":5713.264446124689,"orientation":-6.273685446313949},"name":"les_gros_q","deck":{"width":3,"length":8},"entities":[{"x":1,"y":1,"type":"rudder"},{"x":6,"y":0,"type":"oar"},{"x":6,"y":2,"type":"oar"},{"x":5,"y":2,"type":"oar"},{"x":4,"y":2,"type":"oar"},{"x":3,"y":2,"type":"oar"},{"x":3,"y":0,"type":"oar"},{"x":4,"y":0,"type":"oar"},{"x":5,"y":0,"type":"oar"},{"x":6,"y":1,"type":"sail","openned":true},{"x":7,"y":2,"type":"oar"},{"x":7,"y":0,"type":"oar"}],"life":1200,"shape":{"type":"rectangle","width":3.0,"height":8.0,"orientation":0.0}},"visibleEntities":[],"wind":{"orientation":0.0,"strength":100.0}}
sail need open : true
JSON of actions initialized : [Lfr.unice.polytech.si3.qgl.les_gros_q.objects.actions.Action;@3234f7a3
Next round input: {"ship":{"type":"ship","position":{"x":4343.416506404801,"y":5715.781828522635,"orientation":-6.273685446313949},"name":"les_gros_q","deck":{"width":3,"length":8},"entities":[{"x":1,"y":1,"type":"rudder"},{"x":6,"y":0,"type":"oar"},{"x":6,"y":2,"type":"oar"},{"x":5,"y":2,"type":"oar"},{"x":4,"y":2,"type":"oar"},{"x":3,"y":2,"type":"oar"},{"x":3,"y":0,"type":"oar"},{"x":4,"y":0,"type":"oar"},{"x":5,"y":0,"type":"oar"},{"x":6,"y":1,"type":"sail","openned":true},{"x":7,"y":2,"type":"oar"},{"x":7,"y":0,"type":"oar"}],"life":1200,"shape":{"type":"rectangle","width":3.0,"height":8.0,"orientation":0.0}},"visibleEntities":[],"wind":{"orientation":0.0,"strength":100.0}}
sail need open : true
JSON of actions initialized : [Lfr.unice.polytech.si3.qgl.les_gros_q.objects.actions.Action;@692868b0
Next round input: {"ship":{"type":"ship","position":{"x":4608.400036589765,"y":5718.299210920581,"orientation":-6.273685446313949},"name":"les_gros_q","deck":{"width":3,"length":8},"entities":[{"x":1,"y":1,"type":"rudder"},{"x":6,"y":0,"type":"oar"},{"x":6,"y":2,"type":"oar"},{"x":5,"y":2,"type":"oar"},{"x":4,"y":2,"type":"oar"},{"x":3,"y":2,"type":"oar"},{"x":3,"y":0,"type":"oar"},{"x":4,"y":0,"type":"oar"},{"x":5,"y":0,"type":"oar"},{"x":6,"y":1,"type":"sail","openned":true},{"x":7,"y":2,"type":"oar"},{"x":7,"y":0,"type":"oar"}],"life":1200,"shape":{"type":"rectangle","width":3.0,"height":8.0,"orientation":0.0}},"visibleEntities":[],"wind":{"orientation":0.0,"strength":100.0}}
sail need open : true
JSON of actions initialized : [Lfr.unice.polytech.si3.qgl.les_gros_q.objects.actions.Action;@786b8040
Next round input: {"ship":{"type":"ship","position":{"x":4873.383566774728,"y":5720.816593318526,"orientation":-6.273685446313949},"name":"les_gros_q","deck":{"width":3,"length":8},"entities":[{"x":1,"y":1,"type":"rudder"},{"x":6,"y":0,"type":"oar"},{"x":6,"y":2,"type":"oar"},{"x":5,"y":2,"type":"oar"},{"x":4,"y":2,"type":"oar"},{"x":3,"y":2,"type":"oar"},{"x":3,"y":0,"type":"oar"},{"x":4,"y":0,"type":"oar"},{"x":5,"y":0,"type":"oar"},{"x":6,"y":1,"type":"sail","openned":true},{"x":7,"y":2,"type":"oar"},{"x":7,"y":0,"type":"oar"}],"life":1200,"shape":{"type":"rectangle","width":3.0,"height":8.0,"orientation":0.0}},"visibleEntities":[],"wind":{"orientation":0.0,"strength":100.0}}
sail need open : true
JSON of actions initialized : [Lfr.unice.polytech.si3.qgl.les_gros_q.objects.actions.Action;@14e2a02d
Next round input: {"ship":{"type":"ship","position":{"x":5138.3670969596915,"y":5723.333975716472,"orientation":-6.273685446313949},"name":"les_gros_q","deck":{"width":3,"length":8},"entities":[{"x":1,"y":1,"type":"rudder"},{"x":6,"y":0,"type":"oar"},{"x":6,"y":2,"type":"oar"},{"x":5,"y":2,"type":"oar"},{"x":4,"y":2,"type":"oar"},{"x":3,"y":2,"type":"oar"},{"x":3,"y":0,"type":"oar"},{"x":4,"y":0,"type":"oar"},{"x":5,"y":0,"type":"oar"},{"x":6,"y":1,"type":"sail","openned":true},{"x":7,"y":2,"type":"oar"},{"x":7,"y":0,"type":"oar"}],"life":1200,"shape":{"type":"rectangle","width":3.0,"height":8.0,"orientation":0.0}},"visibleEntities":[],"wind":{"orientation":0.0,"strength":100.0}}
sail need open : true
JSON of actions initialized : [Lfr.unice.polytech.si3.qgl.les_gros_q.objects.actions.Action;@43636849
Next round input: {"ship":{"type":"ship","position":{"x":5403.350627144655,"y":5725.851358114418,"orientation":-6.273685446313949},"name":"les_gros_q","deck":{"width":3,"length":8},"entities":[{"x":1,"y":1,"type":"rudder"},{"x":6,"y":0,"type":"oar"},{"x":6,"y":2,"type":"oar"},{"x":5,"y":2,"type":"oar"},{"x":4,"y":2,"type":"oar"},{"x":3,"y":2,"type":"oar"},{"x":3,"y":0,"type":"oar"},{"x":4,"y":0,"type":"oar"},{"x":5,"y":0,"type":"oar"},{"x":6,"y":1,"type":"sail","openned":true},{"x":7,"y":2,"type":"oar"},{"x":7,"y":0,"type":"oar"}],"life":1200,"shape":{"type":"rectangle","width":3.0,"height":8.0,"orientation":0.0}},"visibleEntities":[],"wind":{"orientation":0.0,"strength":100.0}}
sail need open : true
JSON of actions initialized : [Lfr.unice.polytech.si3.qgl.les_gros_q.objects.actions.Action;@3766c688
Next round input: {"ship":{"type":"ship","position":{"x":5668.334157329618,"y":5728.368740512364,"orientation":-6.273685446313949},"name":"les_gros_q","deck":{"width":3,"length":8},"entities":[{"x":1,"y":1,"type":"rudder"},{"x":6,"y":0,"type":"oar"},{"x":6,"y":2,"type":"oar"},{"x":5,"y":2,"type":"oar"},{"x":4,"y":2,"type":"oar"},{"x":3,"y":2,"type":"oar"},{"x":3,"y":0,"type":"oar"},{"x":4,"y":0,"type":"oar"},{"x":5,"y":0,"type":"oar"},{"x":6,"y":1,"type":"sail","openned":true},{"x":7,"y":2,"type":"oar"},{"x":7,"y":0,"type":"oar"}],"life":1200,"shape":{"type":"rectangle","width":3.0,"height":8.0,"orientation":0.0}},"visibleEntities":[],"wind":{"orientation":0.0,"strength":100.0}}
sail need open : true
JSON of actions initialized : [Lfr.unice.polytech.si3.qgl.les_gros_q.objects.actions.Action;@5354896f
Next round input: {"ship":{"type":"ship","position":{"x":5933.317687514582,"y":5730.8861229103095,"orientation":-6.273685446313949},"name":"les_gros_q","deck":{"width":3,"length":8},"entities":[{"x":1,"y":1,"type":"rudder"},{"x":6,"y":0,"type":"oar"},{"x":6,"y":2,"type":"oar"},{"x":5,"y":2,"type":"oar"},{"x":4,"y":2,"type":"oar"},{"x":3,"y":2,"type":"oar"},{"x":3,"y":0,"type":"oar"},{"x":4,"y":0,"type":"oar"},{"x":5,"y":0,"type":"oar"},{"x":6,"y":1,"type":"sail","openned":true},{"x":7,"y":2,"type":"oar"},{"x":7,"y":0,"type":"oar"}],"life":1200,"shape":{"type":"rectangle","width":3.0,"height":8.0,"orientation":0.0}},"visibleEntities":[],"wind":{"orientation":0.0,"strength":100.0}}
sail need open : true
JSON of actions initialized : [Lfr.unice.polytech.si3.qgl.les_gros_q.objects.actions.Action;@34839af1
Next round input: {"ship":{"type":"ship","position":{"x":6198.301217699545,"y":5733.403505308255,"orientation":-6.273685446313949},"name":"les_gros_q","deck":{"width":3,"length":8},"entities":[{"x":1,"y":1,"type":"rudder"},{"x":6,"y":0,"type":"oar"},{"x":6,"y":2,"type":"oar"},{"x":5,"y":2,"type":"oar"},{"x":4,"y":2,"type":"oar"},{"x":3,"y":2,"type":"oar"},{"x":3,"y":0,"type":"oar"},{"x":4,"y":0,"type":"oar"},{"x":5,"y":0,"type":"oar"},{"x":6,"y":1,"type":"sail","openned":true},{"x":7,"y":2,"type":"oar"},{"x":7,"y":0,"type":"oar"}],"life":1200,"shape":{"type":"rectangle","width":3.0,"height":8.0,"orientation":0.0}},"visibleEntities":[],"wind":{"orientation":0.0,"strength":100.0}}
sail need open : true
JSON of actions initialized : [Lfr.unice.polytech.si3.qgl.les_gros_q.objects.actions.Action;@632e2bb1
Next round input: {"ship":{"type":"ship","position":{"x":6463.284747884509,"y":5735.920887706201,"orientation":-6.273685446313949},"name":"les_gros_q","deck":{"width":3,"length":8},"entities":[{"x":1,"y":1,"type":"rudder"},{"x":6,"y":0,"type":"oar"},{"x":6,"y":2,"type":"oar"},{"x":5,"y":2,"type":"oar"},{"x":4,"y":2,"type":"oar"},{"x":3,"y":2,"type":"oar"},{"x":3,"y":0,"type":"oar"},{"x":4,"y":0,"type":"oar"},{"x":5,"y":0,"type":"oar"},{"x":6,"y":1,"type":"sail","openned":true},{"x":7,"y":2,"type":"oar"},{"x":7,"y":0,"type":"oar"}],"life":1200,"shape":{"type":"rectangle","width":3.0,"height":8.0,"orientation":0.0}},"visibleEntities":[],"wind":{"orientation":0.0,"strength":100.0}}
sail need open : true
JSON of actions initialized : [Lfr.unice.polytech.si3.qgl.les_gros_q.objects.actions.Action;@255b93e2
Next round input: {"ship":{"type":"ship","position":{"x":6728.268278069472,"y":5738.438270104147,"orientation":-6.273685446314038},"name":"les_gros_q","deck":{"width":3,"length":8},"entities":[{"x":1,"y":1,"type":"rudder"},{"x":6,"y":0,"type":"oar"},{"x":6,"y":2,"type":"oar"},{"x":5,"y":2,"type":"oar"},{"x":4,"y":2,"type":"oar"},{"x":3,"y":2,"type":"oar"},{"x":3,"y":0,"type":"oar"},{"x":4,"y":0,"type":"oar"},{"x":5,"y":0,"type":"oar"},{"x":6,"y":1,"type":"sail","openned":true},{"x":7,"y":2,"type":"oar"},{"x":7,"y":0,"type":"oar"}],"life":1200,"shape":{"type":"rectangle","width":3.0,"height":8.0,"orientation":0.0}},"visibleEntities":[],"wind":{"orientation":0.0,"strength":100.0}}
sail need open : true
JSON of actions initialized : [Lfr.unice.polytech.si3.qgl.les_gros_q.objects.actions.Action;@b285ea4
Next round input: {"ship":{"type":"ship","position":{"x":6993.251808254436,"y":5740.955652502093,"orientation":-6.273685446314038},"name":"les_gros_q","deck":{"width":3,"length":8},"entities":[{"x":1,"y":1,"type":"rudder"},{"x":6,"y":0,"type":"oar"},{"x":6,"y":2,"type":"oar"},{"x":5,"y":2,"type":"oar"},{"x":4,"y":2,"type":"oar"},{"x":3,"y":2,"type":"oar"},{"x":3,"y":0,"type":"oar"},{"x":4,"y":0,"type":"oar"},{"x":5,"y":0,"type":"oar"},{"x":6,"y":1,"type":"sail","openned":true},{"x":7,"y":2,"type":"oar"},{"x":7,"y":0,"type":"oar"}],"life":1200,"shape":{"type":"rectangle","width":3.0,"height":8.0,"orientation":0.0}},"visibleEntities":[],"wind":{"orientation":0.0,"strength":100.0}}
sail need open : true
JSON of actions initialized : [Lfr.unice.polytech.si3.qgl.les_gros_q.objects.actions.Action;@60997dc3
Next round input: {"ship":{"type":"ship","position":{"x":7258.235338439399,"y":5743.473034900038,"orientation":-6.273685446314038},"name":"les_gros_q","deck":{"width":3,"length":8},"entities":[{"x":1,"y":1,"type":"rudder"},{"x":6,"y":0,"type":"oar"},{"x":6,"y":2,"type":"oar"},{"x":5,"y":2,"type":"oar"},{"x":4,"y":2,"type":"oar"},{"x":3,"y":2,"type":"oar"},{"x":3,"y":0,"type":"oar"},{"x":4,"y":0,"type":"oar"},{"x":5,"y":0,"type":"oar"},{"x":6,"y":1,"type":"sail","openned":true},{"x":7,"y":2,"type":"oar"},{"x":7,"y":0,"type":"oar"}],"life":1200,"shape":{"type":"rectangle","width":3.0,"height":8.0,"orientation":0.0}},"visibleEntities":[],"wind":{"orientation":0.0,"strength":100.0}}
sail need open : true
JSON of actions initialized : [Lfr.unice.polytech.si3.qgl.les_gros_q.objects.actions.Action;@aea9cd2
Next round input: {"ship":{"type":"ship","position":{"x":7523.218868624363,"y":5745.990417297984,"orientation":-6.273685446314038},"name":"les_gros_q","deck":{"width":3,"length":8},"entities":[{"x":1,"y":1,"type":"rudder"},{"x":6,"y":0,"type":"oar"},{"x":6,"y":2,"type":"oar"},{"x":5,"y":2,"type":"oar"},{"x":4,"y":2,"type":"oar"},{"x":3,"y":2,"type":"oar"},{"x":3,"y":0,"type":"oar"},{"x":4,"y":0,"type":"oar"},{"x":5,"y":0,"type":"oar"},{"x":6,"y":1,"type":"sail","openned":true},{"x":7,"y":2,"type":"oar"},{"x":7,"y":0,"type":"oar"}],"life":1200,"shape":{"type":"rectangle","width":3.0,"height":8.0,"orientation":0.0}},"visibleEntities":[],"wind":{"orientation":0.0,"strength":100.0}}
sail need open : true
JSON of actions initialized : [Lfr.unice.polytech.si3.qgl.les_gros_q.objects.actions.Action;@34fc8d21
Next round input: {"ship":{"type":"ship","position":{"x":7788.202398809326,"y":5748.50779969593,"orientation":-6.273685446314038},"name":"les_gros_q","deck":{"width":3,"length":8},"entities":[{"x":1,"y":1,"type":"rudder"},{"x":6,"y":0,"type":"oar"},{"x":6,"y":2,"type":"oar"},{"x":5,"y":2,"type":"oar"},{"x":4,"y":2,"type":"oar"},{"x":3,"y":2,"type":"oar"},{"x":3,"y":0,"type":"oar"},{"x":4,"y":0,"type":"oar"},{"x":5,"y":0,"type":"oar"},{"x":6,"y":1,"type":"sail","openned":true},{"x":7,"y":2,"type":"oar"},{"x":7,"y":0,"type":"oar"}],"life":1200,"shape":{"type":"rectangle","width":3.0,"height":8.0,"orientation":0.0}},"visibleEntities":[],"wind":{"orientation":0.0,"strength":100.0}}
sail need open : true
JSON of actions initialized : [Lfr.unice.polytech.si3.qgl.les_gros_q.objects.actions.Action;@476144d9
Next round input: {"ship":{"type":"ship","position":{"x":8053.1859289942895,"y":5751.025182093876,"orientation":-6.273685446314038},"name":"les_gros_q","deck":{"width":3,"length":8},"entities":[{"x":1,"y":1,"type":"rudder"},{"x":6,"y":0,"type":"oar"},{"x":6,"y":2,"type":"oar"},{"x":5,"y":2,"type":"oar"},{"x":4,"y":2,"type":"oar"},{"x":3,"y":2,"type":"oar"},{"x":3,"y":0,"type":"oar"},{"x":4,"y":0,"type":"oar"},{"x":5,"y":0,"type":"oar"},{"x":6,"y":1,"type":"sail","openned":true},{"x":7,"y":2,"type":"oar"},{"x":7,"y":0,"type":"oar"}],"life":1200,"shape":{"type":"rectangle","width":3.0,"height":8.0,"orientation":0.0}},"visibleEntities":[],"wind":{"orientation":0.0,"strength":100.0}}
sail need open : true
JSON of actions initialized : [Lfr.unice.polytech.si3.qgl.les_gros_q.objects.actions.Action;@2ee61e9b
Next round input: {"ship":{"type":"ship","position":{"x":8318.16945917921,"y":5753.542564491768,"orientation":-6.2736854463141265},"name":"les_gros_q","deck":{"width":3,"length":8},"entities":[{"x":1,"y":1,"type":"rudder"},{"x":6,"y":0,"type":"oar"},{"x":6,"y":2,"type":"oar"},{"x":5,"y":2,"type":"oar"},{"x":4,"y":2,"type":"oar"},{"x":3,"y":2,"type":"oar"},{"x":3,"y":0,"type":"oar"},{"x":4,"y":0,"type":"oar"},{"x":5,"y":0,"type":"oar"},{"x":6,"y":1,"type":"sail","openned":true},{"x":7,"y":2,"type":"oar"},{"x":7,"y":0,"type":"oar"}],"life":1200,"shape":{"type":"rectangle","width":3.0,"height":8.0,"orientation":0.0}},"visibleEntities":[],"wind":{"orientation":0.0,"strength":100.0}}
sail need open : true
JSON of actions initialized : [Lfr.unice.polytech.si3.qgl.les_gros_q.objects.actions.Action;@3730cc5f
Next round input: {"ship":{"type":"ship","position":{"x":8583.152989364082,"y":5756.059946889623,"orientation":-6.2736854463141265},"name":"les_gros_q","deck":{"width":3,"length":8},"entities":[{"x":1,"y":1,"type":"rudder"},{"x":6,"y":0,"type":"oar"},{"x":6,"y":2,"type":"oar"},{"x":5,"y":2,"type":"oar"},{"x":4,"y":2,"type":"oar"},{"x":3,"y":2,"type":"oar"},{"x":3,"y":0,"type":"oar"},{"x":4,"y":0,"type":"oar"},{"x":5,"y":0,"type":"oar"},{"x":6,"y":1,"type":"sail","openned":true},{"x":7,"y":2,"type":"oar"},{"x":7,"y":0,"type":"oar"}],"life":1200,"shape":{"type":"rectangle","width":3.0,"height":8.0,"orientation":0.0}},"visibleEntities":[],"wind":{"orientation":0.0,"strength":100.0}}
sail need open : true
JSON of actions initialized : [Lfr.unice.polytech.si3.qgl.les_gros_q.objects.actions.Action;@6a0afbc6
Next round input: {"ship":{"type":"ship","position":{"x":8848.136519548954,"y":5758.577329287514,"orientation":-6.273685446314038},"name":"les_gros_q","deck":{"width":3,"length":8},"entities":[{"x":1,"y":1,"type":"rudder"},{"x":6,"y":0,"type":"oar"},{"x":6,"y":2,"type":"oar"},{"x":5,"y":2,"type":"oar"},{"x":4,"y":2,"type":"oar"},{"x":3,"y":2,"type":"oar"},{"x":3,"y":0,"type":"oar"},{"x":4,"y":0,"type":"oar"},{"x":5,"y":0,"type":"oar"},{"x":6,"y":1,"type":"sail","openned":true},{"x":7,"y":2,"type":"oar"},{"x":7,"y":0,"type":"oar"}],"life":1200,"shape":{"type":"rectangle","width":3.0,"height":8.0,"orientation":0.0}},"visibleEntities":[],"wind":{"orientation":0.0,"strength":100.0}}
sail need open : true
JSON of actions initialized : [Lfr.unice.polytech.si3.qgl.les_gros_q.objects.actions.Action;@4d87d852
Next round input: {"ship":{"type":"ship","position":{"x":9113.120049733827,"y":5761.0947116854595,"orientation":-6.273685446314038},"name":"les_gros_q","deck":{"width":3,"length":8},"entities":[{"x":1,"y":1,"type":"rudder"},{"x":6,"y":0,"type":"oar"},{"x":6,"y":2,"type":"oar"},{"x":5,"y":2,"type":"oar"},{"x":4,"y":2,"type":"oar"},{"x":3,"y":2,"type":"oar"},{"x":3,"y":0,"type":"oar"},{"x":4,"y":0,"type":"oar"},{"x":5,"y":0,"type":"oar"},{"x":6,"y":1,"type":"sail","openned":true},{"x":7,"y":2,"type":"oar"},{"x":7,"y":0,"type":"oar"}],"life":1200,"shape":{"type":"rectangle","width":3.0,"height":8.0,"orientation":0.0}},"visibleEntities":[],"wind":{"orientation":0.0,"strength":100.0}}
sail need open : true
JSON of actions initialized : [Lfr.unice.polytech.si3.qgl.les_gros_q.objects.actions.Action;@7f017340
