Init game input: {"goal":{"mode":"REGATTA","checkpoints":[{"position":{"x":5008.695652173906,"y":5301.3029315961085,"orientation":0.0},"shape":{"type":"circle","radius":225.0}},{"position":{"x":7773.913043478262,"y":10651.465798045629,"orientation":0.0},"shape":{"type":"circle","radius":300.0}},{"position":{"x":6443.478260869564,"y":7842.01954397396,"orientation":0.0},"shape":{"type":"circle","radius":225.0}}]},"ship":{"type":"ship","position":{"x":1865.2173913043503,"y":1148.2084690553752,"orientation":0.0},"name":"deadbeef","deck":{"width":3,"length":8},"entities":[{"x":7,"y":1,"type":"rudder"},{"x":3,"y":1,"type":"sail","openned":false},{"x":1,"y":2,"type":"oar"},{"x":2,"y":2,"type":"oar"},{"x":3,"y":2,"type":"oar"},{"x":4,"y":2,"type":"oar"},{"x":5,"y":2,"type":"oar"},{"x":6,"y":2,"type":"oar"},{"x":1,"y":0,"type":"oar"},{"x":2,"y":0,"type":"oar"},{"x":3,"y":0,"type":"oar"},{"x":4,"y":0,"type":"oar"},{"x":5,"y":0,"type":"oar"},{"x":6,"y":0,"type":"oar"},{"x":7,"y":2,"type":"oar"},{"x":7,"y":0,"type":"oar"}],"life":1200,"shape":{"type":"rectangle","width":3.0,"height":8.0,"orientation":0.0}},"sailors":[{"x":0,"y":0,"id":0,"name":"Jack Pouce"},{"x":0,"y":1,"id":1,"name":"Edward Pouce"},{"x":0,"y":2,"id":2,"name":"Luffy Teach"},{"x":1,"y":0,"id":3,"name":"Luffy Teach"},{"x":1,"y":1,"id":4,"name":"Jack Pouce"},{"x":1,"y":2,"id":5,"name":"Luffy Pouce"},{"x":2,"y":0,"id":6,"name":"Luffy Teach"},{"x":2,"y":1,"id":7,"name":"Luffy Teach"},{"x":2,"y":2,"id":8,"name":"Edward Teach"},{"x":3,"y":0,"id":9,"name":"Tom Teach"},{"x":3,"y":1,"id":10,"name":"Tom Teach"},{"x":3,"y":2,"id":11,"name":"Tom Teach"},{"x":4,"y":0,"id":12,"name":"Edward Pouce"},{"x":4,"y":1,"id":13,"name":"Edward Teach"},{"x":4,"y":2,"id":14,"name":"Edward Teach"},{"x":5,"y":0,"id":15,"name":"Luffy Pouce"}],"shipCount":1}
Next round input: {"ship":{"type":"ship","position":{"x":1865.2173913043503,"y":1148.2084690553752,"orientation":0.0},"name":"deadbeef","deck":{"width":3,"length":8},"entities":[{"x":7,"y":1,"type":"rudder"},{"x":3,"y":1,"type":"sail","openned":false},{"x":1,"y":2,"type":"oar"},{"x":2,"y":2,"type":"oar"},{"x":3,"y":2,"type":"oar"},{"x":4,"y":2,"type":"oar"},{"x":5,"y":2,"type":"oar"},{"x":6,"y":2,"type":"oar"},{"x":1,"y":0,"type":"oar"},{"x":2,"y":0,"type":"oar"},{"x":3,"y":0,"type":"oar"},{"x":4,"y":0,"type":"oar"},{"x":5,"y":0,"type":"oar"},{"x":6,"y":0,"type":"oar"},{"x":7,"y":2,"type":"oar"},{"x":7,"y":0,"type":"oar"}],"life":1200,"shape":{"type":"rectangle","width":3.0,"height":8.0,"orientation":0.0}},"visibleEntities":[],"wind":{"orientation":0.0,"strength":50.0}}
Current turn: 0
[{"sailorId":13,"xdistance":3,"ydistance":0,"type":"MOVING"},{"sailorId":3,"xdistance":0,"ydistance":0,"type":"MOVING"},{"sailorId":5,"xdistance":0,"ydistance":0,"type":"MOVING"},{"sailorId":6,"xdistance":0,"ydistance":0,"type":"MOVING"},{"sailorId":8,"xdistance":0,"ydistance":0,"type":"MOVING"},{"sailorId":9,"xdistance":0,"ydistance":0,"type":"MOVING"},{"sailorId":11,"xdistance":0,"ydistance":0,"type":"MOVING"},{"sailorId":12,"xdistance":0,"ydistance":0,"type":"MOVING"},{"sailorId":14,"xdistance":0,"ydistance":0,"type":"MOVING"},{"sailorId":15,"xdistance":0,"ydistance":0,"type":"MOVING"},{"sailorId":10,"xdistance":2,"ydistance":1,"type":"MOVING"},{"sailorId":7,"xdistance":4,"ydistance":-1,"type":"MOVING"},{"sailorId":2,"xdistance":5,"ydistance":0,"type":"MOVING"},{"sailorId":0,"xdistance":5,"ydistance":0,"type":"MOVING"},{"sailorId":4,"xdistance":5,"ydistance":0,"type":"MOVING"},{"sailorId":1,"xdistance":3,"ydistance":0,"type":"MOVING"},{"sailorId":13,"rotation":0.7853981533974482,"type":"TURN"},{"sailorId":0,"type":"OAR"},{"sailorId":3,"type":"OAR"},{"sailorId":6,"type":"OAR"},{"sailorId":7,"type":"OAR"},{"sailorId":9,"type":"OAR"},{"sailorId":2,"type":"OAR"},{"sailorId":5,"type":"OAR"},{"sailorId":8,"type":"OAR"},{"sailorId":11,"type":"OAR"},{"sailorId":14,"type":"OAR"},{"sailorId":1,"type":"LIFT_SAIL"}]
Next round input: {"ship":{"type":"ship","position":{"x":2012.5383198847048,"y":1207.5333878714584,"orientation":0.7853981533974465},"name":"deadbeef","deck":{"width":3,"length":8},"entities":[{"x":7,"y":1,"type":"rudder"},{"x":3,"y":1,"type":"sail","openned":true},{"x":1,"y":2,"type":"oar"},{"x":2,"y":2,"type":"oar"},{"x":3,"y":2,"type":"oar"},{"x":4,"y":2,"type":"oar"},{"x":5,"y":2,"type":"oar"},{"x":6,"y":2,"type":"oar"},{"x":1,"y":0,"type":"oar"},{"x":2,"y":0,"type":"oar"},{"x":3,"y":0,"type":"oar"},{"x":4,"y":0,"type":"oar"},{"x":5,"y":0,"type":"oar"},{"x":6,"y":0,"type":"oar"},{"x":7,"y":2,"type":"oar"},{"x":7,"y":0,"type":"oar"}],"life":1200,"shape":{"type":"rectangle","width":3.0,"height":8.0,"orientation":0.0}},"visibleEntities":[],"wind":{"orientation":0.0,"strength":50.0}}
Current turn: 1
[{"sailorId":13,"xdistance":0,"ydistance":0,"type":"MOVING"},{"sailorId":3,"xdistance":0,"ydistance":0,"type":"MOVING"},{"sailorId":5,"xdistance":0,"ydistance":0,"type":"MOVING"},{"sailorId":6,"xdistance":0,"ydistance":0,"type":"MOVING"},{"sailorId":8,"xdistance":0,"ydistance":0,"type":"MOVING"},{"sailorId":9,"xdistance":0,"ydistance":0,"type":"MOVING"},{"sailorId":11,"xdistance":0,"ydistance":0,"type":"MOVING"},{"sailorId":12,"xdistance":0,"ydistance":0,"type":"MOVING"},{"sailorId":14,"xdistance":0,"ydistance":0,"type":"MOVING"},{"sailorId":0,"xdistance":0,"ydistance":0,"type":"MOVING"},{"sailorId":2,"xdistance":0,"ydistance":0,"type":"MOVING"},{"sailorId":7,"xdistance":0,"ydistance":0,"type":"MOVING"},{"sailorId":4,"xdistance":0,"ydistance":1,"type":"MOVING"},{"sailorId":15,"xdistance":2,"ydistance":0,"type":"MOVING"},{"sailorId":10,"xdistance":2,"ydistance":0,"type":"MOVING"},{"sailorId":1,"xdistance":0,"ydistance":0,"type":"MOVING"},{"sailorId":13,"rotation":0.15359360433990174,"type":"TURN"},{"sailorId":0,"type":"OAR"},{"sailorId":3,"type":"OAR"},{"sailorId":6,"type":"OAR"},{"sailorId":7,"type":"OAR"},{"sailorId":9,"type":"OAR"},{"sailorId":12,"type":"OAR"},{"sailorId":15,"type":"OAR"},{"sailorId":2,"type":"OAR"},{"sailorId":4,"type":"OAR"},{"sailorId":5,"type":"OAR"},{"sailorId":8,"type":"OAR"},{"sailorId":10,"type":"OAR"},{"sailorId":11,"type":"OAR"},{"sailorId":14,"type":"OAR"},{"sailorId":1,"type":"LIFT_SAIL"}]
Next round input: {"ship":{"type":"ship","position":{"x":2141.13441705766,"y":1357.2223863114077,"orientation":0.9389917577373431},"name":"deadbeef","deck":{"width":3,"length":8},"entities":[{"x":7,"y":1,"type":"rudder"},{"x":3,"y":1,"type":"sail","openned":true},{"x":1,"y":2,"type":"oar"},{"x":2,"y":2,"type":"oar"},{"x":3,"y":2,"type":"oar"},{"x":4,"y":2,"type":"oar"},{"x":5,"y":2,"type":"oar"},{"x":6,"y":2,"type":"oar"},{"x":1,"y":0,"type":"oar"},{"x":2,"y":0,"type":"oar"},{"x":3,"y":0,"type":"oar"},{"x":4,"y":0,"type":"oar"},{"x":5,"y":0,"type":"oar"},{"x":6,"y":0,"type":"oar"},{"x":7,"y":2,"type":"oar"},{"x":7,"y":0,"type":"oar"}],"life":1200,"shape":{"type":"rectangle","width":3.0,"height":8.0,"orientation":0.0}},"visibleEntities":[],"wind":{"orientation":0.0,"strength":50.0}}
Current turn: 2
[{"sailorId":13,"xdistance":0,"ydistance":0,"type":"MOVING"},{"sailorId":3,"xdistance":0,"ydistance":0,"type":"MOVING"},{"sailorId":5,"xdistance":0,"ydistance":0,"type":"MOVING"},{"sailorId":6,"xdistance":0,"ydistance":0,"type":"MOVING"},{"sailorId":8,"xdistance":0,"ydistance":0,"type":"MOVING"},{"sailorId":9,"xdistance":0,"ydistance":0,"type":"MOVING"},{"sailorId":11,"xdistance":0,"ydistance":0,"type":"MOVING"},{"sailorId":12,"xdistance":0,"ydistance":0,"type":"MOVING"},{"sailorId":14,"xdistance":0,"ydistance":0,"type":"MOVING"},{"sailorId":0,"xdistance":0,"ydistance":0,"type":"MOVING"},{"sailorId":2,"xdistance":0,"ydistance":0,"type":"MOVING"},{"sailorId":7,"xdistance":0,"ydistance":0,"type":"MOVING"},{"sailorId":4,"xdistance":0,"ydistance":0,"type":"MOVING"},{"sailorId":15,"xdistance":0,"ydistance":0,"type":"MOVING"},{"sailorId":10,"xdistance":0,"ydistance":0,"type":"MOVING"},{"sailorId":1,"xdistance":0,"ydistance":0,"type":"MOVING"},{"sailorId":13,"rotation":0.0031510752883999326,"type":"TURN"},{"sailorId":0,"type":"OAR"},{"sailorId":3,"type":"OAR"},{"sailorId":6,"type":"OAR"},{"sailorId":7,"type":"OAR"},{"sailorId":9,"type":"OAR"},{"sailorId":12,"type":"OAR"},{"sailorId":15,"type":"OAR"},{"sailorId":2,"type":"OAR"},{"sailorId":4,"type":"OAR"},{"sailorId":5,"type":"OAR"},{"sailorId":8,"type":"OAR"},{"sailorId":10,"type":"OAR"},{"sailorId":11,"type":"OAR"},{"sailorId":14,"type":"OAR"},{"sailorId":1,"type":"LIFT_SAIL"}]
Next round input: {"ship":{"type":"ship","position":{"x":2255.7421388594844,"y":1514.329029886154,"orientation":0.9421428330257421},"name":"deadbeef","deck":{"width":3,"length":8},"entities":[{"x":7,"y":1,"type":"rudder"},{"x":3,"y":1,"type":"sail","openned":true},{"x":1,"y":2,"type":"oar"},{"x":2,"y":2,"type":"oar"},{"x":3,"y":2,"type":"oar"},{"x":4,"y":2,"type":"oar"},{"x":5,"y":2,"type":"oar"},{"x":6,"y":2,"type":"oar"},{"x":1,"y":0,"type":"oar"},{"x":2,"y":0,"type":"oar"},{"x":3,"y":0,"type":"oar"},{"x":4,"y":0,"type":"oar"},{"x":5,"y":0,"type":"oar"},{"x":6,"y":0,"type":"oar"},{"x":7,"y":2,"type":"oar"},{"x":7,"y":0,"type":"oar"}],"life":1200,"shape":{"type":"rectangle","width":3.0,"height":8.0,"orientation":0.0}},"visibleEntities":[{"type":"reef","position":{"x":2973.9130434782596,"y":2907.166123778503,"orientation":0.0},"shape":{"type":"circle","radius":675.0}}],"wind":{"orientation":0.0,"strength":50.0}}
Current turn: 3
[{"sailorId":13,"xdistance":0,"ydistance":0,"type":"MOVING"},{"sailorId":3,"xdistance":0,"ydistance":0,"type":"MOVING"},{"sailorId":5,"xdistance":0,"ydistance":0,"type":"MOVING"},{"sailorId":6,"xdistance":0,"ydistance":0,"type":"MOVING"},{"sailorId":8,"xdistance":0,"ydistance":0,"type":"MOVING"},{"sailorId":9,"xdistance":0,"ydistance":0,"type":"MOVING"},{"sailorId":11,"xdistance":0,"ydistance":0,"type":"MOVING"},{"sailorId":12,"xdistance":0,"ydistance":0,"type":"MOVING"},{"sailorId":14,"xdistance":0,"ydistance":0,"type":"MOVING"},{"sailorId":0,"xdistance":0,"ydistance":0,"type":"MOVING"},{"sailorId":2,"xdistance":0,"ydistance":0,"type":"MOVING"},{"sailorId":7,"xdistance":0,"ydistance":0,"type":"MOVING"},{"sailorId":4,"xdistance":0,"ydistance":0,"type":"MOVING"},{"sailorId":15,"xdistance":0,"ydistance":0,"type":"MOVING"},{"sailorId":10,"xdistance":0,"ydistance":0,"type":"MOVING"},{"sailorId":1,"xdistance":0,"ydistance":0,"type":"MOVING"},{"sailorId":13,"rotation":6.61033330696253E-5,"type":"TURN"},{"sailorId":0,"type":"OAR"},{"sailorId":3,"type":"OAR"},{"sailorId":6,"type":"OAR"},{"sailorId":7,"type":"OAR"},{"sailorId":9,"type":"OAR"},{"sailorId":12,"type":"OAR"},{"sailorId":15,"type":"OAR"},{"sailorId":2,"type":"OAR"},{"sailorId":4,"type":"OAR"},{"sailorId":5,"type":"OAR"},{"sailorId":8,"type":"OAR"},{"sailorId":10,"type":"OAR"},{"sailorId":11,"type":"OAR"},{"sailorId":14,"type":"OAR"},{"sailorId":1,"type":"LIFT_SAIL"}]
Next round input: {"ship":{"type":"ship","position":{"x":2370.0559956606835,"y":1671.5685934773019,"orientation":0.9422089363588161},"name":"deadbeef","deck":{"width":3,"length":8},"entities":[{"x":7,"y":1,"type":"rudder"},{"x":3,"y":1,"type":"sail","openned":true},{"x":1,"y":2,"type":"oar"},{"x":2,"y":2,"type":"oar"},{"x":3,"y":2,"type":"oar"},{"x":4,"y":2,"type":"oar"},{"x":5,"y":2,"type":"oar"},{"x":6,"y":2,"type":"oar"},{"x":1,"y":0,"type":"oar"},{"x":2,"y":0,"type":"oar"},{"x":3,"y":0,"type":"oar"},{"x":4,"y":0,"type":"oar"},{"x":5,"y":0,"type":"oar"},{"x":6,"y":0,"type":"oar"},{"x":7,"y":2,"type":"oar"},{"x":7,"y":0,"type":"oar"}],"life":1200,"shape":{"type":"rectangle","width":3.0,"height":8.0,"orientation":0.0}},"visibleEntities":[{"type":"reef","position":{"x":2973.9130434782596,"y":2907.166123778503,"orientation":0.0},"shape":{"type":"circle","radius":675.0}}],"wind":{"orientation":0.0,"strength":50.0}}
Current turn: 4
[{"sailorId":13,"xdistance":0,"ydistance":0,"type":"MOVING"},{"sailorId":3,"xdistance":0,"ydistance":0,"type":"MOVING"},{"sailorId":5,"xdistance":0,"ydistance":0,"type":"MOVING"},{"sailorId":6,"xdistance":0,"ydistance":0,"type":"MOVING"},{"sailorId":8,"xdistance":0,"ydistance":0,"type":"MOVING"},{"sailorId":9,"xdistance":0,"ydistance":0,"type":"MOVING"},{"sailorId":11,"xdistance":0,"ydistance":0,"type":"MOVING"},{"sailorId":12,"xdistance":0,"ydistance":0,"type":"MOVING"},{"sailorId":14,"xdistance":0,"ydistance":0,"type":"MOVING"},{"sailorId":0,"xdistance":0,"ydistance":0,"type":"MOVING"},{"sailorId":2,"xdistance":0,"ydistance":0,"type":"MOVING"},{"sailorId":7,"xdistance":0,"ydistance":0,"type":"MOVING"},{"sailorId":4,"xdistance":0,"ydistance":0,"type":"MOVING"},{"sailorId":15,"xdistance":0,"ydistance":0,"type":"MOVING"},{"sailorId":10,"xdistance":0,"ydistance":0,"type":"MOVING"},{"sailorId":1,"xdistance":0,"ydistance":0,"type":"MOVING"},{"sailorId":13,"rotation":1.4461037615552729E-6,"type":"TURN"},{"sailorId":0,"type":"OAR"},{"sailorId":3,"type":"OAR"},{"sailorId":6,"type":"OAR"},{"sailorId":7,"type":"OAR"},{"sailorId":9,"type":"OAR"},{"sailorId":12,"type":"OAR"},{"sailorId":15,"type":"OAR"},{"sailorId":2,"type":"OAR"},{"sailorId":4,"type":"OAR"},{"sailorId":5,"type":"OAR"},{"sailorId":8,"type":"OAR"},{"sailorId":10,"type":"OAR"},{"sailorId":11,"type":"OAR"},{"sailorId":14,"type":"OAR"},{"sailorId":1,"type":"LIFT_SAIL"}]
Next round input: {"ship":{"type":"ship","position":{"x":2484.3636799927745,"y":1828.8109394700045,"orientation":0.942210382462575},"name":"deadbeef","deck":{"width":3,"length":8},"entities":[{"x":7,"y":1,"type":"rudder"},{"x":3,"y":1,"type":"sail","openned":true},{"x":1,"y":2,"type":"oar"},{"x":2,"y":2,"type":"oar"},{"x":3,"y":2,"type":"oar"},{"x":4,"y":2,"type":"oar"},{"x":5,"y":2,"type":"oar"},{"x":6,"y":2,"type":"oar"},{"x":1,"y":0,"type":"oar"},{"x":2,"y":0,"type":"oar"},{"x":3,"y":0,"type":"oar"},{"x":4,"y":0,"type":"oar"},{"x":5,"y":0,"type":"oar"},{"x":6,"y":0,"type":"oar"},{"x":7,"y":2,"type":"oar"},{"x":7,"y":0,"type":"oar"}],"life":1200,"shape":{"type":"rectangle","width":3.0,"height":8.0,"orientation":0.0}},"visibleEntities":[{"type":"reef","position":{"x":2973.9130434782596,"y":2907.166123778503,"orientation":0.0},"shape":{"type":"circle","radius":675.0}}],"wind":{"orientation":0.0,"strength":50.0}}
Current turn: 5
[{"sailorId":13,"xdistance":0,"ydistance":0,"type":"MOVING"},{"sailorId":3,"xdistance":0,"ydistance":0,"type":"MOVING"},{"sailorId":5,"xdistance":0,"ydistance":0,"type":"MOVING"},{"sailorId":6,"xdistance":0,"ydistance":0,"type":"MOVING"},{"sailorId":8,"xdistance":0,"ydistance":0,"type":"MOVING"},{"sailorId":9,"xdistance":0,"ydistance":0,"type":"MOVING"},{"sailorId":11,"xdistance":0,"ydistance":0,"type":"MOVING"},{"sailorId":12,"xdistance":0,"ydistance":0,"type":"MOVING"},{"sailorId":14,"xdistance":0,"ydistance":0,"type":"MOVING"},{"sailorId":0,"xdistance":0,"ydistance":0,"type":"MOVING"},{"sailorId":2,"xdistance":0,"ydistance":0,"type":"MOVING"},{"sailorId":7,"xdistance":0,"ydistance":0,"type":"MOVING"},{"sailorId":4,"xdistance":0,"ydistance":0,"type":"MOVING"},{"sailorId":15,"xdistance":0,"ydistance":0,"type":"MOVING"},{"sailorId":10,"xdistance":0,"ydistance":0,"type":"MOVING"},{"sailorId":1,"xdistance":0,"ydistance":0,"type":"MOVING"},{"sailorId":13,"rotation":3.6500241499888574E-8,"type":"TURN"},{"sailorId":0,"type":"OAR"},{"sailorId":3,"type":"OAR"},{"sailorId":6,"type":"OAR"},{"sailorId":7,"type":"OAR"},{"sailorId":9,"type":"OAR"},{"sailorId":12,"type":"OAR"},{"sailorId":15,"type":"OAR"},{"sailorId":2,"type":"OAR"},{"sailorId":4,"type":"OAR"},{"sailorId":5,"type":"OAR"},{"sailorId":8,"type":"OAR"},{"sailorId":10,"type":"OAR"},{"sailorId":11,"type":"OAR"},{"sailorId":14,"type":"OAR"},{"sailorId":1,"type":"LIFT_SAIL"}]
Next round input: {"ship":{"type":"ship","position":{"x":2598.671228856363,"y":1986.053346524291,"orientation":0.9422104189628112},"name":"deadbeef","deck":{"width":3,"length":8},"entities":[{"x":7,"y":1,"type":"rudder"},{"x":3,"y":1,"type":"sail","openned":true},{"x":1,"y":2,"type":"oar"},{"x":2,"y":2,"type":"oar"},{"x":3,"y":2,"type":"oar"},{"x":4,"y":2,"type":"oar"},{"x":5,"y":2,"type":"oar"},{"x":6,"y":2,"type":"oar"},{"x":1,"y":0,"type":"oar"},{"x":2,"y":0,"type":"oar"},{"x":3,"y":0,"type":"oar"},{"x":4,"y":0,"type":"oar"},{"x":5,"y":0,"type":"oar"},{"x":6,"y":0,"type":"oar"},{"x":7,"y":2,"type":"oar"},{"x":7,"y":0,"type":"oar"}],"life":1200,"shape":{"type":"rectangle","width":3.0,"height":8.0,"orientation":0.0}},"visibleEntities":[{"type":"reef","position":{"x":2973.9130434782596,"y":2907.166123778503,"orientation":0.0},"shape":{"type":"circle","radius":675.0}}],"wind":{"orientation":0.0,"strength":50.0}}
Current turn: 6
[{"sailorId":13,"xdistance":0,"ydistance":0,"type":"MOVING"},{"sailorId":3,"xdistance":0,"ydistance":0,"type":"MOVING"},{"sailorId":5,"xdistance":0,"ydistance":0,"type":"MOVING"},{"sailorId":6,"xdistance":0,"ydistance":0,"type":"MOVING"},{"sailorId":8,"xdistance":0,"ydistance":0,"type":"MOVING"},{"sailorId":9,"xdistance":0,"ydistance":0,"type":"MOVING"},{"sailorId":11,"xdistance":0,"ydistance":0,"type":"MOVING"},{"sailorId":12,"xdistance":0,"ydistance":0,"type":"MOVING"},{"sailorId":14,"xdistance":0,"ydistance":0,"type":"MOVING"},{"sailorId":0,"xdistance":0,"ydistance":0,"type":"MOVING"},{"sailorId":2,"xdistance":0,"ydistance":0,"type":"MOVING"},{"sailorId":7,"xdistance":0,"ydistance":0,"type":"MOVING"},{"sailorId":4,"xdistance":0,"ydistance":0,"type":"MOVING"},{"sailorId":15,"xdistance":0,"ydistance":0,"type":"MOVING"},{"sailorId":10,"xdistance":0,"ydistance":0,"type":"MOVING"},{"sailorId":1,"xdistance":0,"ydistance":0,"type":"MOVING"},{"sailorId":13,"rotation":0.7853981533974482,"type":"TURN"},{"sailorId":0,"type":"OAR"},{"sailorId":3,"type":"OAR"},{"sailorId":6,"type":"OAR"},{"sailorId":7,"type":"OAR"},{"sailorId":9,"type":"OAR"},{"sailorId":2,"type":"OAR"},{"sailorId":4,"type":"OAR"},{"sailorId":5,"type":"OAR"},{"sailorId":8,"type":"OAR"},{"sailorId":10,"type":"OAR"},{"sailorId":11,"type":"OAR"},{"sailorId":14,"type":"OAR"},{"sailorId":1,"type":"LIFT_SAIL"}]
Next round input: {"ship":{"type":"ship","position":{"x":2606.905058493058,"y":2119.3303137919274,"orientation":2.1764075228730912},"name":"deadbeef","deck":{"width":3,"length":8},"entities":[{"x":7,"y":1,"type":"rudder"},{"x":3,"y":1,"type":"sail","openned":true},{"x":1,"y":2,"type":"oar"},{"x":2,"y":2,"type":"oar"},{"x":3,"y":2,"type":"oar"},{"x":4,"y":2,"type":"oar"},{"x":5,"y":2,"type":"oar"},{"x":6,"y":2,"type":"oar"},{"x":1,"y":0,"type":"oar"},{"x":2,"y":0,"type":"oar"},{"x":3,"y":0,"type":"oar"},{"x":4,"y":0,"type":"oar"},{"x":5,"y":0,"type":"oar"},{"x":6,"y":0,"type":"oar"},{"x":7,"y":2,"type":"oar"},{"x":7,"y":0,"type":"oar"}],"life":1200,"shape":{"type":"rectangle","width":3.0,"height":8.0,"orientation":0.0}},"visibleEntities":[{"type":"reef","position":{"x":2973.9130434782596,"y":2907.166123778503,"orientation":0.0},"shape":{"type":"circle","radius":675.0}}],"wind":{"orientation":0.0,"strength":50.0}}
Current turn: 7
[{"sailorId":13,"xdistance":0,"ydistance":0,"type":"MOVING"},{"sailorId":3,"xdistance":0,"ydistance":0,"type":"MOVING"},{"sailorId":5,"xdistance":0,"ydistance":0,"type":"MOVING"},{"sailorId":6,"xdistance":0,"ydistance":0,"type":"MOVING"},{"sailorId":8,"xdistance":0,"ydistance":0,"type":"MOVING"},{"sailorId":9,"xdistance":0,"ydistance":0,"type":"MOVING"},{"sailorId":11,"xdistance":0,"ydistance":0,"type":"MOVING"},{"sailorId":12,"xdistance":0,"ydistance":0,"type":"MOVING"},{"sailorId":14,"xdistance":0,"ydistance":0,"type":"MOVING"},{"sailorId":0,"xdistance":0,"ydistance":0,"type":"MOVING"},{"sailorId":2,"xdistance":0,"ydistance":0,"type":"MOVING"},{"sailorId":7,"xdistance":0,"ydistance":0,"type":"MOVING"},{"sailorId":4,"xdistance":0,"ydistance":0,"type":"MOVING"},{"sailorId":15,"xdistance":0,"ydistance":0,"type":"MOVING"},{"sailorId":10,"xdistance":0,"ydistance":0,"type":"MOVING"},{"sailorId":1,"xdistance":0,"ydistance":0,"type":"MOVING"},{"sailorId":13,"rotation":-0.05218477378390518,"type":"TURN"},{"sailorId":0,"type":"OAR"},{"sailorId":3,"type":"OAR"},{"sailorId":6,"type":"OAR"},{"sailorId":7,"type":"OAR"},{"sailorId":9,"type":"OAR"},{"sailorId":12,"type":"OAR"},{"sailorId":15,"type":"OAR"},{"sailorId":2,"type":"OAR"},{"sailorId":4,"type":"OAR"},{"sailorId":5,"type":"OAR"},{"sailorId":8,"type":"OAR"},{"sailorId":10,"type":"OAR"},{"sailorId":11,"type":"OAR"},{"sailorId":14,"type":"OAR"},{"sailorId":1,"type":"LOWER_SAIL"}]
Next round input: {"ship":{"type":"ship","position":{"x":2516.521767023048,"y":2257.3509043816202,"orientation":2.124222749089188},"name":"deadbeef","deck":{"width":3,"length":8},"entities":[{"x":7,"y":1,"type":"rudder"},{"x":3,"y":1,"type":"sail","openned":false},{"x":1,"y":2,"type":"oar"},{"x":2,"y":2,"type":"oar"},{"x":3,"y":2,"type":"oar"},{"x":4,"y":2,"type":"oar"},{"x":5,"y":2,"type":"oar"},{"x":6,"y":2,"type":"oar"},{"x":1,"y":0,"type":"oar"},{"x":2,"y":0,"type":"oar"},{"x":3,"y":0,"type":"oar"},{"x":4,"y":0,"type":"oar"},{"x":5,"y":0,"type":"oar"},{"x":6,"y":0,"type":"oar"},{"x":7,"y":2,"type":"oar"},{"x":7,"y":0,"type":"oar"}],"life":1200,"shape":{"type":"rectangle","width":3.0,"height":8.0,"orientation":0.0}},"visibleEntities":[{"type":"reef","position":{"x":2973.9130434782596,"y":2907.166123778503,"orientation":0.0},"shape":{"type":"circle","radius":675.0}}],"wind":{"orientation":0.0,"strength":50.0}}
Current turn: 8
[{"sailorId":13,"xdistance":0,"ydistance":0,"type":"MOVING"},{"sailorId":3,"xdistance":0,"ydistance":0,"type":"MOVING"},{"sailorId":5,"xdistance":0,"ydistance":0,"type":"MOVING"},{"sailorId":6,"xdistance":0,"ydistance":0,"type":"MOVING"},{"sailorId":8,"xdistance":0,"ydistance":0,"type":"MOVING"},{"sailorId":9,"xdistance":0,"ydistance":0,"type":"MOVING"},{"sailorId":11,"xdistance":0,"ydistance":0,"type":"MOVING"},{"sailorId":12,"xdistance":0,"ydistance":0,"type":"MOVING"},{"sailorId":14,"xdistance":0,"ydistance":0,"type":"MOVING"},{"sailorId":0,"xdistance":0,"ydistance":0,"type":"MOVING"},{"sailorId":2,"xdistance":0,"ydistance":0,"type":"MOVING"},{"sailorId":7,"xdistance":0,"ydistance":0,"type":"MOVING"},{"sailorId":4,"xdistance":0,"ydistance":0,"type":"MOVING"},{"sailorId":15,"xdistance":0,"ydistance":0,"type":"MOVING"},{"sailorId":10,"xdistance":0,"ydistance":0,"type":"MOVING"},{"sailorId":1,"xdistance":0,"ydistance":0,"type":"MOVING"},{"sailorId":13,"rotation":0.06051597710929091,"type":"TURN"},{"sailorId":0,"type":"OAR"},{"sailorId":3,"type":"OAR"},{"sailorId":6,"type":"OAR"},{"sailorId":7,"type":"OAR"},{"sailorId":9,"type":"OAR"},{"sailorId":12,"type":"OAR"},{"sailorId":15,"type":"OAR"},{"sailorId":2,"type":"OAR"},{"sailorId":4,"type":"OAR"},{"sailorId":5,"type":"OAR"},{"sailorId":8,"type":"OAR"},{"sailorId":10,"type":"OAR"},{"sailorId":11,"type":"OAR"},{"sailorId":14,"type":"OAR"},{"sailorId":1,"type":"LOWER_SAIL"}]
Next round input: {"ship":{"type":"ship","position":{"x":2425.6454544981702,"y":2395.039644254883,"orientation":2.184738726198487},"name":"deadbeef","deck":{"width":3,"length":8},"entities":[{"x":7,"y":1,"type":"rudder"},{"x":3,"y":1,"type":"sail","openned":false},{"x":1,"y":2,"type":"oar"},{"x":2,"y":2,"type":"oar"},{"x":3,"y":2,"type":"oar"},{"x":4,"y":2,"type":"oar"},{"x":5,"y":2,"type":"oar"},{"x":6,"y":2,"type":"oar"},{"x":1,"y":0,"type":"oar"},{"x":2,"y":0,"type":"oar"},{"x":3,"y":0,"type":"oar"},{"x":4,"y":0,"type":"oar"},{"x":5,"y":0,"type":"oar"},{"x":6,"y":0,"type":"oar"},{"x":7,"y":2,"type":"oar"},{"x":7,"y":0,"type":"oar"}],"life":1200,"shape":{"type":"rectangle","width":3.0,"height":8.0,"orientation":0.0}},"visibleEntities":[{"type":"reef","position":{"x":2973.9130434782596,"y":2907.166123778503,"orientation":0.0},"shape":{"type":"circle","radius":675.0}}],"wind":{"orientation":0.0,"strength":50.0}}
Current turn: 9
[{"sailorId":13,"xdistance":0,"ydistance":0,"type":"MOVING"},{"sailorId":3,"xdistance":0,"ydistance":0,"type":"MOVING"},{"sailorId":5,"xdistance":0,"ydistance":0,"type":"MOVING"},{"sailorId":6,"xdistance":0,"ydistance":0,"type":"MOVING"},{"sailorId":8,"xdistance":0,"ydistance":0,"type":"MOVING"},{"sailorId":9,"xdistance":0,"ydistance":0,"type":"MOVING"},{"sailorId":11,"xdistance":0,"ydistance":0,"type":"MOVING"},{"sailorId":12,"xdistance":0,"ydistance":0,"type":"MOVING"},{"sailorId":14,"xdistance":0,"ydistance":0,"type":"MOVING"},{"sailorId":0,"xdistance":0,"ydistance":0,"type":"MOVING"},{"sailorId":2,"xdistance":0,"ydistance":0,"type":"MOVING"},{"sailorId":7,"xdistance":0,"ydistance":0,"type":"MOVING"},{"sailorId":4,"xdistance":0,"ydistance":0,"type":"MOVING"},{"sailorId":15,"xdistance":0,"ydistance":0,"type":"MOVING"},{"sailorId":10,"xdistance":0,"ydistance":0,"type":"MOVING"},{"sailorId":1,"xdistance":0,"ydistance":0,"type":"MOVING"},{"sailorId":13,"rotation":-0.1405280447430748,"type":"TURN"},{"sailorId":0,"type":"OAR"},{"sailorId":3,"type":"OAR"},{"sailorId":6,"type":"OAR"},{"sailorId":7,"type":"OAR"},{"sailorId":9,"type":"OAR"},{"sailorId":12,"type":"OAR"},{"sailorId":15,"type":"OAR"},{"sailorId":2,"type":"OAR"},{"sailorId":4,"type":"OAR"},{"sailorId":5,"type":"OAR"},{"sailorId":8,"type":"OAR"},{"sailorId":10,"type":"OAR"},{"sailorId":11,"type":"OAR"},{"sailorId":14,"type":"OAR"},{"sailorId":1,"type":"LOWER_SAIL"}]
Next round input: {"ship":{"type":"ship","position":{"x":2340.264110476193,"y":2536.0724648161445,"orientation":2.0442106814554157},"name":"deadbeef","deck":{"width":3,"length":8},"entities":[{"x":7,"y":1,"type":"rudder"},{"x":3,"y":1,"type":"sail","openned":false},{"x":1,"y":2,"type":"oar"},{"x":2,"y":2,"type":"oar"},{"x":3,"y":2,"type":"oar"},{"x":4,"y":2,"type":"oar"},{"x":5,"y":2,"type":"oar"},{"x":6,"y":2,"type":"oar"},{"x":1,"y":0,"type":"oar"},{"x":2,"y":0,"type":"oar"},{"x":3,"y":0,"type":"oar"},{"x":4,"y":0,"type":"oar"},{"x":5,"y":0,"type":"oar"},{"x":6,"y":0,"type":"oar"},{"x":7,"y":2,"type":"oar"},{"x":7,"y":0,"type":"oar"}],"life":1200,"shape":{"type":"rectangle","width":3.0,"height":8.0,"orientation":0.0}},"visibleEntities":[{"type":"reef","position":{"x":2973.9130434782596,"y":2907.166123778503,"orientation":0.0},"shape":{"type":"circle","radius":675.0}}],"wind":{"orientation":0.0,"strength":50.0}}
Current turn: 10
[{"sailorId":13,"xdistance":0,"ydistance":0,"type":"MOVING"},{"sailorId":3,"xdistance":0,"ydistance":0,"type":"MOVING"},{"sailorId":5,"xdistance":0,"ydistance":0,"type":"MOVING"},{"sailorId":6,"xdistance":0,"ydistance":0,"type":"MOVING"},{"sailorId":8,"xdistance":0,"ydistance":0,"type":"MOVING"},{"sailorId":9,"xdistance":0,"ydistance":0,"type":"MOVING"},{"sailorId":11,"xdistance":0,"ydistance":0,"type":"MOVING"},{"sailorId":12,"xdistance":0,"ydistance":0,"type":"MOVING"},{"sailorId":14,"xdistance":0,"ydistance":0,"type":"MOVING"},{"sailorId":0,"xdistance":0,"ydistance":0,"type":"MOVING"},{"sailorId":2,"xdistance":0,"ydistance":0,"type":"MOVING"},{"sailorId":7,"xdistance":0,"ydistance":0,"type":"MOVING"},{"sailorId":4,"xdistance":0,"ydistance":0,"type":"MOVING"},{"sailorId":15,"xdistance":0,"ydistance":0,"type":"MOVING"},{"sailorId":10,"xdistance":0,"ydistance":0,"type":"MOVING"},{"sailorId":1,"xdistance":0,"ydistance":0,"type":"MOVING"},{"sailorId":13,"rotation":-0.14099972683922335,"type":"TURN"},{"sailorId":0,"type":"OAR"},{"sailorId":3,"type":"OAR"},{"sailorId":6,"type":"OAR"},{"sailorId":7,"type":"OAR"},{"sailorId":9,"type":"OAR"},{"sailorId":12,"type":"OAR"},{"sailorId":15,"type":"OAR"},{"sailorId":2,"type":"OAR"},{"sailorId":4,"type":"OAR"},{"sailorId":5,"type":"OAR"},{"sailorId":8,"type":"OAR"},{"sailorId":10,"type":"OAR"},{"sailorId":11,"type":"OAR"},{"sailorId":14,"type":"OAR"},{"sailorId":1,"type":"LOWER_SAIL"}]
Next round input: {"ship":{"type":"ship","position":{"x":2275.5140967119873,"y":2687.6883124601877,"orientation":1.9032109546161922},"name":"deadbeef","deck":{"width":3,"length":8},"entities":[{"x":7,"y":1,"type":"rudder"},{"x":3,"y":1,"type":"sail","openned":false},{"x":1,"y":2,"type":"oar"},{"x":2,"y":2,"type":"oar"},{"x":3,"y":2,"type":"oar"},{"x":4,"y":2,"type":"oar"},{"x":5,"y":2,"type":"oar"},{"x":6,"y":2,"type":"oar"},{"x":1,"y":0,"type":"oar"},{"x":2,"y":0,"type":"oar"},{"x":3,"y":0,"type":"oar"},{"x":4,"y":0,"type":"oar"},{"x":5,"y":0,"type":"oar"},{"x":6,"y":0,"type":"oar"},{"x":7,"y":2,"type":"oar"},{"x":7,"y":0,"type":"oar"}],"life":1200,"shape":{"type":"rectangle","width":3.0,"height":8.0,"orientation":0.0}},"visibleEntities":[{"type":"reef","position":{"x":2973.9130434782596,"y":2907.166123778503,"orientation":0.0},"shape":{"type":"circle","radius":675.0}}],"wind":{"orientation":0.0,"strength":50.0}}
Current turn: 11
[{"sailorId":13,"xdistance":0,"ydistance":0,"type":"MOVING"},{"sailorId":3,"xdistance":0,"ydistance":0,"type":"MOVING"},{"sailorId":5,"xdistance":0,"ydistance":0,"type":"MOVING"},{"sailorId":6,"xdistance":0,"ydistance":0,"type":"MOVING"},{"sailorId":8,"xdistance":0,"ydistance":0,"type":"MOVING"},{"sailorId":9,"xdistance":0,"ydistance":0,"type":"MOVING"},{"sailorId":11,"xdistance":0,"ydistance":0,"type":"MOVING"},{"sailorId":12,"xdistance":0,"ydistance":0,"type":"MOVING"},{"sailorId":14,"xdistance":0,"ydistance":0,"type":"MOVING"},{"sailorId":0,"xdistance":0,"ydistance":0,"type":"MOVING"},{"sailorId":2,"xdistance":0,"ydistance":0,"type":"MOVING"},{"sailorId":7,"xdistance":0,"ydistance":0,"type":"MOVING"},{"sailorId":4,"xdistance":0,"ydistance":0,"type":"MOVING"},{"sailorId":15,"xdistance":0,"ydistance":0,"type":"MOVING"},{"sailorId":10,"xdistance":0,"ydistance":0,"type":"MOVING"},{"sailorId":1,"xdistance":0,"ydistance":0,"type":"MOVING"},{"sailorId":13,"rotation":-0.340171416383689,"type":"TURN"},{"sailorId":0,"type":"OAR"},{"sailorId":3,"type":"OAR"},{"sailorId":6,"type":"OAR"},{"sailorId":7,"type":"OAR"},{"sailorId":9,"type":"OAR"},{"sailorId":12,"type":"OAR"},{"sailorId":15,"type":"OAR"},{"sailorId":2,"type":"OAR"},{"sailorId":4,"type":"OAR"},{"sailorId":5,"type":"OAR"},{"sailorId":8,"type":"OAR"},{"sailorId":10,"type":"OAR"},{"sailorId":11,"type":"OAR"},{"sailorId":14,"type":"OAR"},{"sailorId":1,"type":"LOWER_SAIL"}]
Next round input: {"ship":{"type":"ship","position":{"x":2248.7000964811455,"y":2849.6898986476235,"orientation":1.5630395382324977},"name":"deadbeef","deck":{"width":3,"length":8},"entities":[{"x":7,"y":1,"type":"rudder"},{"x":3,"y":1,"type":"sail","openned":false},{"x":1,"y":2,"type":"oar"},{"x":2,"y":2,"type":"oar"},{"x":3,"y":2,"type":"oar"},{"x":4,"y":2,"type":"oar"},{"x":5,"y":2,"type":"oar"},{"x":6,"y":2,"type":"oar"},{"x":1,"y":0,"type":"oar"},{"x":2,"y":0,"type":"oar"},{"x":3,"y":0,"type":"oar"},{"x":4,"y":0,"type":"oar"},{"x":5,"y":0,"type":"oar"},{"x":6,"y":0,"type":"oar"},{"x":7,"y":2,"type":"oar"},{"x":7,"y":0,"type":"oar"}],"life":1200,"shape":{"type":"rectangle","width":3.0,"height":8.0,"orientation":0.0}},"visibleEntities":[{"type":"reef","position":{"x":2973.9130434782596,"y":2907.166123778503,"orientation":0.0},"shape":{"type":"circle","radius":675.0}}],"wind":{"orientation":0.0,"strength":50.0}}
Current turn: 12
[{"sailorId":13,"xdistance":0,"ydistance":0,"type":"MOVING"},{"sailorId":3,"xdistance":0,"ydistance":0,"type":"MOVING"},{"sailorId":5,"xdistance":0,"ydistance":0,"type":"MOVING"},{"sailorId":6,"xdistance":0,"ydistance":0,"type":"MOVING"},{"sailorId":8,"xdistance":0,"ydistance":0,"type":"MOVING"},{"sailorId":9,"xdistance":0,"ydistance":0,"type":"MOVING"},{"sailorId":11,"xdistance":0,"ydistance":0,"type":"MOVING"},{"sailorId":12,"xdistance":0,"ydistance":0,"type":"MOVING"},{"sailorId":14,"xdistance":0,"ydistance":0,"type":"MOVING"},{"sailorId":0,"xdistance":0,"ydistance":0,"type":"MOVING"},{"sailorId":2,"xdistance":0,"ydistance":0,"type":"MOVING"},{"sailorId":7,"xdistance":0,"ydistance":0,"type":"MOVING"},{"sailorId":4,"xdistance":0,"ydistance":0,"type":"MOVING"},{"sailorId":15,"xdistance":0,"ydistance":0,"type":"MOVING"},{"sailorId":10,"xdistance":0,"ydistance":0,"type":"MOVING"},{"sailorId":1,"xdistance":0,"ydistance":0,"type":"MOVING"},{"sailorId":13,"rotation":-0.7853981533974482,"type":"TURN"},{"sailorId":0,"type":"OAR"},{"sailorId":3,"type":"OAR"},{"sailorId":6,"type":"OAR"},{"sailorId":7,"type":"OAR"},{"sailorId":9,"type":"OAR"},{"sailorId":12,"type":"OAR"},{"sailorId":15,"type":"OAR"},{"sailorId":1,"type":"LIFT_SAIL"}]
Next round input: {"ship":{"type":"ship","position":{"x":2293.990620777515,"y":2895.0923811060834,"orientation":0.10219896051324254},"name":"deadbeef","deck":{"width":3,"length":8},"entities":[{"x":7,"y":1,"type":"rudder"},{"x":3,"y":1,"type":"sail","openned":true},{"x":1,"y":2,"type":"oar"},{"x":2,"y":2,"type":"oar"},{"x":3,"y":2,"type":"oar"},{"x":4,"y":2,"type":"oar"},{"x":5,"y":2,"type":"oar"},{"x":6,"y":2,"type":"oar"},{"x":1,"y":0,"type":"oar"},{"x":2,"y":0,"type":"oar"},{"x":3,"y":0,"type":"oar"},{"x":4,"y":0,"type":"oar"},{"x":5,"y":0,"type":"oar"},{"x":6,"y":0,"type":"oar"},{"x":7,"y":2,"type":"oar"},{"x":7,"y":0,"type":"oar"}],"life":326,"shape":{"type":"rectangle","width":3.0,"height":8.0,"orientation":0.0}},"visibleEntities":[{"type":"reef","position":{"x":2973.9130434782596,"y":2907.166123778503,"orientation":0.0},"shape":{"type":"circle","radius":675.0}}],"wind":{"orientation":0.0,"strength":50.0}}
Current turn: 13
[{"sailorId":13,"xdistance":0,"ydistance":0,"type":"MOVING"},{"sailorId":3,"xdistance":0,"ydistance":0,"type":"MOVING"},{"sailorId":5,"xdistance":0,"ydistance":0,"type":"MOVING"},{"sailorId":6,"xdistance":0,"ydistance":0,"type":"MOVING"},{"sailorId":8,"xdistance":0,"ydistance":0,"type":"MOVING"},{"sailorId":9,"xdistance":0,"ydistance":0,"type":"MOVING"},{"sailorId":11,"xdistance":0,"ydistance":0,"type":"MOVING"},{"sailorId":12,"xdistance":0,"ydistance":0,"type":"MOVING"},{"sailorId":14,"xdistance":0,"ydistance":0,"type":"MOVING"},{"sailorId":0,"xdistance":0,"ydistance":0,"type":"MOVING"},{"sailorId":2,"xdistance":0,"ydistance":0,"type":"MOVING"},{"sailorId":7,"xdistance":0,"ydistance":0,"type":"MOVING"},{"sailorId":4,"xdistance":0,"ydistance":0,"type":"MOVING"},{"sailorId":15,"xdistance":0,"ydistance":0,"type":"MOVING"},{"sailorId":10,"xdistance":0,"ydistance":0,"type":"MOVING"},{"sailorId":1,"xdistance":0,"ydistance":0,"type":"MOVING"},{"sailorId":13,"rotation":-0.7853981533974482,"type":"TURN"},{"sailorId":0,"type":"OAR"},{"sailorId":3,"type":"OAR"},{"sailorId":6,"type":"OAR"},{"sailorId":7,"type":"OAR"},{"sailorId":9,"type":"OAR"},{"sailorId":12,"type":"OAR"},{"sailorId":15,"type":"OAR"},{"sailorId":1,"type":"LIFT_SAIL"}]


















deadbeef IS ELIMINATED: fr.unice.polytech.si3.qgl.frigatesengine.interfaces.DestroyedShipError


















